<?xml version="1.0" encoding="UTF-8"?><kml xmlns="http://www.opengis.net/kml/2.2"><Document><name>Algorri · короткий выход к скалам</name><description>Планировочная реконструкция по OpenStreetMap, 14.09.2026. Не запись GPS и не проверенный навигационный трек. Высоты не экспортированы. Данные © OpenStreetMap contributors, ODbL. Автопереезды и канатки в пеший трек не включены.</description><Style id="track"><LineStyle><color>ff275996</color><width>4</width></LineStyle></Style><Placemark><name>Парковка · город Zumaia</name><Point><coordinates>-2.253958,43.296238</coordinates></Point></Placemark><Placemark><name>San Telmo · часовня над пляжем</name><Point><coordinates>-2.26049,43.29863</coordinates></Point></Placemark><Placemark><name>Algorri · смотровая на слои скал</name><Point><coordinates>-2.267927,43.299899</coordinates></Point></Placemark><Placemark><name>Algorri · короткий выход к скалам</name><description>Планировочная реконструкция по OpenStreetMap, 14.09.2026. Не запись GPS и не проверенный навигационный трек. Высоты не экспортированы. Данные © OpenStreetMap contributors, ODbL. Автопереезды и канатки в пеший трек не включены.</description><styleUrl>#track</styleUrl><LineString><tessellate>1</tessellate><altitudeMode>clampToGround</altitudeMode><coordinates>-2.25399,43.296214,0 -2.253418,43.295805,0 -2.25337,43.295841,0 -2.253338,43.295856,0 -2.25331,43.295861,0 -2.253253,43.295851,0 -2.253262,43.295876,0 -2.253259,43.295889,0 -2.253239,43.295911,0 -2.253206,43.295922,0 -2.253188,43.295923,0 -2.253171,43.295919,0 -2.253111,43.295924,0 -2.253063,43.295933,0 -2.253025,43.295947,0 -2.252916,43.296008,0 -2.252393,43.296401,0 -2.252318,43.296427,0 -2.252265,43.296434,0 -2.252208,43.296434,0 -2.252118,43.296422,0 -2.252062,43.296413,0 -2.251895,43.296382,0 -2.251833,43.29636,0 -2.251735,43.296314,0 -2.251075,43.295843,0 -2.25101,43.295797,0 -2.250953,43.295754,0 -2.250858,43.295689,0 -2.250927,43.295618,0 -2.251065,43.295475,0 -2.251228,43.295306,0 -2.251297,43.295249,0 -2.251368,43.2952,0 -2.251534,43.295112,0 -2.251695,43.294997,0 -2.251879,43.294881,0 -2.252913,43.294114,0 -2.252986,43.294062,0 -2.253018,43.294086,0 -2.253031,43.294096,0 -2.252979,43.294134,0 -2.253095,43.294152,0 -2.253195,43.294175,0 -2.253282,43.294201,0 -2.25346,43.294245,0 -2.253706,43.294267,0 -2.253733,43.294295,0 -2.25382,43.294331,0 -2.254482,43.294529,0 -2.254934,43.294663,0 -2.25512,43.294738,0 -2.255262,43.294827,0 -2.255427,43.294969,0 -2.255353,43.295007,0 -2.25623,43.295931,0 -2.256267,43.29597,0 -2.256287,43.295992,0 -2.25631,43.296016,0 -2.256327,43.296033,0 -2.256344,43.296051,0 -2.256553,43.296265,0 -2.256572,43.296285,0 -2.256599,43.296309,0 -2.256614,43.296323,0 -2.256621,43.29633,0 -2.256647,43.296349,0 -2.256654,43.296356,0 -2.256698,43.296391,0 -2.256615,43.296462,0 -2.256694,43.29651,0 -2.25682,43.296588,0 -2.256947,43.296666,0 -2.256977,43.296685,0 -2.25719,43.296826,0 -2.257397,43.296943,0 -2.257438,43.29696,0 -2.257289,43.29708,0 -2.257129,43.297198,0 -2.257313,43.297374,0 -2.257188,43.297463,0 -2.257054,43.297561,0 -2.257106,43.2976,0 -2.25712,43.29761,0 -2.257449,43.29784,0 -2.257462,43.297848,0 -2.257589,43.297934,0 -2.257669,43.298007,0 -2.257735,43.298089,0 -2.25777,43.29815,0 -2.257796,43.298238,0 -2.257817,43.298239,0 -2.258222,43.298251,0 -2.258337,43.298249,0 -2.2584,43.29825,0 -2.2585,43.298262,0 -2.258629,43.298293,0 -2.258669,43.298303,0 -2.258951,43.298375,0 -2.259007,43.298397,0 -2.259085,43.298443,0 -2.259129,43.298436,0 -2.25917,43.298441,0 -2.259324,43.298473,0 -2.259362,43.298486,0 -2.259402,43.298512,0 -2.259468,43.2985,0 -2.259557,43.298505,0 -2.259645,43.298524,0 -2.260203,43.29859,0 -2.26049,43.298631,0 -2.261383,43.298761,0 -2.261626,43.298807,0 -2.261876,43.298882,0 -2.262011,43.298932,0 -2.262153,43.299015,0 -2.262357,43.299078,0 -2.262577,43.299115,0 -2.263005,43.299235,0 -2.263087,43.299253,0 -2.263148,43.299256,0 -2.263183,43.299264,0 -2.263276,43.299301,0 -2.26335,43.299321,0 -2.263466,43.299366,0 -2.263512,43.299378,0 -2.26363,43.29939,0 -2.263776,43.299418,0 -2.263899,43.299428,0 -2.264058,43.299419,0 -2.264161,43.299398,0 -2.264209,43.299395,0 -2.264277,43.2994,0 -2.264545,43.299462,0 -2.265004,43.299585,0 -2.26503,43.299555,0 -2.265081,43.299541,0 -2.26527,43.299552,0 -2.265321,43.299551,0 -2.265397,43.29954,0 -2.265453,43.299519,0 -2.265489,43.299513,0 -2.266048,43.299534,0 -2.26661,43.299588,0 -2.266706,43.299551,0 -2.26676,43.299537,0 -2.266917,43.299534,0 -2.266948,43.299514,0 -2.266954,43.299497,0 -2.267007,43.299487,0 -2.267086,43.29944,0 -2.267137,43.299392,0 -2.267203,43.299312,0 -2.267222,43.29927,0 -2.267277,43.299333,0 -2.267322,43.299432,0 -2.267451,43.299588,0 -2.267516,43.299645,0 -2.267662,43.299722,0 -2.267712,43.299761,0 -2.267774,43.299881,0 -2.267834,43.299883,0 -2.267919,43.299912,0 -2.267834,43.299883,0 -2.267774,43.299881,0 -2.267712,43.299761,0 -2.267662,43.299722,0 -2.267516,43.299645,0 -2.267451,43.299588,0 -2.267322,43.299432,0 -2.267277,43.299333,0 -2.267222,43.29927,0 -2.267203,43.299312,0 -2.267137,43.299392,0 -2.267086,43.29944,0 -2.267007,43.299487,0 -2.266954,43.299497,0 -2.266948,43.299514,0 -2.266917,43.299534,0 -2.26676,43.299537,0 -2.266706,43.299551,0 -2.26661,43.299588,0 -2.266048,43.299534,0 -2.265489,43.299513,0 -2.265453,43.299519,0 -2.265397,43.29954,0 -2.265321,43.299551,0 -2.26527,43.299552,0 -2.265081,43.299541,0 -2.26503,43.299555,0 -2.265004,43.299585,0 -2.264545,43.299462,0 -2.264277,43.2994,0 -2.264209,43.299395,0 -2.264161,43.299398,0 -2.264058,43.299419,0 -2.263899,43.299428,0 -2.263776,43.299418,0 -2.26363,43.29939,0 -2.263512,43.299378,0 -2.263466,43.299366,0 -2.26335,43.299321,0 -2.263276,43.299301,0 -2.263183,43.299264,0 -2.263148,43.299256,0 -2.263087,43.299253,0 -2.263005,43.299235,0 -2.262577,43.299115,0 -2.262357,43.299078,0 -2.262153,43.299015,0 -2.262011,43.298932,0 -2.261876,43.298882,0 -2.261626,43.298807,0 -2.261383,43.298761,0 -2.26049,43.298631,0 -2.260203,43.29859,0 -2.259645,43.298524,0 -2.259557,43.298505,0 -2.259468,43.2985,0 -2.259402,43.298512,0 -2.259362,43.298486,0 -2.259324,43.298473,0 -2.25917,43.298441,0 -2.259129,43.298436,0 -2.259085,43.298443,0 -2.259007,43.298397,0 -2.258951,43.298375,0 -2.258669,43.298303,0 -2.258629,43.298293,0 -2.2585,43.298262,0 -2.2584,43.29825,0 -2.258337,43.298249,0 -2.258222,43.298251,0 -2.257817,43.298239,0 -2.257796,43.298238,0 -2.25777,43.29815,0 -2.257735,43.298089,0 -2.257669,43.298007,0 -2.257589,43.297934,0 -2.257462,43.297848,0 -2.257449,43.29784,0 -2.25712,43.29761,0 -2.257106,43.2976,0 -2.257054,43.297561,0 -2.257188,43.297463,0 -2.257313,43.297374,0 -2.257129,43.297198,0 -2.257289,43.29708,0 -2.257438,43.29696,0 -2.257397,43.296943,0 -2.25719,43.296826,0 -2.256977,43.296685,0 -2.256947,43.296666,0 -2.25682,43.296588,0 -2.256694,43.29651,0 -2.256615,43.296462,0 -2.256698,43.296391,0 -2.256654,43.296356,0 -2.256647,43.296349,0 -2.256621,43.29633,0 -2.256614,43.296323,0 -2.256599,43.296309,0 -2.256572,43.296285,0 -2.256553,43.296265,0 -2.256344,43.296051,0 -2.256327,43.296033,0 -2.25631,43.296016,0 -2.256287,43.295992,0 -2.256267,43.29597,0 -2.25623,43.295931,0 -2.255353,43.295007,0 -2.255427,43.294969,0 -2.255262,43.294827,0 -2.25512,43.294738,0 -2.254934,43.294663,0 -2.254482,43.294529,0 -2.25382,43.294331,0 -2.253733,43.294295,0 -2.253706,43.294267,0 -2.25346,43.294245,0 -2.253282,43.294201,0 -2.253195,43.294175,0 -2.253095,43.294152,0 -2.252979,43.294134,0 -2.253031,43.294096,0 -2.253018,43.294086,0 -2.252986,43.294062,0 -2.252913,43.294114,0 -2.251879,43.294881,0 -2.251695,43.294997,0 -2.251534,43.295112,0 -2.251368,43.2952,0 -2.251297,43.295249,0 -2.251228,43.295306,0 -2.251065,43.295475,0 -2.250927,43.295618,0 -2.250858,43.295689,0 -2.250953,43.295754,0 -2.25101,43.295797,0 -2.251075,43.295843,0 -2.251735,43.296314,0 -2.251833,43.29636,0 -2.251895,43.296382,0 -2.252062,43.296413,0 -2.252118,43.296422,0 -2.252208,43.296434,0 -2.252265,43.296434,0 -2.252318,43.296427,0 -2.252393,43.296401,0 -2.252916,43.296008,0 -2.253025,43.295947,0 -2.253063,43.295933,0 -2.253111,43.295924,0 -2.253171,43.295919,0 -2.253188,43.295923,0 -2.253206,43.295922,0 -2.253239,43.295911,0 -2.253259,43.295889,0 -2.253262,43.295876,0 -2.253253,43.295851,0 -2.25331,43.295861,0 -2.253338,43.295856,0 -2.25337,43.295841,0 -2.253418,43.295805,0 -2.25399,43.296214,0</coordinates></LineString></Placemark></Document></kml>