<?xml version="1.0" encoding="UTF-8"?><gpx version="1.1" creator="Basque Hikes Atlas" xmlns="http://www.topografix.com/GPX/1/1"><metadata><name>Gorbeia · к кресту от Zárate</name><desc>Планировочная реконструкция по OpenStreetMap, 14.09.2026. Не запись GPS и не проверенный навигационный трек. Высоты не экспортированы. Данные © OpenStreetMap contributors, ODbL. Автопереезды и канатки в пеший трек не включены.</desc><link href="https://www.openstreetmap.org/copyright"><text>OpenStreetMap contributors · ODbL</text></link></metadata><wpt lat="42.973573" lon="-2.787653"><name>Zárate · старт</name></wpt><wpt lat="43.0120322" lon="-2.7722931"><name>Pagazuri · выход на плато</name></wpt><wpt lat="43.0339448" lon="-2.7813683"><name>Крест Gorbeia</name></wpt><trk><name>Gorbeia · к кресту от Zárate</name><desc>Планировочная реконструкция по OpenStreetMap, 14.09.2026. Не запись GPS и не проверенный навигационный трек. Высоты не экспортированы. Данные © OpenStreetMap contributors, ODbL. Автопереезды и канатки в пеший трек не включены.</desc><type>hiking</type><trkseg><trkpt lat="42.973573" lon="-2.787653"/><trkpt lat="42.973775" lon="-2.78758"/><trkpt lat="42.97432" lon="-2.787398"/><trkpt lat="42.974717" lon="-2.787151"/><trkpt lat="42.975101" lon="-2.786749"/><trkpt lat="42.975651" lon="-2.786089"/><trkpt lat="42.97582" lon="-2.785869"/><trkpt lat="42.975978" lon="-2.785515"/><trkpt lat="42.976188" lon="-2.785193"/><trkpt lat="42.976474" lon="-2.785015"/><trkpt lat="42.976907" lon="-2.784802"/><trkpt lat="42.977164" lon="-2.784658"/><trkpt lat="42.977301" lon="-2.784441"/><trkpt lat="42.977464" lon="-2.783725"/><trkpt lat="42.977597" lon="-2.783418"/><trkpt lat="42.977727" lon="-2.783155"/><trkpt lat="42.977911" lon="-2.782999"/><trkpt lat="42.978203" lon="-2.782828"/><trkpt lat="42.978699" lon="-2.782661"/><trkpt lat="42.979407" lon="-2.782447"/><trkpt lat="42.979658" lon="-2.782329"/><trkpt lat="42.979929" lon="-2.782146"/><trkpt lat="42.980274" lon="-2.781653"/><trkpt lat="42.980659" lon="-2.780998"/><trkpt lat="42.980958" lon="-2.780656"/><trkpt lat="42.981169" lon="-2.780499"/><trkpt lat="42.981268" lon="-2.780475"/><trkpt lat="42.981476" lon="-2.780582"/><trkpt lat="42.981735" lon="-2.780786"/><trkpt lat="42.98203" lon="-2.781129"/><trkpt lat="42.98223" lon="-2.781295"/><trkpt lat="42.982735" lon="-2.781572"/><trkpt lat="42.982818" lon="-2.781633"/><trkpt lat="42.982902" lon="-2.781632"/><trkpt lat="42.983211" lon="-2.781521"/><trkpt lat="42.983517" lon="-2.781376"/><trkpt lat="42.983623" lon="-2.781354"/><trkpt lat="42.983733" lon="-2.781392"/><trkpt lat="42.983973" lon="-2.781672"/><trkpt lat="42.984071" lon="-2.781887"/><trkpt lat="42.98417" lon="-2.782071"/><trkpt lat="42.984274" lon="-2.782223"/><trkpt lat="42.98451" lon="-2.782372"/><trkpt lat="42.984616" lon="-2.782395"/><trkpt lat="42.984961" lon="-2.78225"/><trkpt lat="42.985306" lon="-2.782062"/><trkpt lat="42.985565" lon="-2.782041"/><trkpt lat="42.985659" lon="-2.781955"/><trkpt lat="42.985718" lon="-2.781901"/><trkpt lat="42.986217" lon="-2.781333"/><trkpt lat="42.986476" lon="-2.781145"/><trkpt lat="42.986978" lon="-2.780936"/><trkpt lat="42.987288" lon="-2.780748"/><trkpt lat="42.987826" lon="-2.780287"/><trkpt lat="42.988701" lon="-2.77952"/><trkpt lat="42.988936" lon="-2.779268"/><trkpt lat="42.989387" lon="-2.778967"/><trkpt lat="42.989819" lon="-2.778731"/><trkpt lat="42.990153" lon="-2.778592"/><trkpt lat="42.990423" lon="-2.77849"/><trkpt lat="42.990761" lon="-2.778463"/><trkpt lat="42.991012" lon="-2.77842"/><trkpt lat="42.991648" lon="-2.778061"/><trkpt lat="42.991852" lon="-2.777894"/><trkpt lat="42.992103" lon="-2.777637"/><trkpt lat="42.99228" lon="-2.777445"/><trkpt lat="42.992435" lon="-2.777287"/><trkpt lat="42.992601" lon="-2.777155"/><trkpt lat="42.992757" lon="-2.77708"/><trkpt lat="42.993001" lon="-2.776977"/><trkpt lat="42.993217" lon="-2.776852"/><trkpt lat="42.993261" lon="-2.776713"/><trkpt lat="42.993312" lon="-2.776679"/><trkpt lat="42.993482" lon="-2.776594"/><trkpt lat="42.993806" lon="-2.776328"/><trkpt lat="42.994296" lon="-2.775781"/><trkpt lat="42.994934" lon="-2.775199"/><trkpt lat="42.995169" lon="-2.774942"/><trkpt lat="42.995636" lon="-2.774303"/><trkpt lat="42.996058" lon="-2.773759"/><trkpt lat="42.996258" lon="-2.773477"/><trkpt lat="42.996527" lon="-2.77285"/><trkpt lat="42.996687" lon="-2.772584"/><trkpt lat="42.99686" lon="-2.772359"/><trkpt lat="42.997031" lon="-2.772195"/><trkpt lat="42.997139" lon="-2.772139"/><trkpt lat="42.997462" lon="-2.772131"/><trkpt lat="42.997549" lon="-2.772155"/><trkpt lat="42.997666" lon="-2.772227"/><trkpt lat="42.99776" lon="-2.772259"/><trkpt lat="42.997853" lon="-2.772257"/><trkpt lat="42.997986" lon="-2.772209"/><trkpt lat="42.9981" lon="-2.772109"/><trkpt lat="42.998208" lon="-2.771978"/><trkpt lat="42.998274" lon="-2.77186"/><trkpt lat="42.998398" lon="-2.771506"/><trkpt lat="42.99849" lon="-2.771323"/><trkpt lat="42.998832" lon="-2.770712"/><trkpt lat="42.999039" lon="-2.770473"/><trkpt lat="42.999306" lon="-2.770181"/><trkpt lat="42.999555" lon="-2.769953"/><trkpt lat="42.999703" lon="-2.769776"/><trkpt lat="42.999852" lon="-2.769634"/><trkpt lat="42.999956" lon="-2.769572"/><trkpt lat="43.000059" lon="-2.769542"/><trkpt lat="43.000154" lon="-2.769572"/><trkpt lat="43.000442" lon="-2.769778"/><trkpt lat="43.000658" lon="-2.770004"/><trkpt lat="43.000994" lon="-2.770335"/><trkpt lat="43.001117" lon="-2.770454"/><trkpt lat="43.001327" lon="-2.770752"/><trkpt lat="43.001768" lon="-2.771289"/><trkpt lat="43.002007" lon="-2.771594"/><trkpt lat="43.00207" lon="-2.771653"/><trkpt lat="43.002155" lon="-2.771683"/><trkpt lat="43.002345" lon="-2.771731"/><trkpt lat="43.002641" lon="-2.771774"/><trkpt lat="43.003065" lon="-2.771956"/><trkpt lat="43.003247" lon="-2.772088"/><trkpt lat="43.003702" lon="-2.772506"/><trkpt lat="43.003824" lon="-2.772686"/><trkpt lat="43.003908" lon="-2.772772"/><trkpt lat="43.004002" lon="-2.772847"/><trkpt lat="43.004104" lon="-2.772887"/><trkpt lat="43.004255" lon="-2.772903"/><trkpt lat="43.004387" lon="-2.772941"/><trkpt lat="43.004542" lon="-2.773064"/><trkpt lat="43.004661" lon="-2.773104"/><trkpt lat="43.00485" lon="-2.773134"/><trkpt lat="43.00512" lon="-2.773153"/><trkpt lat="43.005797" lon="-2.773241"/><trkpt lat="43.005966" lon="-2.773255"/><trkpt lat="43.006134" lon="-2.773225"/><trkpt lat="43.00625" lon="-2.773225"/><trkpt lat="43.006301" lon="-2.773233"/><trkpt lat="43.006405" lon="-2.773249"/><trkpt lat="43.006588" lon="-2.773214"/><trkpt lat="43.006903" lon="-2.773206"/><trkpt lat="43.007007" lon="-2.773233"/><trkpt lat="43.007325" lon="-2.773445"/><trkpt lat="43.007496" lon="-2.773539"/><trkpt lat="43.007747" lon="-2.773657"/><trkpt lat="43.007988" lon="-2.773729"/><trkpt lat="43.008468" lon="-2.773842"/><trkpt lat="43.008561" lon="-2.77388"/><trkpt lat="43.008847" lon="-2.77407"/><trkpt lat="43.009049" lon="-2.774129"/><trkpt lat="43.009177" lon="-2.774137"/><trkpt lat="43.009293" lon="-2.774127"/><trkpt lat="43.009388" lon="-2.774102"/><trkpt lat="43.00985" lon="-2.773925"/><trkpt lat="43.010136" lon="-2.773827"/><trkpt lat="43.010243" lon="-2.773776"/><trkpt lat="43.010472" lon="-2.773612"/><trkpt lat="43.01073" lon="-2.773394"/><trkpt lat="43.010847" lon="-2.773358"/><trkpt lat="43.010941" lon="-2.773339"/><trkpt lat="43.01104" lon="-2.773262"/><trkpt lat="43.011164" lon="-2.773146"/><trkpt lat="43.011305" lon="-2.772973"/><trkpt lat="43.011384" lon="-2.772854"/><trkpt lat="43.011461" lon="-2.772677"/><trkpt lat="43.011545" lon="-2.772534"/><trkpt lat="43.011654" lon="-2.772421"/><trkpt lat="43.011691" lon="-2.77241"/><trkpt lat="43.011807" lon="-2.772404"/><trkpt lat="43.012107" lon="-2.772442"/><trkpt lat="43.012015" lon="-2.772315"/><trkpt lat="43.012107" lon="-2.772442"/><trkpt lat="43.012332" lon="-2.772704"/><trkpt lat="43.012404" lon="-2.772811"/><trkpt lat="43.012459" lon="-2.77291"/><trkpt lat="43.012609" lon="-2.773025"/><trkpt lat="43.012719" lon="-2.773115"/><trkpt lat="43.012786" lon="-2.773207"/><trkpt lat="43.012889" lon="-2.773318"/><trkpt lat="43.013055" lon="-2.773521"/><trkpt lat="43.013363" lon="-2.773827"/><trkpt lat="43.013496" lon="-2.773917"/><trkpt lat="43.013736" lon="-2.774011"/><trkpt lat="43.0139" lon="-2.774097"/><trkpt lat="43.013989" lon="-2.774132"/><trkpt lat="43.01413" lon="-2.774221"/><trkpt lat="43.014263" lon="-2.774286"/><trkpt lat="43.014345" lon="-2.774395"/><trkpt lat="43.014483" lon="-2.774521"/><trkpt lat="43.014674" lon="-2.774716"/><trkpt lat="43.014918" lon="-2.774901"/><trkpt lat="43.015017" lon="-2.77494"/><trkpt lat="43.01513" lon="-2.775089"/><trkpt lat="43.015196" lon="-2.775191"/><trkpt lat="43.015268" lon="-2.775227"/><trkpt lat="43.015402" lon="-2.775199"/><trkpt lat="43.015565" lon="-2.775253"/><trkpt lat="43.01563" lon="-2.775291"/><trkpt lat="43.015859" lon="-2.775529"/><trkpt lat="43.015955" lon="-2.775574"/><trkpt lat="43.016012" lon="-2.775673"/><trkpt lat="43.016063" lon="-2.775801"/><trkpt lat="43.016184" lon="-2.775981"/><trkpt lat="43.016334" lon="-2.776118"/><trkpt lat="43.016462" lon="-2.77619"/><trkpt lat="43.016668" lon="-2.776236"/><trkpt lat="43.016782" lon="-2.776281"/><trkpt lat="43.01691" lon="-2.776365"/><trkpt lat="43.016954" lon="-2.776416"/><trkpt lat="43.016994" lon="-2.776506"/><trkpt lat="43.017066" lon="-2.776606"/><trkpt lat="43.017257" lon="-2.776724"/><trkpt lat="43.017499" lon="-2.776899"/><trkpt lat="43.017627" lon="-2.777041"/><trkpt lat="43.017749" lon="-2.777147"/><trkpt lat="43.017818" lon="-2.777178"/><trkpt lat="43.017915" lon="-2.777187"/><trkpt lat="43.018149" lon="-2.77713"/><trkpt lat="43.018418" lon="-2.777029"/><trkpt lat="43.018483" lon="-2.776956"/><trkpt lat="43.018664" lon="-2.776899"/><trkpt lat="43.018843" lon="-2.776872"/><trkpt lat="43.019025" lon="-2.77688"/><trkpt lat="43.019251" lon="-2.776945"/><trkpt lat="43.019356" lon="-2.777008"/><trkpt lat="43.019399" lon="-2.777007"/><trkpt lat="43.019469" lon="-2.777005"/><trkpt lat="43.019562" lon="-2.776975"/><trkpt lat="43.019698" lon="-2.77681"/><trkpt lat="43.019739" lon="-2.776742"/><trkpt lat="43.01978" lon="-2.776648"/><trkpt lat="43.019826" lon="-2.776503"/><trkpt lat="43.019872" lon="-2.776348"/><trkpt lat="43.020298" lon="-2.775837"/><trkpt lat="43.020387" lon="-2.775775"/><trkpt lat="43.020445" lon="-2.775746"/><trkpt lat="43.020527" lon="-2.775752"/><trkpt lat="43.020612" lon="-2.775776"/><trkpt lat="43.020755" lon="-2.775802"/><trkpt lat="43.020846" lon="-2.775895"/><trkpt lat="43.020976" lon="-2.776098"/><trkpt lat="43.021111" lon="-2.77627"/><trkpt lat="43.021251" lon="-2.776338"/><trkpt lat="43.021553" lon="-2.776375"/><trkpt lat="43.021607" lon="-2.776364"/><trkpt lat="43.021642" lon="-2.776343"/><trkpt lat="43.021751" lon="-2.776215"/><trkpt lat="43.021833" lon="-2.776144"/><trkpt lat="43.021915" lon="-2.776173"/><trkpt lat="43.022188" lon="-2.776252"/><trkpt lat="43.02231" lon="-2.77624"/><trkpt lat="43.022378" lon="-2.776221"/><trkpt lat="43.022467" lon="-2.776197"/><trkpt lat="43.022706" lon="-2.776042"/><trkpt lat="43.02281" lon="-2.775999"/><trkpt lat="43.022936" lon="-2.775999"/><trkpt lat="43.023026" lon="-2.776012"/><trkpt lat="43.02313" lon="-2.775975"/><trkpt lat="43.023229" lon="-2.775919"/><trkpt lat="43.023382" lon="-2.775901"/><trkpt lat="43.023553" lon="-2.775913"/><trkpt lat="43.023756" lon="-2.775882"/><trkpt lat="43.0239" lon="-2.775827"/><trkpt lat="43.024044" lon="-2.775747"/><trkpt lat="43.024179" lon="-2.775685"/><trkpt lat="43.024265" lon="-2.775685"/><trkpt lat="43.02463" lon="-2.775895"/><trkpt lat="43.024751" lon="-2.775956"/><trkpt lat="43.024859" lon="-2.775993"/><trkpt lat="43.025139" lon="-2.775987"/><trkpt lat="43.025454" lon="-2.776005"/><trkpt lat="43.02554" lon="-2.77595"/><trkpt lat="43.025797" lon="-2.775895"/><trkpt lat="43.026103" lon="-2.775796"/><trkpt lat="43.026243" lon="-2.775741"/><trkpt lat="43.026332" lon="-2.775634"/><trkpt lat="43.026402" lon="-2.775532"/><trkpt lat="43.026435" lon="-2.775471"/><trkpt lat="43.026293" lon="-2.775238"/><trkpt lat="43.026437" lon="-2.775175"/><trkpt lat="43.026647" lon="-2.775145"/><trkpt lat="43.026929" lon="-2.775036"/><trkpt lat="43.027024" lon="-2.774977"/><trkpt lat="43.027292" lon="-2.774737"/><trkpt lat="43.027362" lon="-2.77476"/><trkpt lat="43.027585" lon="-2.774812"/><trkpt lat="43.027789" lon="-2.774769"/><trkpt lat="43.0279" lon="-2.774772"/><trkpt lat="43.028313" lon="-2.774852"/><trkpt lat="43.028568" lon="-2.774868"/><trkpt lat="43.028878" lon="-2.774938"/><trkpt lat="43.029194" lon="-2.774987"/><trkpt lat="43.029333" lon="-2.775023"/><trkpt lat="43.029468" lon="-2.775095"/><trkpt lat="43.029772" lon="-2.775346"/><trkpt lat="43.029928" lon="-2.775464"/><trkpt lat="43.030074" lon="-2.77555"/><trkpt lat="43.030324" lon="-2.775721"/><trkpt lat="43.030548" lon="-2.775947"/><trkpt lat="43.030697" lon="-2.776177"/><trkpt lat="43.030803" lon="-2.776318"/><trkpt lat="43.03107" lon="-2.776644"/><trkpt lat="43.031242" lon="-2.776821"/><trkpt lat="43.031324" lon="-2.776882"/><trkpt lat="43.031407" lon="-2.776993"/><trkpt lat="43.031441" lon="-2.777095"/><trkpt lat="43.031485" lon="-2.777196"/><trkpt lat="43.031565" lon="-2.77743"/><trkpt lat="43.031655" lon="-2.7776"/><trkpt lat="43.03185" lon="-2.777819"/><trkpt lat="43.032021" lon="-2.778163"/><trkpt lat="43.032182" lon="-2.778369"/><trkpt lat="43.032514" lon="-2.7789"/><trkpt lat="43.032696" lon="-2.779164"/><trkpt lat="43.032922" lon="-2.779448"/><trkpt lat="43.033019" lon="-2.779585"/><trkpt lat="43.033052" lon="-2.779606"/><trkpt lat="43.033225" lon="-2.779878"/><trkpt lat="43.033405" lon="-2.780257"/><trkpt lat="43.033535" lon="-2.780504"/><trkpt lat="43.03366" lon="-2.780649"/><trkpt lat="43.033846" lon="-2.781043"/><trkpt lat="43.033945" lon="-2.781368"/><trkpt lat="43.033846" lon="-2.781043"/><trkpt lat="43.03366" lon="-2.780649"/><trkpt lat="43.033535" lon="-2.780504"/><trkpt lat="43.033405" lon="-2.780257"/><trkpt lat="43.033225" lon="-2.779878"/><trkpt lat="43.033052" lon="-2.779606"/><trkpt lat="43.033019" lon="-2.779585"/><trkpt lat="43.032922" lon="-2.779448"/><trkpt lat="43.032696" lon="-2.779164"/><trkpt lat="43.032514" lon="-2.7789"/><trkpt lat="43.032182" lon="-2.778369"/><trkpt lat="43.032021" lon="-2.778163"/><trkpt lat="43.03185" lon="-2.777819"/><trkpt lat="43.031655" lon="-2.7776"/><trkpt lat="43.031565" lon="-2.77743"/><trkpt lat="43.031485" lon="-2.777196"/><trkpt lat="43.031441" lon="-2.777095"/><trkpt lat="43.031407" lon="-2.776993"/><trkpt lat="43.031324" lon="-2.776882"/><trkpt lat="43.031242" lon="-2.776821"/><trkpt lat="43.03107" lon="-2.776644"/><trkpt lat="43.030803" lon="-2.776318"/><trkpt lat="43.030697" lon="-2.776177"/><trkpt lat="43.030548" lon="-2.775947"/><trkpt lat="43.030324" lon="-2.775721"/><trkpt lat="43.030074" lon="-2.77555"/><trkpt lat="43.029928" lon="-2.775464"/><trkpt lat="43.029772" lon="-2.775346"/><trkpt lat="43.029468" lon="-2.775095"/><trkpt lat="43.029333" lon="-2.775023"/><trkpt lat="43.029194" lon="-2.774987"/><trkpt lat="43.028878" lon="-2.774938"/><trkpt lat="43.028568" lon="-2.774868"/><trkpt lat="43.028313" lon="-2.774852"/><trkpt lat="43.0279" lon="-2.774772"/><trkpt lat="43.027789" lon="-2.774769"/><trkpt lat="43.027585" lon="-2.774812"/><trkpt lat="43.027362" lon="-2.77476"/><trkpt lat="43.027292" lon="-2.774737"/><trkpt lat="43.027024" lon="-2.774977"/><trkpt lat="43.026929" lon="-2.775036"/><trkpt lat="43.026647" lon="-2.775145"/><trkpt lat="43.026437" lon="-2.775175"/><trkpt lat="43.026293" lon="-2.775238"/><trkpt lat="43.026435" lon="-2.775471"/><trkpt lat="43.026402" lon="-2.775532"/><trkpt lat="43.026332" lon="-2.775634"/><trkpt lat="43.026243" lon="-2.775741"/><trkpt lat="43.026103" lon="-2.775796"/><trkpt lat="43.025797" lon="-2.775895"/><trkpt lat="43.02554" lon="-2.77595"/><trkpt lat="43.025454" lon="-2.776005"/><trkpt lat="43.025139" lon="-2.775987"/><trkpt lat="43.024859" lon="-2.775993"/><trkpt lat="43.024751" lon="-2.775956"/><trkpt lat="43.02463" lon="-2.775895"/><trkpt lat="43.024265" lon="-2.775685"/><trkpt lat="43.024179" lon="-2.775685"/><trkpt lat="43.024044" lon="-2.775747"/><trkpt lat="43.0239" lon="-2.775827"/><trkpt lat="43.023756" lon="-2.775882"/><trkpt lat="43.023553" lon="-2.775913"/><trkpt lat="43.023382" lon="-2.775901"/><trkpt lat="43.023229" lon="-2.775919"/><trkpt lat="43.02313" lon="-2.775975"/><trkpt lat="43.023026" lon="-2.776012"/><trkpt lat="43.022936" lon="-2.775999"/><trkpt lat="43.02281" lon="-2.775999"/><trkpt lat="43.022706" lon="-2.776042"/><trkpt lat="43.022467" lon="-2.776197"/><trkpt lat="43.022378" lon="-2.776221"/><trkpt lat="43.02231" lon="-2.77624"/><trkpt lat="43.022188" lon="-2.776252"/><trkpt lat="43.021915" lon="-2.776173"/><trkpt lat="43.021833" lon="-2.776144"/><trkpt lat="43.021751" lon="-2.776215"/><trkpt lat="43.021642" lon="-2.776343"/><trkpt lat="43.021607" lon="-2.776364"/><trkpt lat="43.021553" lon="-2.776375"/><trkpt lat="43.021251" lon="-2.776338"/><trkpt lat="43.021111" lon="-2.77627"/><trkpt lat="43.020976" lon="-2.776098"/><trkpt lat="43.020846" lon="-2.775895"/><trkpt lat="43.020755" lon="-2.775802"/><trkpt lat="43.020612" lon="-2.775776"/><trkpt lat="43.020527" lon="-2.775752"/><trkpt lat="43.020445" lon="-2.775746"/><trkpt lat="43.020387" lon="-2.775775"/><trkpt lat="43.020298" lon="-2.775837"/><trkpt lat="43.019872" lon="-2.776348"/><trkpt lat="43.019826" lon="-2.776503"/><trkpt lat="43.01978" lon="-2.776648"/><trkpt lat="43.019739" lon="-2.776742"/><trkpt lat="43.019698" lon="-2.77681"/><trkpt lat="43.019562" lon="-2.776975"/><trkpt lat="43.019469" lon="-2.777005"/><trkpt lat="43.019399" lon="-2.777007"/><trkpt lat="43.019356" lon="-2.777008"/><trkpt lat="43.019251" lon="-2.776945"/><trkpt lat="43.019025" lon="-2.77688"/><trkpt lat="43.018843" lon="-2.776872"/><trkpt lat="43.018664" lon="-2.776899"/><trkpt lat="43.018483" lon="-2.776956"/><trkpt lat="43.018418" lon="-2.777029"/><trkpt lat="43.018149" lon="-2.77713"/><trkpt lat="43.017915" lon="-2.777187"/><trkpt lat="43.017818" lon="-2.777178"/><trkpt lat="43.017749" lon="-2.777147"/><trkpt lat="43.017627" lon="-2.777041"/><trkpt lat="43.017499" lon="-2.776899"/><trkpt lat="43.017257" lon="-2.776724"/><trkpt lat="43.017066" lon="-2.776606"/><trkpt lat="43.016994" lon="-2.776506"/><trkpt lat="43.016954" lon="-2.776416"/><trkpt lat="43.01691" lon="-2.776365"/><trkpt lat="43.016782" lon="-2.776281"/><trkpt lat="43.016668" lon="-2.776236"/><trkpt lat="43.016462" lon="-2.77619"/><trkpt lat="43.016334" lon="-2.776118"/><trkpt lat="43.016184" lon="-2.775981"/><trkpt lat="43.016063" lon="-2.775801"/><trkpt lat="43.016012" lon="-2.775673"/><trkpt lat="43.015955" lon="-2.775574"/><trkpt lat="43.015859" lon="-2.775529"/><trkpt lat="43.01563" lon="-2.775291"/><trkpt lat="43.015565" lon="-2.775253"/><trkpt lat="43.015402" lon="-2.775199"/><trkpt lat="43.015268" lon="-2.775227"/><trkpt lat="43.015196" lon="-2.775191"/><trkpt lat="43.01513" lon="-2.775089"/><trkpt lat="43.015017" lon="-2.77494"/><trkpt lat="43.014918" lon="-2.774901"/><trkpt lat="43.014674" lon="-2.774716"/><trkpt lat="43.014483" lon="-2.774521"/><trkpt lat="43.014345" lon="-2.774395"/><trkpt lat="43.014263" lon="-2.774286"/><trkpt lat="43.01413" lon="-2.774221"/><trkpt lat="43.013989" lon="-2.774132"/><trkpt lat="43.0139" lon="-2.774097"/><trkpt lat="43.013736" lon="-2.774011"/><trkpt lat="43.013496" lon="-2.773917"/><trkpt lat="43.013363" lon="-2.773827"/><trkpt lat="43.013055" lon="-2.773521"/><trkpt lat="43.012889" lon="-2.773318"/><trkpt lat="43.012786" lon="-2.773207"/><trkpt lat="43.012719" lon="-2.773115"/><trkpt lat="43.012609" lon="-2.773025"/><trkpt lat="43.012459" lon="-2.77291"/><trkpt lat="43.012404" lon="-2.772811"/><trkpt lat="43.012332" lon="-2.772704"/><trkpt lat="43.012107" lon="-2.772442"/><trkpt lat="43.012015" lon="-2.772315"/><trkpt lat="43.012107" lon="-2.772442"/><trkpt lat="43.011807" lon="-2.772404"/><trkpt lat="43.011691" lon="-2.77241"/><trkpt lat="43.011654" lon="-2.772421"/><trkpt lat="43.011545" lon="-2.772534"/><trkpt lat="43.011461" lon="-2.772677"/><trkpt lat="43.011384" lon="-2.772854"/><trkpt lat="43.011305" lon="-2.772973"/><trkpt lat="43.011164" lon="-2.773146"/><trkpt lat="43.01104" lon="-2.773262"/><trkpt lat="43.010941" lon="-2.773339"/><trkpt lat="43.010847" lon="-2.773358"/><trkpt lat="43.01073" lon="-2.773394"/><trkpt lat="43.010472" lon="-2.773612"/><trkpt lat="43.010243" lon="-2.773776"/><trkpt lat="43.010136" lon="-2.773827"/><trkpt lat="43.00985" lon="-2.773925"/><trkpt lat="43.009388" lon="-2.774102"/><trkpt lat="43.009293" lon="-2.774127"/><trkpt lat="43.009177" lon="-2.774137"/><trkpt lat="43.009049" lon="-2.774129"/><trkpt lat="43.008847" lon="-2.77407"/><trkpt lat="43.008561" lon="-2.77388"/><trkpt lat="43.008468" lon="-2.773842"/><trkpt lat="43.007988" lon="-2.773729"/><trkpt lat="43.007747" lon="-2.773657"/><trkpt lat="43.007496" lon="-2.773539"/><trkpt lat="43.007325" lon="-2.773445"/><trkpt lat="43.007007" lon="-2.773233"/><trkpt lat="43.006903" lon="-2.773206"/><trkpt lat="43.006588" lon="-2.773214"/><trkpt lat="43.006405" lon="-2.773249"/><trkpt lat="43.006301" lon="-2.773233"/><trkpt lat="43.00625" lon="-2.773225"/><trkpt lat="43.006134" lon="-2.773225"/><trkpt lat="43.005966" lon="-2.773255"/><trkpt lat="43.005797" lon="-2.773241"/><trkpt lat="43.00512" lon="-2.773153"/><trkpt lat="43.00485" lon="-2.773134"/><trkpt lat="43.004661" lon="-2.773104"/><trkpt lat="43.004542" lon="-2.773064"/><trkpt lat="43.004387" lon="-2.772941"/><trkpt lat="43.004255" lon="-2.772903"/><trkpt lat="43.004104" lon="-2.772887"/><trkpt lat="43.004002" lon="-2.772847"/><trkpt lat="43.003908" lon="-2.772772"/><trkpt lat="43.003824" lon="-2.772686"/><trkpt lat="43.003702" lon="-2.772506"/><trkpt lat="43.003247" lon="-2.772088"/><trkpt lat="43.003065" lon="-2.771956"/><trkpt lat="43.002641" lon="-2.771774"/><trkpt lat="43.002345" lon="-2.771731"/><trkpt lat="43.002155" lon="-2.771683"/><trkpt lat="43.00207" lon="-2.771653"/><trkpt lat="43.002007" lon="-2.771594"/><trkpt lat="43.001768" lon="-2.771289"/><trkpt lat="43.001327" lon="-2.770752"/><trkpt lat="43.001117" lon="-2.770454"/><trkpt lat="43.000994" lon="-2.770335"/><trkpt lat="43.000658" lon="-2.770004"/><trkpt lat="43.000442" lon="-2.769778"/><trkpt lat="43.000154" lon="-2.769572"/><trkpt lat="43.000059" lon="-2.769542"/><trkpt lat="42.999956" lon="-2.769572"/><trkpt lat="42.999852" lon="-2.769634"/><trkpt lat="42.999703" lon="-2.769776"/><trkpt lat="42.999555" lon="-2.769953"/><trkpt lat="42.999306" lon="-2.770181"/><trkpt lat="42.999039" lon="-2.770473"/><trkpt lat="42.998832" lon="-2.770712"/><trkpt lat="42.99849" lon="-2.771323"/><trkpt lat="42.998398" lon="-2.771506"/><trkpt lat="42.998274" lon="-2.77186"/><trkpt lat="42.998208" lon="-2.771978"/><trkpt lat="42.9981" lon="-2.772109"/><trkpt lat="42.997986" lon="-2.772209"/><trkpt lat="42.997853" lon="-2.772257"/><trkpt lat="42.99776" lon="-2.772259"/><trkpt lat="42.997666" lon="-2.772227"/><trkpt lat="42.997549" lon="-2.772155"/><trkpt lat="42.997462" lon="-2.772131"/><trkpt lat="42.997139" lon="-2.772139"/><trkpt lat="42.997031" lon="-2.772195"/><trkpt lat="42.99686" lon="-2.772359"/><trkpt lat="42.996687" lon="-2.772584"/><trkpt lat="42.996527" lon="-2.77285"/><trkpt lat="42.996258" lon="-2.773477"/><trkpt lat="42.996058" lon="-2.773759"/><trkpt lat="42.995636" lon="-2.774303"/><trkpt lat="42.995169" lon="-2.774942"/><trkpt lat="42.994934" lon="-2.775199"/><trkpt lat="42.994296" lon="-2.775781"/><trkpt lat="42.993806" lon="-2.776328"/><trkpt lat="42.993482" lon="-2.776594"/><trkpt lat="42.993312" lon="-2.776679"/><trkpt lat="42.993261" lon="-2.776713"/><trkpt lat="42.993217" lon="-2.776852"/><trkpt lat="42.993001" lon="-2.776977"/><trkpt lat="42.992757" lon="-2.77708"/><trkpt lat="42.992601" lon="-2.777155"/><trkpt lat="42.992435" lon="-2.777287"/><trkpt lat="42.99228" lon="-2.777445"/><trkpt lat="42.992103" lon="-2.777637"/><trkpt lat="42.991852" lon="-2.777894"/><trkpt lat="42.991648" lon="-2.778061"/><trkpt lat="42.991012" lon="-2.77842"/><trkpt lat="42.990761" lon="-2.778463"/><trkpt lat="42.990423" lon="-2.77849"/><trkpt lat="42.990153" lon="-2.778592"/><trkpt lat="42.989819" lon="-2.778731"/><trkpt lat="42.989387" lon="-2.778967"/><trkpt lat="42.988936" lon="-2.779268"/><trkpt lat="42.988701" lon="-2.77952"/><trkpt lat="42.987826" lon="-2.780287"/><trkpt lat="42.987288" lon="-2.780748"/><trkpt lat="42.986978" lon="-2.780936"/><trkpt lat="42.986476" lon="-2.781145"/><trkpt lat="42.986217" lon="-2.781333"/><trkpt lat="42.985718" lon="-2.781901"/><trkpt lat="42.985659" lon="-2.781955"/><trkpt lat="42.985565" lon="-2.782041"/><trkpt lat="42.985306" lon="-2.782062"/><trkpt lat="42.984961" lon="-2.78225"/><trkpt lat="42.984616" lon="-2.782395"/><trkpt lat="42.98451" lon="-2.782372"/><trkpt lat="42.984274" lon="-2.782223"/><trkpt lat="42.98417" lon="-2.782071"/><trkpt lat="42.984071" lon="-2.781887"/><trkpt lat="42.983973" lon="-2.781672"/><trkpt lat="42.983733" lon="-2.781392"/><trkpt lat="42.983623" lon="-2.781354"/><trkpt lat="42.983517" lon="-2.781376"/><trkpt lat="42.983211" lon="-2.781521"/><trkpt lat="42.982902" lon="-2.781632"/><trkpt lat="42.982818" lon="-2.781633"/><trkpt lat="42.982735" lon="-2.781572"/><trkpt lat="42.98223" lon="-2.781295"/><trkpt lat="42.98203" lon="-2.781129"/><trkpt lat="42.981735" lon="-2.780786"/><trkpt lat="42.981476" lon="-2.780582"/><trkpt lat="42.981268" lon="-2.780475"/><trkpt lat="42.981169" lon="-2.780499"/><trkpt lat="42.980958" lon="-2.780656"/><trkpt lat="42.980659" lon="-2.780998"/><trkpt lat="42.980274" lon="-2.781653"/><trkpt lat="42.979929" lon="-2.782146"/><trkpt lat="42.979658" lon="-2.782329"/><trkpt lat="42.979407" lon="-2.782447"/><trkpt lat="42.978699" lon="-2.782661"/><trkpt lat="42.978203" lon="-2.782828"/><trkpt lat="42.977911" lon="-2.782999"/><trkpt lat="42.977727" lon="-2.783155"/><trkpt lat="42.977597" lon="-2.783418"/><trkpt lat="42.977464" lon="-2.783725"/><trkpt lat="42.977301" lon="-2.784441"/><trkpt lat="42.977164" lon="-2.784658"/><trkpt lat="42.976907" lon="-2.784802"/><trkpt lat="42.976474" lon="-2.785015"/><trkpt lat="42.976188" lon="-2.785193"/><trkpt lat="42.975978" lon="-2.785515"/><trkpt lat="42.97582" lon="-2.785869"/><trkpt lat="42.975651" lon="-2.786089"/><trkpt lat="42.975101" lon="-2.786749"/><trkpt lat="42.974717" lon="-2.787151"/><trkpt lat="42.97432" lon="-2.787398"/><trkpt lat="42.973775" lon="-2.78758"/><trkpt lat="42.973573" lon="-2.787653"/></trkseg></trk></gpx>