<?xml version="1.0" encoding="UTF-8"?><gpx version="1.1" creator="Basque Hikes Atlas" xmlns="http://www.topografix.com/GPX/1/1"><metadata><name>Algorri · короткий выход к скалам</name><desc>Планировочная реконструкция по OpenStreetMap, 14.09.2026. Не запись GPS и не проверенный навигационный трек. Высоты не экспортированы. Данные © OpenStreetMap contributors, ODbL. Автопереезды и канатки в пеший трек не включены.</desc><link href="https://www.openstreetmap.org/copyright"><text>OpenStreetMap contributors · ODbL</text></link></metadata><wpt lat="43.296238" lon="-2.253958"><name>Парковка · город Zumaia</name></wpt><wpt lat="43.29863" lon="-2.26049"><name>San Telmo · часовня над пляжем</name></wpt><wpt lat="43.299899" lon="-2.267927"><name>Algorri · смотровая на слои скал</name></wpt><trk><name>Algorri · короткий выход к скалам</name><desc>Планировочная реконструкция по OpenStreetMap, 14.09.2026. Не запись GPS и не проверенный навигационный трек. Высоты не экспортированы. Данные © OpenStreetMap contributors, ODbL. Автопереезды и канатки в пеший трек не включены.</desc><type>hiking</type><trkseg><trkpt lat="43.296214" lon="-2.25399"/><trkpt lat="43.295805" lon="-2.253418"/><trkpt lat="43.295841" lon="-2.25337"/><trkpt lat="43.295856" lon="-2.253338"/><trkpt lat="43.295861" lon="-2.25331"/><trkpt lat="43.295851" lon="-2.253253"/><trkpt lat="43.295876" lon="-2.253262"/><trkpt lat="43.295889" lon="-2.253259"/><trkpt lat="43.295911" lon="-2.253239"/><trkpt lat="43.295922" lon="-2.253206"/><trkpt lat="43.295923" lon="-2.253188"/><trkpt lat="43.295919" lon="-2.253171"/><trkpt lat="43.295924" lon="-2.253111"/><trkpt lat="43.295933" lon="-2.253063"/><trkpt lat="43.295947" lon="-2.253025"/><trkpt lat="43.296008" lon="-2.252916"/><trkpt lat="43.296401" lon="-2.252393"/><trkpt lat="43.296427" lon="-2.252318"/><trkpt lat="43.296434" lon="-2.252265"/><trkpt lat="43.296434" lon="-2.252208"/><trkpt lat="43.296422" lon="-2.252118"/><trkpt lat="43.296413" lon="-2.252062"/><trkpt lat="43.296382" lon="-2.251895"/><trkpt lat="43.29636" lon="-2.251833"/><trkpt lat="43.296314" lon="-2.251735"/><trkpt lat="43.295843" lon="-2.251075"/><trkpt lat="43.295797" lon="-2.25101"/><trkpt lat="43.295754" lon="-2.250953"/><trkpt lat="43.295689" lon="-2.250858"/><trkpt lat="43.295618" lon="-2.250927"/><trkpt lat="43.295475" lon="-2.251065"/><trkpt lat="43.295306" lon="-2.251228"/><trkpt lat="43.295249" lon="-2.251297"/><trkpt lat="43.2952" lon="-2.251368"/><trkpt lat="43.295112" lon="-2.251534"/><trkpt lat="43.294997" lon="-2.251695"/><trkpt lat="43.294881" lon="-2.251879"/><trkpt lat="43.294114" lon="-2.252913"/><trkpt lat="43.294062" lon="-2.252986"/><trkpt lat="43.294086" lon="-2.253018"/><trkpt lat="43.294096" lon="-2.253031"/><trkpt lat="43.294134" lon="-2.252979"/><trkpt lat="43.294152" lon="-2.253095"/><trkpt lat="43.294175" lon="-2.253195"/><trkpt lat="43.294201" lon="-2.253282"/><trkpt lat="43.294245" lon="-2.25346"/><trkpt lat="43.294267" lon="-2.253706"/><trkpt lat="43.294295" lon="-2.253733"/><trkpt lat="43.294331" lon="-2.25382"/><trkpt lat="43.294529" lon="-2.254482"/><trkpt lat="43.294663" lon="-2.254934"/><trkpt lat="43.294738" lon="-2.25512"/><trkpt lat="43.294827" lon="-2.255262"/><trkpt lat="43.294969" lon="-2.255427"/><trkpt lat="43.295007" lon="-2.255353"/><trkpt lat="43.295931" lon="-2.25623"/><trkpt lat="43.29597" lon="-2.256267"/><trkpt lat="43.295992" lon="-2.256287"/><trkpt lat="43.296016" lon="-2.25631"/><trkpt lat="43.296033" lon="-2.256327"/><trkpt lat="43.296051" lon="-2.256344"/><trkpt lat="43.296265" lon="-2.256553"/><trkpt lat="43.296285" lon="-2.256572"/><trkpt lat="43.296309" lon="-2.256599"/><trkpt lat="43.296323" lon="-2.256614"/><trkpt lat="43.29633" lon="-2.256621"/><trkpt lat="43.296349" lon="-2.256647"/><trkpt lat="43.296356" lon="-2.256654"/><trkpt lat="43.296391" lon="-2.256698"/><trkpt lat="43.296462" lon="-2.256615"/><trkpt lat="43.29651" lon="-2.256694"/><trkpt lat="43.296588" lon="-2.25682"/><trkpt lat="43.296666" lon="-2.256947"/><trkpt lat="43.296685" lon="-2.256977"/><trkpt lat="43.296826" lon="-2.25719"/><trkpt lat="43.296943" lon="-2.257397"/><trkpt lat="43.29696" lon="-2.257438"/><trkpt lat="43.29708" lon="-2.257289"/><trkpt lat="43.297198" lon="-2.257129"/><trkpt lat="43.297374" lon="-2.257313"/><trkpt lat="43.297463" lon="-2.257188"/><trkpt lat="43.297561" lon="-2.257054"/><trkpt lat="43.2976" lon="-2.257106"/><trkpt lat="43.29761" lon="-2.25712"/><trkpt lat="43.29784" lon="-2.257449"/><trkpt lat="43.297848" lon="-2.257462"/><trkpt lat="43.297934" lon="-2.257589"/><trkpt lat="43.298007" lon="-2.257669"/><trkpt lat="43.298089" lon="-2.257735"/><trkpt lat="43.29815" lon="-2.25777"/><trkpt lat="43.298238" lon="-2.257796"/><trkpt lat="43.298239" lon="-2.257817"/><trkpt lat="43.298251" lon="-2.258222"/><trkpt lat="43.298249" lon="-2.258337"/><trkpt lat="43.29825" lon="-2.2584"/><trkpt lat="43.298262" lon="-2.2585"/><trkpt lat="43.298293" lon="-2.258629"/><trkpt lat="43.298303" lon="-2.258669"/><trkpt lat="43.298375" lon="-2.258951"/><trkpt lat="43.298397" lon="-2.259007"/><trkpt lat="43.298443" lon="-2.259085"/><trkpt lat="43.298436" lon="-2.259129"/><trkpt lat="43.298441" lon="-2.25917"/><trkpt lat="43.298473" lon="-2.259324"/><trkpt lat="43.298486" lon="-2.259362"/><trkpt lat="43.298512" lon="-2.259402"/><trkpt lat="43.2985" lon="-2.259468"/><trkpt lat="43.298505" lon="-2.259557"/><trkpt lat="43.298524" lon="-2.259645"/><trkpt lat="43.29859" lon="-2.260203"/><trkpt lat="43.298631" lon="-2.26049"/><trkpt lat="43.298761" lon="-2.261383"/><trkpt lat="43.298807" lon="-2.261626"/><trkpt lat="43.298882" lon="-2.261876"/><trkpt lat="43.298932" lon="-2.262011"/><trkpt lat="43.299015" lon="-2.262153"/><trkpt lat="43.299078" lon="-2.262357"/><trkpt lat="43.299115" lon="-2.262577"/><trkpt lat="43.299235" lon="-2.263005"/><trkpt lat="43.299253" lon="-2.263087"/><trkpt lat="43.299256" lon="-2.263148"/><trkpt lat="43.299264" lon="-2.263183"/><trkpt lat="43.299301" lon="-2.263276"/><trkpt lat="43.299321" lon="-2.26335"/><trkpt lat="43.299366" lon="-2.263466"/><trkpt lat="43.299378" lon="-2.263512"/><trkpt lat="43.29939" lon="-2.26363"/><trkpt lat="43.299418" lon="-2.263776"/><trkpt lat="43.299428" lon="-2.263899"/><trkpt lat="43.299419" lon="-2.264058"/><trkpt lat="43.299398" lon="-2.264161"/><trkpt lat="43.299395" lon="-2.264209"/><trkpt lat="43.2994" lon="-2.264277"/><trkpt lat="43.299462" lon="-2.264545"/><trkpt lat="43.299585" lon="-2.265004"/><trkpt lat="43.299555" lon="-2.26503"/><trkpt lat="43.299541" lon="-2.265081"/><trkpt lat="43.299552" lon="-2.26527"/><trkpt lat="43.299551" lon="-2.265321"/><trkpt lat="43.29954" lon="-2.265397"/><trkpt lat="43.299519" lon="-2.265453"/><trkpt lat="43.299513" lon="-2.265489"/><trkpt lat="43.299534" lon="-2.266048"/><trkpt lat="43.299588" lon="-2.26661"/><trkpt lat="43.299551" lon="-2.266706"/><trkpt lat="43.299537" lon="-2.26676"/><trkpt lat="43.299534" lon="-2.266917"/><trkpt lat="43.299514" lon="-2.266948"/><trkpt lat="43.299497" lon="-2.266954"/><trkpt lat="43.299487" lon="-2.267007"/><trkpt lat="43.29944" lon="-2.267086"/><trkpt lat="43.299392" lon="-2.267137"/><trkpt lat="43.299312" lon="-2.267203"/><trkpt lat="43.29927" lon="-2.267222"/><trkpt lat="43.299333" lon="-2.267277"/><trkpt lat="43.299432" lon="-2.267322"/><trkpt lat="43.299588" lon="-2.267451"/><trkpt lat="43.299645" lon="-2.267516"/><trkpt lat="43.299722" lon="-2.267662"/><trkpt lat="43.299761" lon="-2.267712"/><trkpt lat="43.299881" lon="-2.267774"/><trkpt lat="43.299883" lon="-2.267834"/><trkpt lat="43.299912" lon="-2.267919"/><trkpt lat="43.299883" lon="-2.267834"/><trkpt lat="43.299881" lon="-2.267774"/><trkpt lat="43.299761" lon="-2.267712"/><trkpt lat="43.299722" lon="-2.267662"/><trkpt lat="43.299645" lon="-2.267516"/><trkpt lat="43.299588" lon="-2.267451"/><trkpt lat="43.299432" lon="-2.267322"/><trkpt lat="43.299333" lon="-2.267277"/><trkpt lat="43.29927" lon="-2.267222"/><trkpt lat="43.299312" lon="-2.267203"/><trkpt lat="43.299392" lon="-2.267137"/><trkpt lat="43.29944" lon="-2.267086"/><trkpt lat="43.299487" lon="-2.267007"/><trkpt lat="43.299497" lon="-2.266954"/><trkpt lat="43.299514" lon="-2.266948"/><trkpt lat="43.299534" lon="-2.266917"/><trkpt lat="43.299537" lon="-2.26676"/><trkpt lat="43.299551" lon="-2.266706"/><trkpt lat="43.299588" lon="-2.26661"/><trkpt lat="43.299534" lon="-2.266048"/><trkpt lat="43.299513" lon="-2.265489"/><trkpt lat="43.299519" lon="-2.265453"/><trkpt lat="43.29954" lon="-2.265397"/><trkpt lat="43.299551" lon="-2.265321"/><trkpt lat="43.299552" lon="-2.26527"/><trkpt lat="43.299541" lon="-2.265081"/><trkpt lat="43.299555" lon="-2.26503"/><trkpt lat="43.299585" lon="-2.265004"/><trkpt lat="43.299462" lon="-2.264545"/><trkpt lat="43.2994" lon="-2.264277"/><trkpt lat="43.299395" lon="-2.264209"/><trkpt lat="43.299398" lon="-2.264161"/><trkpt lat="43.299419" lon="-2.264058"/><trkpt lat="43.299428" lon="-2.263899"/><trkpt lat="43.299418" lon="-2.263776"/><trkpt lat="43.29939" lon="-2.26363"/><trkpt lat="43.299378" lon="-2.263512"/><trkpt lat="43.299366" lon="-2.263466"/><trkpt lat="43.299321" lon="-2.26335"/><trkpt lat="43.299301" lon="-2.263276"/><trkpt lat="43.299264" lon="-2.263183"/><trkpt lat="43.299256" lon="-2.263148"/><trkpt lat="43.299253" lon="-2.263087"/><trkpt lat="43.299235" lon="-2.263005"/><trkpt lat="43.299115" lon="-2.262577"/><trkpt lat="43.299078" lon="-2.262357"/><trkpt lat="43.299015" lon="-2.262153"/><trkpt lat="43.298932" lon="-2.262011"/><trkpt lat="43.298882" lon="-2.261876"/><trkpt lat="43.298807" lon="-2.261626"/><trkpt lat="43.298761" lon="-2.261383"/><trkpt lat="43.298631" lon="-2.26049"/><trkpt lat="43.29859" lon="-2.260203"/><trkpt lat="43.298524" lon="-2.259645"/><trkpt lat="43.298505" lon="-2.259557"/><trkpt lat="43.2985" lon="-2.259468"/><trkpt lat="43.298512" lon="-2.259402"/><trkpt lat="43.298486" lon="-2.259362"/><trkpt lat="43.298473" lon="-2.259324"/><trkpt lat="43.298441" lon="-2.25917"/><trkpt lat="43.298436" lon="-2.259129"/><trkpt lat="43.298443" lon="-2.259085"/><trkpt lat="43.298397" lon="-2.259007"/><trkpt lat="43.298375" lon="-2.258951"/><trkpt lat="43.298303" lon="-2.258669"/><trkpt lat="43.298293" lon="-2.258629"/><trkpt lat="43.298262" lon="-2.2585"/><trkpt lat="43.29825" lon="-2.2584"/><trkpt lat="43.298249" lon="-2.258337"/><trkpt lat="43.298251" lon="-2.258222"/><trkpt lat="43.298239" lon="-2.257817"/><trkpt lat="43.298238" lon="-2.257796"/><trkpt lat="43.29815" lon="-2.25777"/><trkpt lat="43.298089" lon="-2.257735"/><trkpt lat="43.298007" lon="-2.257669"/><trkpt lat="43.297934" lon="-2.257589"/><trkpt lat="43.297848" lon="-2.257462"/><trkpt lat="43.29784" lon="-2.257449"/><trkpt lat="43.29761" lon="-2.25712"/><trkpt lat="43.2976" lon="-2.257106"/><trkpt lat="43.297561" lon="-2.257054"/><trkpt lat="43.297463" lon="-2.257188"/><trkpt lat="43.297374" lon="-2.257313"/><trkpt lat="43.297198" lon="-2.257129"/><trkpt lat="43.29708" lon="-2.257289"/><trkpt lat="43.29696" lon="-2.257438"/><trkpt lat="43.296943" lon="-2.257397"/><trkpt lat="43.296826" lon="-2.25719"/><trkpt lat="43.296685" lon="-2.256977"/><trkpt lat="43.296666" lon="-2.256947"/><trkpt lat="43.296588" lon="-2.25682"/><trkpt lat="43.29651" lon="-2.256694"/><trkpt lat="43.296462" lon="-2.256615"/><trkpt lat="43.296391" lon="-2.256698"/><trkpt lat="43.296356" lon="-2.256654"/><trkpt lat="43.296349" lon="-2.256647"/><trkpt lat="43.29633" lon="-2.256621"/><trkpt lat="43.296323" lon="-2.256614"/><trkpt lat="43.296309" lon="-2.256599"/><trkpt lat="43.296285" lon="-2.256572"/><trkpt lat="43.296265" lon="-2.256553"/><trkpt lat="43.296051" lon="-2.256344"/><trkpt lat="43.296033" lon="-2.256327"/><trkpt lat="43.296016" lon="-2.25631"/><trkpt lat="43.295992" lon="-2.256287"/><trkpt lat="43.29597" lon="-2.256267"/><trkpt lat="43.295931" lon="-2.25623"/><trkpt lat="43.295007" lon="-2.255353"/><trkpt lat="43.294969" lon="-2.255427"/><trkpt lat="43.294827" lon="-2.255262"/><trkpt lat="43.294738" lon="-2.25512"/><trkpt lat="43.294663" lon="-2.254934"/><trkpt lat="43.294529" lon="-2.254482"/><trkpt lat="43.294331" lon="-2.25382"/><trkpt lat="43.294295" lon="-2.253733"/><trkpt lat="43.294267" lon="-2.253706"/><trkpt lat="43.294245" lon="-2.25346"/><trkpt lat="43.294201" lon="-2.253282"/><trkpt lat="43.294175" lon="-2.253195"/><trkpt lat="43.294152" lon="-2.253095"/><trkpt lat="43.294134" lon="-2.252979"/><trkpt lat="43.294096" lon="-2.253031"/><trkpt lat="43.294086" lon="-2.253018"/><trkpt lat="43.294062" lon="-2.252986"/><trkpt lat="43.294114" lon="-2.252913"/><trkpt lat="43.294881" lon="-2.251879"/><trkpt lat="43.294997" lon="-2.251695"/><trkpt lat="43.295112" lon="-2.251534"/><trkpt lat="43.2952" lon="-2.251368"/><trkpt lat="43.295249" lon="-2.251297"/><trkpt lat="43.295306" lon="-2.251228"/><trkpt lat="43.295475" lon="-2.251065"/><trkpt lat="43.295618" lon="-2.250927"/><trkpt lat="43.295689" lon="-2.250858"/><trkpt lat="43.295754" lon="-2.250953"/><trkpt lat="43.295797" lon="-2.25101"/><trkpt lat="43.295843" lon="-2.251075"/><trkpt lat="43.296314" lon="-2.251735"/><trkpt lat="43.29636" lon="-2.251833"/><trkpt lat="43.296382" lon="-2.251895"/><trkpt lat="43.296413" lon="-2.252062"/><trkpt lat="43.296422" lon="-2.252118"/><trkpt lat="43.296434" lon="-2.252208"/><trkpt lat="43.296434" lon="-2.252265"/><trkpt lat="43.296427" lon="-2.252318"/><trkpt lat="43.296401" lon="-2.252393"/><trkpt lat="43.296008" lon="-2.252916"/><trkpt lat="43.295947" lon="-2.253025"/><trkpt lat="43.295933" lon="-2.253063"/><trkpt lat="43.295924" lon="-2.253111"/><trkpt lat="43.295919" lon="-2.253171"/><trkpt lat="43.295923" lon="-2.253188"/><trkpt lat="43.295922" lon="-2.253206"/><trkpt lat="43.295911" lon="-2.253239"/><trkpt lat="43.295889" lon="-2.253259"/><trkpt lat="43.295876" lon="-2.253262"/><trkpt lat="43.295851" lon="-2.253253"/><trkpt lat="43.295861" lon="-2.25331"/><trkpt lat="43.295856" lon="-2.253338"/><trkpt lat="43.295841" lon="-2.25337"/><trkpt lat="43.295805" lon="-2.253418"/><trkpt lat="43.296214" lon="-2.25399"/></trkseg></trk></gpx>