<?xml version="1.0" encoding="UTF-8"?><kml xmlns="http://www.opengis.net/kml/2.2"><Document><name>Gorbeia · к кресту от Zárate</name><description>Планировочная реконструкция по OpenStreetMap, 14.09.2026. Не запись GPS и не проверенный навигационный трек. Высоты не экспортированы. Данные © OpenStreetMap contributors, ODbL. Автопереезды и канатки в пеший трек не включены.</description><Style id="track"><LineStyle><color>ff3447ad</color><width>4</width></LineStyle></Style><Placemark><name>Zárate · старт</name><Point><coordinates>-2.787653,42.973573</coordinates></Point></Placemark><Placemark><name>Pagazuri · выход на плато</name><Point><coordinates>-2.7722931,43.0120322</coordinates></Point></Placemark><Placemark><name>Крест Gorbeia</name><Point><coordinates>-2.7813683,43.0339448</coordinates></Point></Placemark><Placemark><name>Gorbeia · к кресту от Zárate</name><description>Планировочная реконструкция по OpenStreetMap, 14.09.2026. Не запись GPS и не проверенный навигационный трек. Высоты не экспортированы. Данные © OpenStreetMap contributors, ODbL. Автопереезды и канатки в пеший трек не включены.</description><styleUrl>#track</styleUrl><LineString><tessellate>1</tessellate><altitudeMode>clampToGround</altitudeMode><coordinates>-2.787653,42.973573,0 -2.78758,42.973775,0 -2.787398,42.97432,0 -2.787151,42.974717,0 -2.786749,42.975101,0 -2.786089,42.975651,0 -2.785869,42.97582,0 -2.785515,42.975978,0 -2.785193,42.976188,0 -2.785015,42.976474,0 -2.784802,42.976907,0 -2.784658,42.977164,0 -2.784441,42.977301,0 -2.783725,42.977464,0 -2.783418,42.977597,0 -2.783155,42.977727,0 -2.782999,42.977911,0 -2.782828,42.978203,0 -2.782661,42.978699,0 -2.782447,42.979407,0 -2.782329,42.979658,0 -2.782146,42.979929,0 -2.781653,42.980274,0 -2.780998,42.980659,0 -2.780656,42.980958,0 -2.780499,42.981169,0 -2.780475,42.981268,0 -2.780582,42.981476,0 -2.780786,42.981735,0 -2.781129,42.98203,0 -2.781295,42.98223,0 -2.781572,42.982735,0 -2.781633,42.982818,0 -2.781632,42.982902,0 -2.781521,42.983211,0 -2.781376,42.983517,0 -2.781354,42.983623,0 -2.781392,42.983733,0 -2.781672,42.983973,0 -2.781887,42.984071,0 -2.782071,42.98417,0 -2.782223,42.984274,0 -2.782372,42.98451,0 -2.782395,42.984616,0 -2.78225,42.984961,0 -2.782062,42.985306,0 -2.782041,42.985565,0 -2.781955,42.985659,0 -2.781901,42.985718,0 -2.781333,42.986217,0 -2.781145,42.986476,0 -2.780936,42.986978,0 -2.780748,42.987288,0 -2.780287,42.987826,0 -2.77952,42.988701,0 -2.779268,42.988936,0 -2.778967,42.989387,0 -2.778731,42.989819,0 -2.778592,42.990153,0 -2.77849,42.990423,0 -2.778463,42.990761,0 -2.77842,42.991012,0 -2.778061,42.991648,0 -2.777894,42.991852,0 -2.777637,42.992103,0 -2.777445,42.99228,0 -2.777287,42.992435,0 -2.777155,42.992601,0 -2.77708,42.992757,0 -2.776977,42.993001,0 -2.776852,42.993217,0 -2.776713,42.993261,0 -2.776679,42.993312,0 -2.776594,42.993482,0 -2.776328,42.993806,0 -2.775781,42.994296,0 -2.775199,42.994934,0 -2.774942,42.995169,0 -2.774303,42.995636,0 -2.773759,42.996058,0 -2.773477,42.996258,0 -2.77285,42.996527,0 -2.772584,42.996687,0 -2.772359,42.99686,0 -2.772195,42.997031,0 -2.772139,42.997139,0 -2.772131,42.997462,0 -2.772155,42.997549,0 -2.772227,42.997666,0 -2.772259,42.99776,0 -2.772257,42.997853,0 -2.772209,42.997986,0 -2.772109,42.9981,0 -2.771978,42.998208,0 -2.77186,42.998274,0 -2.771506,42.998398,0 -2.771323,42.99849,0 -2.770712,42.998832,0 -2.770473,42.999039,0 -2.770181,42.999306,0 -2.769953,42.999555,0 -2.769776,42.999703,0 -2.769634,42.999852,0 -2.769572,42.999956,0 -2.769542,43.000059,0 -2.769572,43.000154,0 -2.769778,43.000442,0 -2.770004,43.000658,0 -2.770335,43.000994,0 -2.770454,43.001117,0 -2.770752,43.001327,0 -2.771289,43.001768,0 -2.771594,43.002007,0 -2.771653,43.00207,0 -2.771683,43.002155,0 -2.771731,43.002345,0 -2.771774,43.002641,0 -2.771956,43.003065,0 -2.772088,43.003247,0 -2.772506,43.003702,0 -2.772686,43.003824,0 -2.772772,43.003908,0 -2.772847,43.004002,0 -2.772887,43.004104,0 -2.772903,43.004255,0 -2.772941,43.004387,0 -2.773064,43.004542,0 -2.773104,43.004661,0 -2.773134,43.00485,0 -2.773153,43.00512,0 -2.773241,43.005797,0 -2.773255,43.005966,0 -2.773225,43.006134,0 -2.773225,43.00625,0 -2.773233,43.006301,0 -2.773249,43.006405,0 -2.773214,43.006588,0 -2.773206,43.006903,0 -2.773233,43.007007,0 -2.773445,43.007325,0 -2.773539,43.007496,0 -2.773657,43.007747,0 -2.773729,43.007988,0 -2.773842,43.008468,0 -2.77388,43.008561,0 -2.77407,43.008847,0 -2.774129,43.009049,0 -2.774137,43.009177,0 -2.774127,43.009293,0 -2.774102,43.009388,0 -2.773925,43.00985,0 -2.773827,43.010136,0 -2.773776,43.010243,0 -2.773612,43.010472,0 -2.773394,43.01073,0 -2.773358,43.010847,0 -2.773339,43.010941,0 -2.773262,43.01104,0 -2.773146,43.011164,0 -2.772973,43.011305,0 -2.772854,43.011384,0 -2.772677,43.011461,0 -2.772534,43.011545,0 -2.772421,43.011654,0 -2.77241,43.011691,0 -2.772404,43.011807,0 -2.772442,43.012107,0 -2.772315,43.012015,0 -2.772442,43.012107,0 -2.772704,43.012332,0 -2.772811,43.012404,0 -2.77291,43.012459,0 -2.773025,43.012609,0 -2.773115,43.012719,0 -2.773207,43.012786,0 -2.773318,43.012889,0 -2.773521,43.013055,0 -2.773827,43.013363,0 -2.773917,43.013496,0 -2.774011,43.013736,0 -2.774097,43.0139,0 -2.774132,43.013989,0 -2.774221,43.01413,0 -2.774286,43.014263,0 -2.774395,43.014345,0 -2.774521,43.014483,0 -2.774716,43.014674,0 -2.774901,43.014918,0 -2.77494,43.015017,0 -2.775089,43.01513,0 -2.775191,43.015196,0 -2.775227,43.015268,0 -2.775199,43.015402,0 -2.775253,43.015565,0 -2.775291,43.01563,0 -2.775529,43.015859,0 -2.775574,43.015955,0 -2.775673,43.016012,0 -2.775801,43.016063,0 -2.775981,43.016184,0 -2.776118,43.016334,0 -2.77619,43.016462,0 -2.776236,43.016668,0 -2.776281,43.016782,0 -2.776365,43.01691,0 -2.776416,43.016954,0 -2.776506,43.016994,0 -2.776606,43.017066,0 -2.776724,43.017257,0 -2.776899,43.017499,0 -2.777041,43.017627,0 -2.777147,43.017749,0 -2.777178,43.017818,0 -2.777187,43.017915,0 -2.77713,43.018149,0 -2.777029,43.018418,0 -2.776956,43.018483,0 -2.776899,43.018664,0 -2.776872,43.018843,0 -2.77688,43.019025,0 -2.776945,43.019251,0 -2.777008,43.019356,0 -2.777007,43.019399,0 -2.777005,43.019469,0 -2.776975,43.019562,0 -2.77681,43.019698,0 -2.776742,43.019739,0 -2.776648,43.01978,0 -2.776503,43.019826,0 -2.776348,43.019872,0 -2.775837,43.020298,0 -2.775775,43.020387,0 -2.775746,43.020445,0 -2.775752,43.020527,0 -2.775776,43.020612,0 -2.775802,43.020755,0 -2.775895,43.020846,0 -2.776098,43.020976,0 -2.77627,43.021111,0 -2.776338,43.021251,0 -2.776375,43.021553,0 -2.776364,43.021607,0 -2.776343,43.021642,0 -2.776215,43.021751,0 -2.776144,43.021833,0 -2.776173,43.021915,0 -2.776252,43.022188,0 -2.77624,43.02231,0 -2.776221,43.022378,0 -2.776197,43.022467,0 -2.776042,43.022706,0 -2.775999,43.02281,0 -2.775999,43.022936,0 -2.776012,43.023026,0 -2.775975,43.02313,0 -2.775919,43.023229,0 -2.775901,43.023382,0 -2.775913,43.023553,0 -2.775882,43.023756,0 -2.775827,43.0239,0 -2.775747,43.024044,0 -2.775685,43.024179,0 -2.775685,43.024265,0 -2.775895,43.02463,0 -2.775956,43.024751,0 -2.775993,43.024859,0 -2.775987,43.025139,0 -2.776005,43.025454,0 -2.77595,43.02554,0 -2.775895,43.025797,0 -2.775796,43.026103,0 -2.775741,43.026243,0 -2.775634,43.026332,0 -2.775532,43.026402,0 -2.775471,43.026435,0 -2.775238,43.026293,0 -2.775175,43.026437,0 -2.775145,43.026647,0 -2.775036,43.026929,0 -2.774977,43.027024,0 -2.774737,43.027292,0 -2.77476,43.027362,0 -2.774812,43.027585,0 -2.774769,43.027789,0 -2.774772,43.0279,0 -2.774852,43.028313,0 -2.774868,43.028568,0 -2.774938,43.028878,0 -2.774987,43.029194,0 -2.775023,43.029333,0 -2.775095,43.029468,0 -2.775346,43.029772,0 -2.775464,43.029928,0 -2.77555,43.030074,0 -2.775721,43.030324,0 -2.775947,43.030548,0 -2.776177,43.030697,0 -2.776318,43.030803,0 -2.776644,43.03107,0 -2.776821,43.031242,0 -2.776882,43.031324,0 -2.776993,43.031407,0 -2.777095,43.031441,0 -2.777196,43.031485,0 -2.77743,43.031565,0 -2.7776,43.031655,0 -2.777819,43.03185,0 -2.778163,43.032021,0 -2.778369,43.032182,0 -2.7789,43.032514,0 -2.779164,43.032696,0 -2.779448,43.032922,0 -2.779585,43.033019,0 -2.779606,43.033052,0 -2.779878,43.033225,0 -2.780257,43.033405,0 -2.780504,43.033535,0 -2.780649,43.03366,0 -2.781043,43.033846,0 -2.781368,43.033945,0 -2.781043,43.033846,0 -2.780649,43.03366,0 -2.780504,43.033535,0 -2.780257,43.033405,0 -2.779878,43.033225,0 -2.779606,43.033052,0 -2.779585,43.033019,0 -2.779448,43.032922,0 -2.779164,43.032696,0 -2.7789,43.032514,0 -2.778369,43.032182,0 -2.778163,43.032021,0 -2.777819,43.03185,0 -2.7776,43.031655,0 -2.77743,43.031565,0 -2.777196,43.031485,0 -2.777095,43.031441,0 -2.776993,43.031407,0 -2.776882,43.031324,0 -2.776821,43.031242,0 -2.776644,43.03107,0 -2.776318,43.030803,0 -2.776177,43.030697,0 -2.775947,43.030548,0 -2.775721,43.030324,0 -2.77555,43.030074,0 -2.775464,43.029928,0 -2.775346,43.029772,0 -2.775095,43.029468,0 -2.775023,43.029333,0 -2.774987,43.029194,0 -2.774938,43.028878,0 -2.774868,43.028568,0 -2.774852,43.028313,0 -2.774772,43.0279,0 -2.774769,43.027789,0 -2.774812,43.027585,0 -2.77476,43.027362,0 -2.774737,43.027292,0 -2.774977,43.027024,0 -2.775036,43.026929,0 -2.775145,43.026647,0 -2.775175,43.026437,0 -2.775238,43.026293,0 -2.775471,43.026435,0 -2.775532,43.026402,0 -2.775634,43.026332,0 -2.775741,43.026243,0 -2.775796,43.026103,0 -2.775895,43.025797,0 -2.77595,43.02554,0 -2.776005,43.025454,0 -2.775987,43.025139,0 -2.775993,43.024859,0 -2.775956,43.024751,0 -2.775895,43.02463,0 -2.775685,43.024265,0 -2.775685,43.024179,0 -2.775747,43.024044,0 -2.775827,43.0239,0 -2.775882,43.023756,0 -2.775913,43.023553,0 -2.775901,43.023382,0 -2.775919,43.023229,0 -2.775975,43.02313,0 -2.776012,43.023026,0 -2.775999,43.022936,0 -2.775999,43.02281,0 -2.776042,43.022706,0 -2.776197,43.022467,0 -2.776221,43.022378,0 -2.77624,43.02231,0 -2.776252,43.022188,0 -2.776173,43.021915,0 -2.776144,43.021833,0 -2.776215,43.021751,0 -2.776343,43.021642,0 -2.776364,43.021607,0 -2.776375,43.021553,0 -2.776338,43.021251,0 -2.77627,43.021111,0 -2.776098,43.020976,0 -2.775895,43.020846,0 -2.775802,43.020755,0 -2.775776,43.020612,0 -2.775752,43.020527,0 -2.775746,43.020445,0 -2.775775,43.020387,0 -2.775837,43.020298,0 -2.776348,43.019872,0 -2.776503,43.019826,0 -2.776648,43.01978,0 -2.776742,43.019739,0 -2.77681,43.019698,0 -2.776975,43.019562,0 -2.777005,43.019469,0 -2.777007,43.019399,0 -2.777008,43.019356,0 -2.776945,43.019251,0 -2.77688,43.019025,0 -2.776872,43.018843,0 -2.776899,43.018664,0 -2.776956,43.018483,0 -2.777029,43.018418,0 -2.77713,43.018149,0 -2.777187,43.017915,0 -2.777178,43.017818,0 -2.777147,43.017749,0 -2.777041,43.017627,0 -2.776899,43.017499,0 -2.776724,43.017257,0 -2.776606,43.017066,0 -2.776506,43.016994,0 -2.776416,43.016954,0 -2.776365,43.01691,0 -2.776281,43.016782,0 -2.776236,43.016668,0 -2.77619,43.016462,0 -2.776118,43.016334,0 -2.775981,43.016184,0 -2.775801,43.016063,0 -2.775673,43.016012,0 -2.775574,43.015955,0 -2.775529,43.015859,0 -2.775291,43.01563,0 -2.775253,43.015565,0 -2.775199,43.015402,0 -2.775227,43.015268,0 -2.775191,43.015196,0 -2.775089,43.01513,0 -2.77494,43.015017,0 -2.774901,43.014918,0 -2.774716,43.014674,0 -2.774521,43.014483,0 -2.774395,43.014345,0 -2.774286,43.014263,0 -2.774221,43.01413,0 -2.774132,43.013989,0 -2.774097,43.0139,0 -2.774011,43.013736,0 -2.773917,43.013496,0 -2.773827,43.013363,0 -2.773521,43.013055,0 -2.773318,43.012889,0 -2.773207,43.012786,0 -2.773115,43.012719,0 -2.773025,43.012609,0 -2.77291,43.012459,0 -2.772811,43.012404,0 -2.772704,43.012332,0 -2.772442,43.012107,0 -2.772315,43.012015,0 -2.772442,43.012107,0 -2.772404,43.011807,0 -2.77241,43.011691,0 -2.772421,43.011654,0 -2.772534,43.011545,0 -2.772677,43.011461,0 -2.772854,43.011384,0 -2.772973,43.011305,0 -2.773146,43.011164,0 -2.773262,43.01104,0 -2.773339,43.010941,0 -2.773358,43.010847,0 -2.773394,43.01073,0 -2.773612,43.010472,0 -2.773776,43.010243,0 -2.773827,43.010136,0 -2.773925,43.00985,0 -2.774102,43.009388,0 -2.774127,43.009293,0 -2.774137,43.009177,0 -2.774129,43.009049,0 -2.77407,43.008847,0 -2.77388,43.008561,0 -2.773842,43.008468,0 -2.773729,43.007988,0 -2.773657,43.007747,0 -2.773539,43.007496,0 -2.773445,43.007325,0 -2.773233,43.007007,0 -2.773206,43.006903,0 -2.773214,43.006588,0 -2.773249,43.006405,0 -2.773233,43.006301,0 -2.773225,43.00625,0 -2.773225,43.006134,0 -2.773255,43.005966,0 -2.773241,43.005797,0 -2.773153,43.00512,0 -2.773134,43.00485,0 -2.773104,43.004661,0 -2.773064,43.004542,0 -2.772941,43.004387,0 -2.772903,43.004255,0 -2.772887,43.004104,0 -2.772847,43.004002,0 -2.772772,43.003908,0 -2.772686,43.003824,0 -2.772506,43.003702,0 -2.772088,43.003247,0 -2.771956,43.003065,0 -2.771774,43.002641,0 -2.771731,43.002345,0 -2.771683,43.002155,0 -2.771653,43.00207,0 -2.771594,43.002007,0 -2.771289,43.001768,0 -2.770752,43.001327,0 -2.770454,43.001117,0 -2.770335,43.000994,0 -2.770004,43.000658,0 -2.769778,43.000442,0 -2.769572,43.000154,0 -2.769542,43.000059,0 -2.769572,42.999956,0 -2.769634,42.999852,0 -2.769776,42.999703,0 -2.769953,42.999555,0 -2.770181,42.999306,0 -2.770473,42.999039,0 -2.770712,42.998832,0 -2.771323,42.99849,0 -2.771506,42.998398,0 -2.77186,42.998274,0 -2.771978,42.998208,0 -2.772109,42.9981,0 -2.772209,42.997986,0 -2.772257,42.997853,0 -2.772259,42.99776,0 -2.772227,42.997666,0 -2.772155,42.997549,0 -2.772131,42.997462,0 -2.772139,42.997139,0 -2.772195,42.997031,0 -2.772359,42.99686,0 -2.772584,42.996687,0 -2.77285,42.996527,0 -2.773477,42.996258,0 -2.773759,42.996058,0 -2.774303,42.995636,0 -2.774942,42.995169,0 -2.775199,42.994934,0 -2.775781,42.994296,0 -2.776328,42.993806,0 -2.776594,42.993482,0 -2.776679,42.993312,0 -2.776713,42.993261,0 -2.776852,42.993217,0 -2.776977,42.993001,0 -2.77708,42.992757,0 -2.777155,42.992601,0 -2.777287,42.992435,0 -2.777445,42.99228,0 -2.777637,42.992103,0 -2.777894,42.991852,0 -2.778061,42.991648,0 -2.77842,42.991012,0 -2.778463,42.990761,0 -2.77849,42.990423,0 -2.778592,42.990153,0 -2.778731,42.989819,0 -2.778967,42.989387,0 -2.779268,42.988936,0 -2.77952,42.988701,0 -2.780287,42.987826,0 -2.780748,42.987288,0 -2.780936,42.986978,0 -2.781145,42.986476,0 -2.781333,42.986217,0 -2.781901,42.985718,0 -2.781955,42.985659,0 -2.782041,42.985565,0 -2.782062,42.985306,0 -2.78225,42.984961,0 -2.782395,42.984616,0 -2.782372,42.98451,0 -2.782223,42.984274,0 -2.782071,42.98417,0 -2.781887,42.984071,0 -2.781672,42.983973,0 -2.781392,42.983733,0 -2.781354,42.983623,0 -2.781376,42.983517,0 -2.781521,42.983211,0 -2.781632,42.982902,0 -2.781633,42.982818,0 -2.781572,42.982735,0 -2.781295,42.98223,0 -2.781129,42.98203,0 -2.780786,42.981735,0 -2.780582,42.981476,0 -2.780475,42.981268,0 -2.780499,42.981169,0 -2.780656,42.980958,0 -2.780998,42.980659,0 -2.781653,42.980274,0 -2.782146,42.979929,0 -2.782329,42.979658,0 -2.782447,42.979407,0 -2.782661,42.978699,0 -2.782828,42.978203,0 -2.782999,42.977911,0 -2.783155,42.977727,0 -2.783418,42.977597,0 -2.783725,42.977464,0 -2.784441,42.977301,0 -2.784658,42.977164,0 -2.784802,42.976907,0 -2.785015,42.976474,0 -2.785193,42.976188,0 -2.785515,42.975978,0 -2.785869,42.97582,0 -2.786089,42.975651,0 -2.786749,42.975101,0 -2.787151,42.974717,0 -2.787398,42.97432,0 -2.78758,42.973775,0 -2.787653,42.973573,0</coordinates></LineString></Placemark></Document></kml>