<?xml version="1.0" encoding="UTF-8"?><gpx version="1.1" creator="Basque Hikes Atlas" xmlns="http://www.topografix.com/GPX/1/1"><metadata><name>Jaizkibel · цветные скалы долины Labetxu</name><desc>Планировочная реконструкция по OpenStreetMap, 14.09.2026. Не запись GPS и не проверенный навигационный трек. Высоты не экспортированы. Данные © OpenStreetMap contributors, ODbL. Автопереезды и канатки в пеший трек не включены.</desc><link href="https://www.openstreetmap.org/copyright"><text>OpenStreetMap contributors · ODbL</text></link></metadata><wpt lat="43.34802" lon="-1.855485"><name>Jaizkibel · стоянка у горной дороги</name></wpt><wpt lat="43.3549" lon="-1.8643"><name>Jaizkibel · спуск к океану</name></wpt><wpt lat="43.363878" lon="-1.871177"><name>Labetxu · долина цветных скал</name></wpt><trk><name>Jaizkibel · цветные скалы долины Labetxu</name><desc>Планировочная реконструкция по OpenStreetMap, 14.09.2026. Не запись GPS и не проверенный навигационный трек. Высоты не экспортированы. Данные © OpenStreetMap contributors, ODbL. Автопереезды и канатки в пеший трек не включены.</desc><type>hiking</type><trkseg><trkpt lat="43.347977" lon="-1.85545"/><trkpt lat="43.347439" lon="-1.856631"/><trkpt lat="43.347244" lon="-1.857456"/><trkpt lat="43.347233" lon="-1.857578"/><trkpt lat="43.34725" lon="-1.857687"/><trkpt lat="43.347293" lon="-1.857774"/><trkpt lat="43.347397" lon="-1.857916"/><trkpt lat="43.347629" lon="-1.858196"/><trkpt lat="43.347667" lon="-1.858272"/><trkpt lat="43.347678" lon="-1.858315"/><trkpt lat="43.347681" lon="-1.85837"/><trkpt lat="43.347676" lon="-1.858412"/><trkpt lat="43.347661" lon="-1.858483"/><trkpt lat="43.347628" lon="-1.858543"/><trkpt lat="43.347651" lon="-1.858559"/><trkpt lat="43.347755" lon="-1.858567"/><trkpt lat="43.347842" lon="-1.858752"/><trkpt lat="43.347894" lon="-1.858793"/><trkpt lat="43.347943" lon="-1.858847"/><trkpt lat="43.348098" lon="-1.859092"/><trkpt lat="43.348202" lon="-1.859236"/><trkpt lat="43.348241" lon="-1.859304"/><trkpt lat="43.348308" lon="-1.859384"/><trkpt lat="43.348413" lon="-1.859568"/><trkpt lat="43.348509" lon="-1.859648"/><trkpt lat="43.348578" lon="-1.85969"/><trkpt lat="43.348637" lon="-1.859648"/><trkpt lat="43.348631" lon="-1.859718"/><trkpt lat="43.348636" lon="-1.859795"/><trkpt lat="43.348669" lon="-1.859854"/><trkpt lat="43.348731" lon="-1.859911"/><trkpt lat="43.348765" lon="-1.859962"/><trkpt lat="43.348804" lon="-1.860059"/><trkpt lat="43.348833" lon="-1.86011"/><trkpt lat="43.348869" lon="-1.860153"/><trkpt lat="43.349002" lon="-1.860216"/><trkpt lat="43.349149" lon="-1.860332"/><trkpt lat="43.349275" lon="-1.860456"/><trkpt lat="43.34938" lon="-1.860545"/><trkpt lat="43.349464" lon="-1.860586"/><trkpt lat="43.34969" lon="-1.860663"/><trkpt lat="43.349961" lon="-1.860789"/><trkpt lat="43.350042" lon="-1.860836"/><trkpt lat="43.350109" lon="-1.860846"/><trkpt lat="43.35014" lon="-1.860862"/><trkpt lat="43.350177" lon="-1.860921"/><trkpt lat="43.350209" lon="-1.860956"/><trkpt lat="43.350245" lon="-1.860962"/><trkpt lat="43.350327" lon="-1.86095"/><trkpt lat="43.350373" lon="-1.860968"/><trkpt lat="43.350403" lon="-1.861008"/><trkpt lat="43.350416" lon="-1.861063"/><trkpt lat="43.350456" lon="-1.861101"/><trkpt lat="43.350554" lon="-1.861071"/><trkpt lat="43.350934" lon="-1.861033"/><trkpt lat="43.351022" lon="-1.861037"/><trkpt lat="43.351099" lon="-1.861064"/><trkpt lat="43.35121" lon="-1.861085"/><trkpt lat="43.351338" lon="-1.861191"/><trkpt lat="43.351582" lon="-1.861327"/><trkpt lat="43.351785" lon="-1.86142"/><trkpt lat="43.351984" lon="-1.861589"/><trkpt lat="43.352191" lon="-1.86169"/><trkpt lat="43.352336" lon="-1.861747"/><trkpt lat="43.352497" lon="-1.861909"/><trkpt lat="43.352568" lon="-1.861941"/><trkpt lat="43.352665" lon="-1.861941"/><trkpt lat="43.352781" lon="-1.862002"/><trkpt lat="43.353052" lon="-1.862067"/><trkpt lat="43.353115" lon="-1.86212"/><trkpt lat="43.353327" lon="-1.862218"/><trkpt lat="43.353527" lon="-1.862332"/><trkpt lat="43.353608" lon="-1.862351"/><trkpt lat="43.353692" lon="-1.862405"/><trkpt lat="43.353818" lon="-1.862516"/><trkpt lat="43.354166" lon="-1.862787"/><trkpt lat="43.354473" lon="-1.862987"/><trkpt lat="43.354587" lon="-1.863099"/><trkpt lat="43.354707" lon="-1.863164"/><trkpt lat="43.355128" lon="-1.863356"/><trkpt lat="43.355153" lon="-1.863367"/><trkpt lat="43.355301" lon="-1.863416"/><trkpt lat="43.355531" lon="-1.863455"/><trkpt lat="43.355638" lon="-1.863488"/><trkpt lat="43.356042" lon="-1.863575"/><trkpt lat="43.35621" lon="-1.863593"/><trkpt lat="43.356328" lon="-1.863591"/><trkpt lat="43.356382" lon="-1.863596"/><trkpt lat="43.356465" lon="-1.863623"/><trkpt lat="43.356631" lon="-1.863737"/><trkpt lat="43.356767" lon="-1.863853"/><trkpt lat="43.356943" lon="-1.864021"/><trkpt lat="43.357141" lon="-1.864175"/><trkpt lat="43.357517" lon="-1.86462"/><trkpt lat="43.357588" lon="-1.864729"/><trkpt lat="43.357525" lon="-1.864795"/><trkpt lat="43.357676" lon="-1.864964"/><trkpt lat="43.357974" lon="-1.865201"/><trkpt lat="43.358121" lon="-1.865268"/><trkpt lat="43.358376" lon="-1.865427"/><trkpt lat="43.358492" lon="-1.865518"/><trkpt lat="43.358676" lon="-1.865775"/><trkpt lat="43.358899" lon="-1.866169"/><trkpt lat="43.358963" lon="-1.866213"/><trkpt lat="43.359059" lon="-1.866344"/><trkpt lat="43.359159" lon="-1.86639"/><trkpt lat="43.359366" lon="-1.866434"/><trkpt lat="43.359502" lon="-1.866548"/><trkpt lat="43.359644" lon="-1.866704"/><trkpt lat="43.359712" lon="-1.866796"/><trkpt lat="43.35977" lon="-1.8669"/><trkpt lat="43.359968" lon="-1.867038"/><trkpt lat="43.360084" lon="-1.867137"/><trkpt lat="43.360153" lon="-1.867264"/><trkpt lat="43.360317" lon="-1.86745"/><trkpt lat="43.360628" lon="-1.867881"/><trkpt lat="43.360723" lon="-1.867927"/><trkpt lat="43.360836" lon="-1.868025"/><trkpt lat="43.360955" lon="-1.868104"/><trkpt lat="43.361059" lon="-1.868097"/><trkpt lat="43.361252" lon="-1.868114"/><trkpt lat="43.361415" lon="-1.868175"/><trkpt lat="43.361612" lon="-1.868396"/><trkpt lat="43.361884" lon="-1.868748"/><trkpt lat="43.362048" lon="-1.868885"/><trkpt lat="43.362266" lon="-1.869084"/><trkpt lat="43.36246" lon="-1.869281"/><trkpt lat="43.362576" lon="-1.869415"/><trkpt lat="43.362663" lon="-1.869569"/><trkpt lat="43.362726" lon="-1.869587"/><trkpt lat="43.362805" lon="-1.869646"/><trkpt lat="43.362872" lon="-1.86973"/><trkpt lat="43.362916" lon="-1.869818"/><trkpt lat="43.362921" lon="-1.86989"/><trkpt lat="43.362937" lon="-1.869945"/><trkpt lat="43.36296" lon="-1.869985"/><trkpt lat="43.363078" lon="-1.870092"/><trkpt lat="43.363175" lon="-1.870158"/><trkpt lat="43.36323" lon="-1.870263"/><trkpt lat="43.363239" lon="-1.870383"/><trkpt lat="43.363282" lon="-1.870469"/><trkpt lat="43.363346" lon="-1.870546"/><trkpt lat="43.3634" lon="-1.870638"/><trkpt lat="43.363415" lon="-1.870659"/><trkpt lat="43.363444" lon="-1.8708"/><trkpt lat="43.363509" lon="-1.87093"/><trkpt lat="43.363639" lon="-1.871162"/><trkpt lat="43.363677" lon="-1.871308"/><trkpt lat="43.363703" lon="-1.87136"/><trkpt lat="43.363737" lon="-1.871401"/><trkpt lat="43.363703" lon="-1.87136"/><trkpt lat="43.363677" lon="-1.871308"/><trkpt lat="43.363639" lon="-1.871162"/><trkpt lat="43.363509" lon="-1.87093"/><trkpt lat="43.363444" lon="-1.8708"/><trkpt lat="43.363415" lon="-1.870659"/><trkpt lat="43.3634" lon="-1.870638"/><trkpt lat="43.363346" lon="-1.870546"/><trkpt lat="43.363282" lon="-1.870469"/><trkpt lat="43.363239" lon="-1.870383"/><trkpt lat="43.36323" lon="-1.870263"/><trkpt lat="43.363175" lon="-1.870158"/><trkpt lat="43.363078" lon="-1.870092"/><trkpt lat="43.36296" lon="-1.869985"/><trkpt lat="43.362937" lon="-1.869945"/><trkpt lat="43.362921" lon="-1.86989"/><trkpt lat="43.362916" lon="-1.869818"/><trkpt lat="43.362872" lon="-1.86973"/><trkpt lat="43.362805" lon="-1.869646"/><trkpt lat="43.362726" lon="-1.869587"/><trkpt lat="43.362663" lon="-1.869569"/><trkpt lat="43.362576" lon="-1.869415"/><trkpt lat="43.36246" lon="-1.869281"/><trkpt lat="43.362266" lon="-1.869084"/><trkpt lat="43.362048" lon="-1.868885"/><trkpt lat="43.361884" lon="-1.868748"/><trkpt lat="43.361612" lon="-1.868396"/><trkpt lat="43.361415" lon="-1.868175"/><trkpt lat="43.361252" lon="-1.868114"/><trkpt lat="43.361059" lon="-1.868097"/><trkpt lat="43.360955" lon="-1.868104"/><trkpt lat="43.360836" lon="-1.868025"/><trkpt lat="43.360723" lon="-1.867927"/><trkpt lat="43.360628" lon="-1.867881"/><trkpt lat="43.360317" lon="-1.86745"/><trkpt lat="43.360153" lon="-1.867264"/><trkpt lat="43.360084" lon="-1.867137"/><trkpt lat="43.359968" lon="-1.867038"/><trkpt lat="43.35977" lon="-1.8669"/><trkpt lat="43.359712" lon="-1.866796"/><trkpt lat="43.359644" lon="-1.866704"/><trkpt lat="43.359502" lon="-1.866548"/><trkpt lat="43.359366" lon="-1.866434"/><trkpt lat="43.359159" lon="-1.86639"/><trkpt lat="43.359059" lon="-1.866344"/><trkpt lat="43.358963" lon="-1.866213"/><trkpt lat="43.358899" lon="-1.866169"/><trkpt lat="43.358676" lon="-1.865775"/><trkpt lat="43.358492" lon="-1.865518"/><trkpt lat="43.358376" lon="-1.865427"/><trkpt lat="43.358121" lon="-1.865268"/><trkpt lat="43.357974" lon="-1.865201"/><trkpt lat="43.357676" lon="-1.864964"/><trkpt lat="43.357525" lon="-1.864795"/><trkpt lat="43.357588" lon="-1.864729"/><trkpt lat="43.357517" lon="-1.86462"/><trkpt lat="43.357141" lon="-1.864175"/><trkpt lat="43.356943" lon="-1.864021"/><trkpt lat="43.356767" lon="-1.863853"/><trkpt lat="43.356631" lon="-1.863737"/><trkpt lat="43.356465" lon="-1.863623"/><trkpt lat="43.356382" lon="-1.863596"/><trkpt lat="43.356328" lon="-1.863591"/><trkpt lat="43.35621" lon="-1.863593"/><trkpt lat="43.356042" lon="-1.863575"/><trkpt lat="43.355638" lon="-1.863488"/><trkpt lat="43.355531" lon="-1.863455"/><trkpt lat="43.355301" lon="-1.863416"/><trkpt lat="43.355153" lon="-1.863367"/><trkpt lat="43.355128" lon="-1.863356"/><trkpt lat="43.354707" lon="-1.863164"/><trkpt lat="43.354587" lon="-1.863099"/><trkpt lat="43.354473" lon="-1.862987"/><trkpt lat="43.354166" lon="-1.862787"/><trkpt lat="43.353818" lon="-1.862516"/><trkpt lat="43.353692" lon="-1.862405"/><trkpt lat="43.353608" lon="-1.862351"/><trkpt lat="43.353527" lon="-1.862332"/><trkpt lat="43.353327" lon="-1.862218"/><trkpt lat="43.353115" lon="-1.86212"/><trkpt lat="43.353052" lon="-1.862067"/><trkpt lat="43.352781" lon="-1.862002"/><trkpt lat="43.352665" lon="-1.861941"/><trkpt lat="43.352568" lon="-1.861941"/><trkpt lat="43.352497" lon="-1.861909"/><trkpt lat="43.352336" lon="-1.861747"/><trkpt lat="43.352191" lon="-1.86169"/><trkpt lat="43.351984" lon="-1.861589"/><trkpt lat="43.351785" lon="-1.86142"/><trkpt lat="43.351582" lon="-1.861327"/><trkpt lat="43.351338" lon="-1.861191"/><trkpt lat="43.35121" lon="-1.861085"/><trkpt lat="43.351099" lon="-1.861064"/><trkpt lat="43.351022" lon="-1.861037"/><trkpt lat="43.350934" lon="-1.861033"/><trkpt lat="43.350554" lon="-1.861071"/><trkpt lat="43.350456" lon="-1.861101"/><trkpt lat="43.350416" lon="-1.861063"/><trkpt lat="43.350403" lon="-1.861008"/><trkpt lat="43.350373" lon="-1.860968"/><trkpt lat="43.350327" lon="-1.86095"/><trkpt lat="43.350245" lon="-1.860962"/><trkpt lat="43.350209" lon="-1.860956"/><trkpt lat="43.350177" lon="-1.860921"/><trkpt lat="43.35014" lon="-1.860862"/><trkpt lat="43.350109" lon="-1.860846"/><trkpt lat="43.350042" lon="-1.860836"/><trkpt lat="43.349961" lon="-1.860789"/><trkpt lat="43.34969" lon="-1.860663"/><trkpt lat="43.349464" lon="-1.860586"/><trkpt lat="43.34938" lon="-1.860545"/><trkpt lat="43.349275" lon="-1.860456"/><trkpt lat="43.349149" lon="-1.860332"/><trkpt lat="43.349002" lon="-1.860216"/><trkpt lat="43.348869" lon="-1.860153"/><trkpt lat="43.348833" lon="-1.86011"/><trkpt lat="43.348804" lon="-1.860059"/><trkpt lat="43.348765" lon="-1.859962"/><trkpt lat="43.348731" lon="-1.859911"/><trkpt lat="43.348669" lon="-1.859854"/><trkpt lat="43.348636" lon="-1.859795"/><trkpt lat="43.348631" lon="-1.859718"/><trkpt lat="43.348637" lon="-1.859648"/><trkpt lat="43.348578" lon="-1.85969"/><trkpt lat="43.348509" lon="-1.859648"/><trkpt lat="43.348413" lon="-1.859568"/><trkpt lat="43.348308" lon="-1.859384"/><trkpt lat="43.348241" lon="-1.859304"/><trkpt lat="43.348202" lon="-1.859236"/><trkpt lat="43.348098" lon="-1.859092"/><trkpt lat="43.347943" lon="-1.858847"/><trkpt lat="43.347894" lon="-1.858793"/><trkpt lat="43.347842" lon="-1.858752"/><trkpt lat="43.347755" lon="-1.858567"/><trkpt lat="43.347651" lon="-1.858559"/><trkpt lat="43.347628" lon="-1.858543"/><trkpt lat="43.347661" lon="-1.858483"/><trkpt lat="43.347676" lon="-1.858412"/><trkpt lat="43.347681" lon="-1.85837"/><trkpt lat="43.347678" lon="-1.858315"/><trkpt lat="43.347667" lon="-1.858272"/><trkpt lat="43.347629" lon="-1.858196"/><trkpt lat="43.347397" lon="-1.857916"/><trkpt lat="43.347293" lon="-1.857774"/><trkpt lat="43.34725" lon="-1.857687"/><trkpt lat="43.347233" lon="-1.857578"/><trkpt lat="43.347244" lon="-1.857456"/><trkpt lat="43.347439" lon="-1.856631"/><trkpt lat="43.347977" lon="-1.85545"/></trkseg></trk></gpx>