<?xml version="1.0" encoding="UTF-8"?><kml xmlns="http://www.opengis.net/kml/2.2"><Document><name>Jaizkibel · цветные скалы долины Labetxu</name><description>Планировочная реконструкция по OpenStreetMap, 14.09.2026. Не запись GPS и не проверенный навигационный трек. Высоты не экспортированы. Данные © OpenStreetMap contributors, ODbL. Автопереезды и канатки в пеший трек не включены.</description><Style id="track"><LineStyle><color>ff798519</color><width>4</width></LineStyle></Style><Placemark><name>Jaizkibel · стоянка у горной дороги</name><Point><coordinates>-1.855485,43.34802</coordinates></Point></Placemark><Placemark><name>Jaizkibel · спуск к океану</name><Point><coordinates>-1.8643,43.3549</coordinates></Point></Placemark><Placemark><name>Labetxu · долина цветных скал</name><Point><coordinates>-1.871177,43.363878</coordinates></Point></Placemark><Placemark><name>Jaizkibel · цветные скалы долины Labetxu</name><description>Планировочная реконструкция по OpenStreetMap, 14.09.2026. Не запись GPS и не проверенный навигационный трек. Высоты не экспортированы. Данные © OpenStreetMap contributors, ODbL. Автопереезды и канатки в пеший трек не включены.</description><styleUrl>#track</styleUrl><LineString><tessellate>1</tessellate><altitudeMode>clampToGround</altitudeMode><coordinates>-1.85545,43.347977,0 -1.856631,43.347439,0 -1.857456,43.347244,0 -1.857578,43.347233,0 -1.857687,43.34725,0 -1.857774,43.347293,0 -1.857916,43.347397,0 -1.858196,43.347629,0 -1.858272,43.347667,0 -1.858315,43.347678,0 -1.85837,43.347681,0 -1.858412,43.347676,0 -1.858483,43.347661,0 -1.858543,43.347628,0 -1.858559,43.347651,0 -1.858567,43.347755,0 -1.858752,43.347842,0 -1.858793,43.347894,0 -1.858847,43.347943,0 -1.859092,43.348098,0 -1.859236,43.348202,0 -1.859304,43.348241,0 -1.859384,43.348308,0 -1.859568,43.348413,0 -1.859648,43.348509,0 -1.85969,43.348578,0 -1.859648,43.348637,0 -1.859718,43.348631,0 -1.859795,43.348636,0 -1.859854,43.348669,0 -1.859911,43.348731,0 -1.859962,43.348765,0 -1.860059,43.348804,0 -1.86011,43.348833,0 -1.860153,43.348869,0 -1.860216,43.349002,0 -1.860332,43.349149,0 -1.860456,43.349275,0 -1.860545,43.34938,0 -1.860586,43.349464,0 -1.860663,43.34969,0 -1.860789,43.349961,0 -1.860836,43.350042,0 -1.860846,43.350109,0 -1.860862,43.35014,0 -1.860921,43.350177,0 -1.860956,43.350209,0 -1.860962,43.350245,0 -1.86095,43.350327,0 -1.860968,43.350373,0 -1.861008,43.350403,0 -1.861063,43.350416,0 -1.861101,43.350456,0 -1.861071,43.350554,0 -1.861033,43.350934,0 -1.861037,43.351022,0 -1.861064,43.351099,0 -1.861085,43.35121,0 -1.861191,43.351338,0 -1.861327,43.351582,0 -1.86142,43.351785,0 -1.861589,43.351984,0 -1.86169,43.352191,0 -1.861747,43.352336,0 -1.861909,43.352497,0 -1.861941,43.352568,0 -1.861941,43.352665,0 -1.862002,43.352781,0 -1.862067,43.353052,0 -1.86212,43.353115,0 -1.862218,43.353327,0 -1.862332,43.353527,0 -1.862351,43.353608,0 -1.862405,43.353692,0 -1.862516,43.353818,0 -1.862787,43.354166,0 -1.862987,43.354473,0 -1.863099,43.354587,0 -1.863164,43.354707,0 -1.863356,43.355128,0 -1.863367,43.355153,0 -1.863416,43.355301,0 -1.863455,43.355531,0 -1.863488,43.355638,0 -1.863575,43.356042,0 -1.863593,43.35621,0 -1.863591,43.356328,0 -1.863596,43.356382,0 -1.863623,43.356465,0 -1.863737,43.356631,0 -1.863853,43.356767,0 -1.864021,43.356943,0 -1.864175,43.357141,0 -1.86462,43.357517,0 -1.864729,43.357588,0 -1.864795,43.357525,0 -1.864964,43.357676,0 -1.865201,43.357974,0 -1.865268,43.358121,0 -1.865427,43.358376,0 -1.865518,43.358492,0 -1.865775,43.358676,0 -1.866169,43.358899,0 -1.866213,43.358963,0 -1.866344,43.359059,0 -1.86639,43.359159,0 -1.866434,43.359366,0 -1.866548,43.359502,0 -1.866704,43.359644,0 -1.866796,43.359712,0 -1.8669,43.35977,0 -1.867038,43.359968,0 -1.867137,43.360084,0 -1.867264,43.360153,0 -1.86745,43.360317,0 -1.867881,43.360628,0 -1.867927,43.360723,0 -1.868025,43.360836,0 -1.868104,43.360955,0 -1.868097,43.361059,0 -1.868114,43.361252,0 -1.868175,43.361415,0 -1.868396,43.361612,0 -1.868748,43.361884,0 -1.868885,43.362048,0 -1.869084,43.362266,0 -1.869281,43.36246,0 -1.869415,43.362576,0 -1.869569,43.362663,0 -1.869587,43.362726,0 -1.869646,43.362805,0 -1.86973,43.362872,0 -1.869818,43.362916,0 -1.86989,43.362921,0 -1.869945,43.362937,0 -1.869985,43.36296,0 -1.870092,43.363078,0 -1.870158,43.363175,0 -1.870263,43.36323,0 -1.870383,43.363239,0 -1.870469,43.363282,0 -1.870546,43.363346,0 -1.870638,43.3634,0 -1.870659,43.363415,0 -1.8708,43.363444,0 -1.87093,43.363509,0 -1.871162,43.363639,0 -1.871308,43.363677,0 -1.87136,43.363703,0 -1.871401,43.363737,0 -1.87136,43.363703,0 -1.871308,43.363677,0 -1.871162,43.363639,0 -1.87093,43.363509,0 -1.8708,43.363444,0 -1.870659,43.363415,0 -1.870638,43.3634,0 -1.870546,43.363346,0 -1.870469,43.363282,0 -1.870383,43.363239,0 -1.870263,43.36323,0 -1.870158,43.363175,0 -1.870092,43.363078,0 -1.869985,43.36296,0 -1.869945,43.362937,0 -1.86989,43.362921,0 -1.869818,43.362916,0 -1.86973,43.362872,0 -1.869646,43.362805,0 -1.869587,43.362726,0 -1.869569,43.362663,0 -1.869415,43.362576,0 -1.869281,43.36246,0 -1.869084,43.362266,0 -1.868885,43.362048,0 -1.868748,43.361884,0 -1.868396,43.361612,0 -1.868175,43.361415,0 -1.868114,43.361252,0 -1.868097,43.361059,0 -1.868104,43.360955,0 -1.868025,43.360836,0 -1.867927,43.360723,0 -1.867881,43.360628,0 -1.86745,43.360317,0 -1.867264,43.360153,0 -1.867137,43.360084,0 -1.867038,43.359968,0 -1.8669,43.35977,0 -1.866796,43.359712,0 -1.866704,43.359644,0 -1.866548,43.359502,0 -1.866434,43.359366,0 -1.86639,43.359159,0 -1.866344,43.359059,0 -1.866213,43.358963,0 -1.866169,43.358899,0 -1.865775,43.358676,0 -1.865518,43.358492,0 -1.865427,43.358376,0 -1.865268,43.358121,0 -1.865201,43.357974,0 -1.864964,43.357676,0 -1.864795,43.357525,0 -1.864729,43.357588,0 -1.86462,43.357517,0 -1.864175,43.357141,0 -1.864021,43.356943,0 -1.863853,43.356767,0 -1.863737,43.356631,0 -1.863623,43.356465,0 -1.863596,43.356382,0 -1.863591,43.356328,0 -1.863593,43.35621,0 -1.863575,43.356042,0 -1.863488,43.355638,0 -1.863455,43.355531,0 -1.863416,43.355301,0 -1.863367,43.355153,0 -1.863356,43.355128,0 -1.863164,43.354707,0 -1.863099,43.354587,0 -1.862987,43.354473,0 -1.862787,43.354166,0 -1.862516,43.353818,0 -1.862405,43.353692,0 -1.862351,43.353608,0 -1.862332,43.353527,0 -1.862218,43.353327,0 -1.86212,43.353115,0 -1.862067,43.353052,0 -1.862002,43.352781,0 -1.861941,43.352665,0 -1.861941,43.352568,0 -1.861909,43.352497,0 -1.861747,43.352336,0 -1.86169,43.352191,0 -1.861589,43.351984,0 -1.86142,43.351785,0 -1.861327,43.351582,0 -1.861191,43.351338,0 -1.861085,43.35121,0 -1.861064,43.351099,0 -1.861037,43.351022,0 -1.861033,43.350934,0 -1.861071,43.350554,0 -1.861101,43.350456,0 -1.861063,43.350416,0 -1.861008,43.350403,0 -1.860968,43.350373,0 -1.86095,43.350327,0 -1.860962,43.350245,0 -1.860956,43.350209,0 -1.860921,43.350177,0 -1.860862,43.35014,0 -1.860846,43.350109,0 -1.860836,43.350042,0 -1.860789,43.349961,0 -1.860663,43.34969,0 -1.860586,43.349464,0 -1.860545,43.34938,0 -1.860456,43.349275,0 -1.860332,43.349149,0 -1.860216,43.349002,0 -1.860153,43.348869,0 -1.86011,43.348833,0 -1.860059,43.348804,0 -1.859962,43.348765,0 -1.859911,43.348731,0 -1.859854,43.348669,0 -1.859795,43.348636,0 -1.859718,43.348631,0 -1.859648,43.348637,0 -1.85969,43.348578,0 -1.859648,43.348509,0 -1.859568,43.348413,0 -1.859384,43.348308,0 -1.859304,43.348241,0 -1.859236,43.348202,0 -1.859092,43.348098,0 -1.858847,43.347943,0 -1.858793,43.347894,0 -1.858752,43.347842,0 -1.858567,43.347755,0 -1.858559,43.347651,0 -1.858543,43.347628,0 -1.858483,43.347661,0 -1.858412,43.347676,0 -1.85837,43.347681,0 -1.858315,43.347678,0 -1.858272,43.347667,0 -1.858196,43.347629,0 -1.857916,43.347397,0 -1.857774,43.347293,0 -1.857687,43.34725,0 -1.857578,43.347233,0 -1.857456,43.347244,0 -1.856631,43.347439,0 -1.85545,43.347977,0</coordinates></LineString></Placemark></Document></kml>