<?xml version="1.0" encoding="UTF-8"?><kml xmlns="http://www.opengis.net/kml/2.2"><Document><name>Ulia — Pasaia · морские утёсы и маяк</name><description>Планировочная реконструкция по OpenStreetMap, 14.09.2026. Не запись GPS и не проверенный навигационный трек. Высоты не экспортированы. Данные © OpenStreetMap contributors, ODbL. Автопереезды и канатки в пеший трек не включены.</description><Style id="track"><LineStyle><color>ff924c91</color><width>4</width></LineStyle></Style><Placemark><name>Kursaal · парковка у пляжа</name><Point><coordinates>-1.977105,43.324799</coordinates></Point></Placemark><Placemark><name>Ulia · смотровая на город</name><Point><coordinates>-1.96761,43.328764</coordinates></Point></Placemark><Placemark><name>La Plata · маяк над утёсом</name><Point><coordinates>-1.937841,43.33286</coordinates></Point></Placemark><Placemark><name>Pasaia San Pedro · гавань</name><Point><coordinates>-1.9253,43.3256</coordinates></Point></Placemark><Placemark><name>Ulia — Pasaia · морские утёсы и маяк</name><description>Планировочная реконструкция по OpenStreetMap, 14.09.2026. Не запись GPS и не проверенный навигационный трек. Высоты не экспортированы. Данные © OpenStreetMap contributors, ODbL. Автопереезды и канатки в пеший трек не включены.</description><styleUrl>#track</styleUrl><LineString><tessellate>1</tessellate><altitudeMode>clampToGround</altitudeMode><coordinates>-1.977105,43.324799,0 -1.976726,43.324904,0 -1.976595,43.324916,0 -1.976466,43.325121,0 -1.976177,43.325224,0 -1.975252,43.325556,0 -1.974831,43.325693,0 -1.974258,43.32586,0 -1.974114,43.325876,0 -1.974007,43.325899,0 -1.972883,43.326313,0 -1.972464,43.326475,0 -1.972154,43.326654,0 -1.971997,43.326761,0 -1.971918,43.326737,0 -1.971681,43.326687,0 -1.971518,43.326547,0 -1.971447,43.326481,0 -1.97136,43.326365,0 -1.971168,43.326217,0 -1.97095,43.32606,0 -1.970929,43.32609,0 -1.970841,43.326223,0 -1.970787,43.326234,0 -1.97043,43.326387,0 -1.970348,43.326422,0 -1.97031,43.326439,0 -1.970224,43.326478,0 -1.969978,43.326647,0 -1.969921,43.326692,0 -1.96983,43.326748,0 -1.969744,43.326777,0 -1.969646,43.326846,0 -1.969557,43.326922,0 -1.969418,43.327038,0 -1.969335,43.327153,0 -1.969236,43.327354,0 -1.969131,43.327505,0 -1.969029,43.327635,0 -1.968919,43.327796,0 -1.968865,43.327856,0 -1.968815,43.3279,0 -1.968755,43.327921,0 -1.968679,43.327929,0 -1.968506,43.327926,0 -1.968457,43.327934,0 -1.968403,43.327971,0 -1.968365,43.328038,0 -1.96834,43.328192,0 -1.968348,43.328262,0 -1.968353,43.32831,0 -1.968426,43.328633,0 -1.9684,43.328736,0 -1.968372,43.328795,0 -1.96834,43.328824,0 -1.96831,43.32885,0 -1.968246,43.3289,0 -1.96814,43.329014,0 -1.968088,43.329087,0 -1.968032,43.329215,0 -1.967994,43.329275,0 -1.967949,43.329324,0 -1.967887,43.329239,0 -1.967698,43.329069,0 -1.967515,43.328943,0 -1.967473,43.328923,0 -1.96725,43.328822,0 -1.967103,43.328774,0 -1.966915,43.328729,0 -1.966808,43.328724,0 -1.966672,43.328716,0 -1.966393,43.328716,0 -1.966279,43.328762,0 -1.966259,43.32878,0 -1.96627,43.328797,0 -1.966471,43.328866,0 -1.966649,43.32891,0 -1.966836,43.328973,0 -1.966864,43.328986,0 -1.966863,43.328999,0 -1.966841,43.329007,0 -1.966305,43.329024,0 -1.966242,43.329032,0 -1.96615,43.329057,0 -1.966023,43.329069,0 -1.965712,43.328958,0 -1.965533,43.328848,0 -1.965577,43.328978,0 -1.96562,43.329034,0 -1.965744,43.329255,0 -1.965753,43.329305,0 -1.965742,43.329395,0 -1.965579,43.3293,0 -1.964918,43.329007,0 -1.964476,43.328821,0 -1.964223,43.328749,0 -1.963926,43.328787,0 -1.963593,43.328789,0 -1.96327,43.328836,0 -1.96314,43.328845,0 -1.96237,43.328771,0 -1.962228,43.328774,0 -1.962171,43.328789,0 -1.96204,43.328823,0 -1.962011,43.328905,0 -1.961659,43.328824,0 -1.961241,43.328752,0 -1.960795,43.328653,0 -1.960706,43.328641,0 -1.960575,43.328623,0 -1.960155,43.328543,0 -1.96003,43.328573,0 -1.959863,43.328561,0 -1.959838,43.328648,0 -1.959814,43.328718,0 -1.959732,43.328768,0 -1.959567,43.328799,0 -1.959288,43.328817,0 -1.958854,43.328865,0 -1.958559,43.328883,0 -1.958203,43.32893,0 -1.958085,43.32896,0 -1.957922,43.32902,0 -1.957782,43.32908,0 -1.957668,43.329111,0 -1.95744,43.329095,0 -1.957116,43.329033,0 -1.956854,43.329011,0 -1.95655,43.329037,0 -1.956283,43.329035,0 -1.956132,43.329088,0 -1.95606,43.329101,0 -1.95592,43.329101,0 -1.955876,43.329089,0 -1.955761,43.329032,0 -1.955424,43.328922,0 -1.955233,43.328932,0 -1.955152,43.328915,0 -1.955083,43.328912,0 -1.954735,43.32887,0 -1.954647,43.328851,0 -1.954572,43.328826,0 -1.954408,43.328758,0 -1.95425,43.328667,0 -1.954185,43.328636,0 -1.954134,43.32862,0 -1.954085,43.328612,0 -1.953951,43.328623,0 -1.953871,43.328616,0 -1.953635,43.328561,0 -1.953376,43.328479,0 -1.953156,43.328385,0 -1.952917,43.328259,0 -1.952797,43.328171,0 -1.952745,43.328147,0 -1.952671,43.328122,0 -1.952381,43.328056,0 -1.952173,43.327998,0 -1.951899,43.327921,0 -1.95177,43.32787,0 -1.951761,43.327835,0 -1.951691,43.327893,0 -1.951616,43.328028,0 -1.951635,43.328152,0 -1.951665,43.328276,0 -1.95159,43.328409,0 -1.951477,43.328485,0 -1.951441,43.328524,0 -1.951396,43.328595,0 -1.951377,43.328655,0 -1.951313,43.32876,0 -1.951111,43.32895,0 -1.950997,43.329018,0 -1.950752,43.329141,0 -1.950668,43.329197,0 -1.950599,43.329254,0 -1.950503,43.329306,0 -1.950393,43.32935,0 -1.950185,43.329417,0 -1.950061,43.329473,0 -1.949927,43.329522,0 -1.94977,43.329612,0 -1.949729,43.329645,0 -1.949703,43.329669,0 -1.949643,43.329703,0 -1.949523,43.329757,0 -1.949162,43.329869,0 -1.949035,43.329874,0 -1.9488,43.329847,0 -1.948603,43.329811,0 -1.948264,43.329714,0 -1.948142,43.329647,0 -1.948055,43.329565,0 -1.947988,43.329494,0 -1.947875,43.329401,0 -1.947768,43.329198,0 -1.947686,43.329128,0 -1.947585,43.329063,0 -1.947444,43.328942,0 -1.947228,43.328832,0 -1.947135,43.328753,0 -1.947062,43.328671,0 -1.94697,43.328602,0 -1.946826,43.328515,0 -1.946743,43.328586,0 -1.94659,43.328636,0 -1.946564,43.32866,0 -1.946541,43.328753,0 -1.946521,43.328786,0 -1.946478,43.328811,0 -1.946415,43.328822,0 -1.946381,43.328843,0 -1.946363,43.328875,0 -1.946315,43.328863,0 -1.946235,43.328864,0 -1.946092,43.328812,0 -1.945922,43.328662,0 -1.945807,43.32865,0 -1.945732,43.328666,0 -1.945647,43.328713,0 -1.94561,43.328793,0 -1.945528,43.328882,0 -1.945454,43.32905,0 -1.945315,43.329557,0 -1.945328,43.329732,0 -1.945322,43.329888,0 -1.9453,43.329984,0 -1.945252,43.33006,0 -1.945212,43.330088,0 -1.945148,43.330112,0 -1.945071,43.330124,0 -1.944903,43.330107,0 -1.944681,43.330051,0 -1.944593,43.330037,0 -1.944541,43.330051,0 -1.944521,43.330076,0 -1.944485,43.330318,0 -1.944452,43.330404,0 -1.9444,43.330459,0 -1.944344,43.330489,0 -1.944284,43.330509,0 -1.944164,43.330532,0 -1.944005,43.330546,0 -1.943878,43.330572,0 -1.943835,43.330617,0 -1.943838,43.330789,0 -1.94383,43.330832,0 -1.943803,43.330863,0 -1.943751,43.330903,0 -1.943499,43.331019,0 -1.943441,43.331071,0 -1.943423,43.331133,0 -1.94342,43.331195,0 -1.943393,43.33129,0 -1.943325,43.331396,0 -1.943192,43.331512,0 -1.943028,43.331635,0 -1.942923,43.331673,0 -1.942315,43.331821,0 -1.942276,43.331856,0 -1.942264,43.331935,0 -1.942263,43.332032,0 -1.942235,43.332102,0 -1.942182,43.332171,0 -1.942048,43.332284,0 -1.941912,43.332444,0 -1.941796,43.332543,0 -1.94166,43.332644,0 -1.941503,43.332742,0 -1.941395,43.332819,0 -1.94122,43.332964,0 -1.941162,43.333025,0 -1.941058,43.333094,0 -1.940883,43.333159,0 -1.940804,43.333177,0 -1.940756,43.333188,0 -1.94056,43.333254,0 -1.940442,43.333275,0 -1.940347,43.333254,0 -1.940264,43.333218,0 -1.940206,43.333184,0 -1.940153,43.333131,0 -1.940088,43.333034,0 -1.939985,43.332909,0 -1.939936,43.33289,0 -1.939905,43.332902,0 -1.939786,43.33308,0 -1.939725,43.333154,0 -1.939614,43.333211,0 -1.939547,43.333229,0 -1.93945,43.333226,0 -1.939153,43.333175,0 -1.938387,43.333111,0 -1.938326,43.333094,0 -1.938254,43.333057,0 -1.938137,43.33297,0 -1.938109,43.332913,0 -1.938075,43.332815,0 -1.93803,43.33269,0 -1.93799,43.332608,0 -1.937954,43.332588,0 -1.937897,43.332587,0 -1.93783,43.332602,0 -1.937577,43.332687,0 -1.937469,43.332687,0 -1.937338,43.332629,0 -1.937188,43.33254,0 -1.937005,43.332407,0 -1.93689,43.332289,0 -1.936845,43.332177,0 -1.936796,43.332111,0 -1.936692,43.332055,0 -1.936601,43.332025,0 -1.936529,43.332012,0 -1.936513,43.332014,0 -1.936456,43.332021,0 -1.936376,43.332067,0 -1.936323,43.332123,0 -1.936324,43.332176,0 -1.936347,43.332208,0 -1.936395,43.332452,0 -1.936394,43.332502,0 -1.936377,43.332557,0 -1.936332,43.332602,0 -1.936254,43.332646,0 -1.936044,43.332847,0 -1.935961,43.332958,0 -1.935891,43.333031,0 -1.93571,43.333159,0 -1.935618,43.333213,0 -1.935243,43.333313,0 -1.935131,43.333375,0 -1.935002,43.333398,0 -1.934838,43.333411,0 -1.934701,43.333409,0 -1.934376,43.333425,0 -1.934142,43.333419,0 -1.934038,43.333403,0 -1.933977,43.333221,0 -1.933618,43.332816,0 -1.933535,43.332649,0 -1.93333,43.332397,0 -1.933153,43.332269,0 -1.932778,43.332072,0 -1.932559,43.331883,0 -1.932003,43.331573,0 -1.931847,43.331516,0 -1.931575,43.331399,0 -1.93144,43.331348,0 -1.93134,43.331332,0 -1.931162,43.331327,0 -1.930864,43.331363,0 -1.930658,43.331356,0 -1.930563,43.331327,0 -1.930299,43.331195,0 -1.930083,43.331102,0 -1.929794,43.331015,0 -1.929561,43.330983,0 -1.929244,43.33095,0 -1.929153,43.330931,0 -1.929022,43.330868,0 -1.928926,43.330793,0 -1.928786,43.330633,0 -1.928585,43.330513,0 -1.928305,43.330468,0 -1.928159,43.330438,0 -1.928135,43.330421,0 -1.928073,43.330428,0 -1.927928,43.330426,0 -1.927796,43.330437,0 -1.927544,43.330509,0 -1.927309,43.330589,0 -1.92728,43.330617,0 -1.927293,43.330655,0 -1.927356,43.33073,0 -1.927405,43.330805,0 -1.927396,43.330817,0 -1.927267,43.330818,0 -1.927185,43.330846,0 -1.927168,43.330858,0 -1.927184,43.330875,0 -1.927316,43.330925,0 -1.927365,43.330951,0 -1.927375,43.330969,0 -1.927355,43.330981,0 -1.927261,43.33099,0 -1.927174,43.331017,0 -1.927054,43.331075,0 -1.926903,43.331104,0 -1.926824,43.331126,0 -1.926757,43.331161,0 -1.926702,43.331203,0 -1.926504,43.331446,0 -1.926576,43.331467,0 -1.926588,43.331481,0 -1.926527,43.331533,0 -1.926556,43.331538,0 -1.926655,43.331531,0 -1.926667,43.331553,0 -1.92658,43.331613,0 -1.926466,43.331657,0 -1.926479,43.331665,0 -1.926676,43.331662,0 -1.926671,43.331677,0 -1.926564,43.331712,0 -1.926583,43.331723,0 -1.926733,43.331762,0 -1.926719,43.331784,0 -1.926196,43.331869,0 -1.925889,43.331889,0 -1.925782,43.331884,0 -1.925709,43.331859,0 -1.925677,43.331803,0 -1.925674,43.331126,0 -1.925693,43.33098,0 -1.925678,43.330506,0 -1.925871,43.330042,0 -1.925978,43.329808,0 -1.926051,43.329686,0 -1.926153,43.329553,0 -1.926206,43.32945,0 -1.926223,43.329165,0 -1.926166,43.329124,0 -1.925761,43.329029,0 -1.925614,43.32888,0 -1.925506,43.32884,0 -1.924525,43.328889,0 -1.924331,43.328892,0 -1.924189,43.328866,0 -1.92409,43.328858,0 -1.923791,43.328782,0 -1.923371,43.328494,0 -1.923167,43.328322,0 -1.923143,43.328246,0 -1.923178,43.327969,0 -1.923189,43.32787,0 -1.923078,43.32764,0 -1.922986,43.327457,0 -1.922847,43.327312,0 -1.922703,43.327013,0 -1.922371,43.326911,0 -1.922298,43.326837,0 -1.922291,43.326787,0 -1.922283,43.326735,0 -1.922059,43.326625,0 -1.921903,43.32654,0 -1.921863,43.32649,0 -1.921795,43.326299,0 -1.921926,43.326251,0 -1.921978,43.326213,0 -1.922025,43.326175,0 -1.922089,43.326081,0 -1.922172,43.325935,0 -1.922258,43.32584,0 -1.922456,43.325684,0 -1.922552,43.325618,0 -1.922643,43.325567,0 -1.922854,43.325489,0 -1.922959,43.325467,0 -1.923371,43.32543,0 -1.924319,43.325353,0 -1.924516,43.325398,0 -1.925101,43.325468,0 -1.925322,43.32549,0</coordinates></LineString></Placemark></Document></kml>