<?xml version="1.0" encoding="UTF-8"?><gpx version="1.1" creator="Basque Hikes Atlas" xmlns="http://www.topografix.com/GPX/1/1"><metadata><name>Ulia — Pasaia · морские утёсы и маяк</name><desc>Планировочная реконструкция по OpenStreetMap, 14.09.2026. Не запись GPS и не проверенный навигационный трек. Высоты не экспортированы. Данные © OpenStreetMap contributors, ODbL. Автопереезды и канатки в пеший трек не включены.</desc><link href="https://www.openstreetmap.org/copyright"><text>OpenStreetMap contributors · ODbL</text></link></metadata><wpt lat="43.324799" lon="-1.977105"><name>Kursaal · парковка у пляжа</name></wpt><wpt lat="43.328764" lon="-1.96761"><name>Ulia · смотровая на город</name></wpt><wpt lat="43.33286" lon="-1.937841"><name>La Plata · маяк над утёсом</name></wpt><wpt lat="43.3256" lon="-1.9253"><name>Pasaia San Pedro · гавань</name></wpt><trk><name>Ulia — Pasaia · морские утёсы и маяк</name><desc>Планировочная реконструкция по OpenStreetMap, 14.09.2026. Не запись GPS и не проверенный навигационный трек. Высоты не экспортированы. Данные © OpenStreetMap contributors, ODbL. Автопереезды и канатки в пеший трек не включены.</desc><type>hiking</type><trkseg><trkpt lat="43.324799" lon="-1.977105"/><trkpt lat="43.324904" lon="-1.976726"/><trkpt lat="43.324916" lon="-1.976595"/><trkpt lat="43.325121" lon="-1.976466"/><trkpt lat="43.325224" lon="-1.976177"/><trkpt lat="43.325556" lon="-1.975252"/><trkpt lat="43.325693" lon="-1.974831"/><trkpt lat="43.32586" lon="-1.974258"/><trkpt lat="43.325876" lon="-1.974114"/><trkpt lat="43.325899" lon="-1.974007"/><trkpt lat="43.326313" lon="-1.972883"/><trkpt lat="43.326475" lon="-1.972464"/><trkpt lat="43.326654" lon="-1.972154"/><trkpt lat="43.326761" lon="-1.971997"/><trkpt lat="43.326737" lon="-1.971918"/><trkpt lat="43.326687" lon="-1.971681"/><trkpt lat="43.326547" lon="-1.971518"/><trkpt lat="43.326481" lon="-1.971447"/><trkpt lat="43.326365" lon="-1.97136"/><trkpt lat="43.326217" lon="-1.971168"/><trkpt lat="43.32606" lon="-1.97095"/><trkpt lat="43.32609" lon="-1.970929"/><trkpt lat="43.326223" lon="-1.970841"/><trkpt lat="43.326234" lon="-1.970787"/><trkpt lat="43.326387" lon="-1.97043"/><trkpt lat="43.326422" lon="-1.970348"/><trkpt lat="43.326439" lon="-1.97031"/><trkpt lat="43.326478" lon="-1.970224"/><trkpt lat="43.326647" lon="-1.969978"/><trkpt lat="43.326692" lon="-1.969921"/><trkpt lat="43.326748" lon="-1.96983"/><trkpt lat="43.326777" lon="-1.969744"/><trkpt lat="43.326846" lon="-1.969646"/><trkpt lat="43.326922" lon="-1.969557"/><trkpt lat="43.327038" lon="-1.969418"/><trkpt lat="43.327153" lon="-1.969335"/><trkpt lat="43.327354" lon="-1.969236"/><trkpt lat="43.327505" lon="-1.969131"/><trkpt lat="43.327635" lon="-1.969029"/><trkpt lat="43.327796" lon="-1.968919"/><trkpt lat="43.327856" lon="-1.968865"/><trkpt lat="43.3279" lon="-1.968815"/><trkpt lat="43.327921" lon="-1.968755"/><trkpt lat="43.327929" lon="-1.968679"/><trkpt lat="43.327926" lon="-1.968506"/><trkpt lat="43.327934" lon="-1.968457"/><trkpt lat="43.327971" lon="-1.968403"/><trkpt lat="43.328038" lon="-1.968365"/><trkpt lat="43.328192" lon="-1.96834"/><trkpt lat="43.328262" lon="-1.968348"/><trkpt lat="43.32831" lon="-1.968353"/><trkpt lat="43.328633" lon="-1.968426"/><trkpt lat="43.328736" lon="-1.9684"/><trkpt lat="43.328795" lon="-1.968372"/><trkpt lat="43.328824" lon="-1.96834"/><trkpt lat="43.32885" lon="-1.96831"/><trkpt lat="43.3289" lon="-1.968246"/><trkpt lat="43.329014" lon="-1.96814"/><trkpt lat="43.329087" lon="-1.968088"/><trkpt lat="43.329215" lon="-1.968032"/><trkpt lat="43.329275" lon="-1.967994"/><trkpt lat="43.329324" lon="-1.967949"/><trkpt lat="43.329239" lon="-1.967887"/><trkpt lat="43.329069" lon="-1.967698"/><trkpt lat="43.328943" lon="-1.967515"/><trkpt lat="43.328923" lon="-1.967473"/><trkpt lat="43.328822" lon="-1.96725"/><trkpt lat="43.328774" lon="-1.967103"/><trkpt lat="43.328729" lon="-1.966915"/><trkpt lat="43.328724" lon="-1.966808"/><trkpt lat="43.328716" lon="-1.966672"/><trkpt lat="43.328716" lon="-1.966393"/><trkpt lat="43.328762" lon="-1.966279"/><trkpt lat="43.32878" lon="-1.966259"/><trkpt lat="43.328797" lon="-1.96627"/><trkpt lat="43.328866" lon="-1.966471"/><trkpt lat="43.32891" lon="-1.966649"/><trkpt lat="43.328973" lon="-1.966836"/><trkpt lat="43.328986" lon="-1.966864"/><trkpt lat="43.328999" lon="-1.966863"/><trkpt lat="43.329007" lon="-1.966841"/><trkpt lat="43.329024" lon="-1.966305"/><trkpt lat="43.329032" lon="-1.966242"/><trkpt lat="43.329057" lon="-1.96615"/><trkpt lat="43.329069" lon="-1.966023"/><trkpt lat="43.328958" lon="-1.965712"/><trkpt lat="43.328848" lon="-1.965533"/><trkpt lat="43.328978" lon="-1.965577"/><trkpt lat="43.329034" lon="-1.96562"/><trkpt lat="43.329255" lon="-1.965744"/><trkpt lat="43.329305" lon="-1.965753"/><trkpt lat="43.329395" lon="-1.965742"/><trkpt lat="43.3293" lon="-1.965579"/><trkpt lat="43.329007" lon="-1.964918"/><trkpt lat="43.328821" lon="-1.964476"/><trkpt lat="43.328749" lon="-1.964223"/><trkpt lat="43.328787" lon="-1.963926"/><trkpt lat="43.328789" lon="-1.963593"/><trkpt lat="43.328836" lon="-1.96327"/><trkpt lat="43.328845" lon="-1.96314"/><trkpt lat="43.328771" lon="-1.96237"/><trkpt lat="43.328774" lon="-1.962228"/><trkpt lat="43.328789" lon="-1.962171"/><trkpt lat="43.328823" lon="-1.96204"/><trkpt lat="43.328905" lon="-1.962011"/><trkpt lat="43.328824" lon="-1.961659"/><trkpt lat="43.328752" lon="-1.961241"/><trkpt lat="43.328653" lon="-1.960795"/><trkpt lat="43.328641" lon="-1.960706"/><trkpt lat="43.328623" lon="-1.960575"/><trkpt lat="43.328543" lon="-1.960155"/><trkpt lat="43.328573" lon="-1.96003"/><trkpt lat="43.328561" lon="-1.959863"/><trkpt lat="43.328648" lon="-1.959838"/><trkpt lat="43.328718" lon="-1.959814"/><trkpt lat="43.328768" lon="-1.959732"/><trkpt lat="43.328799" lon="-1.959567"/><trkpt lat="43.328817" lon="-1.959288"/><trkpt lat="43.328865" lon="-1.958854"/><trkpt lat="43.328883" lon="-1.958559"/><trkpt lat="43.32893" lon="-1.958203"/><trkpt lat="43.32896" lon="-1.958085"/><trkpt lat="43.32902" lon="-1.957922"/><trkpt lat="43.32908" lon="-1.957782"/><trkpt lat="43.329111" lon="-1.957668"/><trkpt lat="43.329095" lon="-1.95744"/><trkpt lat="43.329033" lon="-1.957116"/><trkpt lat="43.329011" lon="-1.956854"/><trkpt lat="43.329037" lon="-1.95655"/><trkpt lat="43.329035" lon="-1.956283"/><trkpt lat="43.329088" lon="-1.956132"/><trkpt lat="43.329101" lon="-1.95606"/><trkpt lat="43.329101" lon="-1.95592"/><trkpt lat="43.329089" lon="-1.955876"/><trkpt lat="43.329032" lon="-1.955761"/><trkpt lat="43.328922" lon="-1.955424"/><trkpt lat="43.328932" lon="-1.955233"/><trkpt lat="43.328915" lon="-1.955152"/><trkpt lat="43.328912" lon="-1.955083"/><trkpt lat="43.32887" lon="-1.954735"/><trkpt lat="43.328851" lon="-1.954647"/><trkpt lat="43.328826" lon="-1.954572"/><trkpt lat="43.328758" lon="-1.954408"/><trkpt lat="43.328667" lon="-1.95425"/><trkpt lat="43.328636" lon="-1.954185"/><trkpt lat="43.32862" lon="-1.954134"/><trkpt lat="43.328612" lon="-1.954085"/><trkpt lat="43.328623" lon="-1.953951"/><trkpt lat="43.328616" lon="-1.953871"/><trkpt lat="43.328561" lon="-1.953635"/><trkpt lat="43.328479" lon="-1.953376"/><trkpt lat="43.328385" lon="-1.953156"/><trkpt lat="43.328259" lon="-1.952917"/><trkpt lat="43.328171" lon="-1.952797"/><trkpt lat="43.328147" lon="-1.952745"/><trkpt lat="43.328122" lon="-1.952671"/><trkpt lat="43.328056" lon="-1.952381"/><trkpt lat="43.327998" lon="-1.952173"/><trkpt lat="43.327921" lon="-1.951899"/><trkpt lat="43.32787" lon="-1.95177"/><trkpt lat="43.327835" lon="-1.951761"/><trkpt lat="43.327893" lon="-1.951691"/><trkpt lat="43.328028" lon="-1.951616"/><trkpt lat="43.328152" lon="-1.951635"/><trkpt lat="43.328276" lon="-1.951665"/><trkpt lat="43.328409" lon="-1.95159"/><trkpt lat="43.328485" lon="-1.951477"/><trkpt lat="43.328524" lon="-1.951441"/><trkpt lat="43.328595" lon="-1.951396"/><trkpt lat="43.328655" lon="-1.951377"/><trkpt lat="43.32876" lon="-1.951313"/><trkpt lat="43.32895" lon="-1.951111"/><trkpt lat="43.329018" lon="-1.950997"/><trkpt lat="43.329141" lon="-1.950752"/><trkpt lat="43.329197" lon="-1.950668"/><trkpt lat="43.329254" lon="-1.950599"/><trkpt lat="43.329306" lon="-1.950503"/><trkpt lat="43.32935" lon="-1.950393"/><trkpt lat="43.329417" lon="-1.950185"/><trkpt lat="43.329473" lon="-1.950061"/><trkpt lat="43.329522" lon="-1.949927"/><trkpt lat="43.329612" lon="-1.94977"/><trkpt lat="43.329645" lon="-1.949729"/><trkpt lat="43.329669" lon="-1.949703"/><trkpt lat="43.329703" lon="-1.949643"/><trkpt lat="43.329757" lon="-1.949523"/><trkpt lat="43.329869" lon="-1.949162"/><trkpt lat="43.329874" lon="-1.949035"/><trkpt lat="43.329847" lon="-1.9488"/><trkpt lat="43.329811" lon="-1.948603"/><trkpt lat="43.329714" lon="-1.948264"/><trkpt lat="43.329647" lon="-1.948142"/><trkpt lat="43.329565" lon="-1.948055"/><trkpt lat="43.329494" lon="-1.947988"/><trkpt lat="43.329401" lon="-1.947875"/><trkpt lat="43.329198" lon="-1.947768"/><trkpt lat="43.329128" lon="-1.947686"/><trkpt lat="43.329063" lon="-1.947585"/><trkpt lat="43.328942" lon="-1.947444"/><trkpt lat="43.328832" lon="-1.947228"/><trkpt lat="43.328753" lon="-1.947135"/><trkpt lat="43.328671" lon="-1.947062"/><trkpt lat="43.328602" lon="-1.94697"/><trkpt lat="43.328515" lon="-1.946826"/><trkpt lat="43.328586" lon="-1.946743"/><trkpt lat="43.328636" lon="-1.94659"/><trkpt lat="43.32866" lon="-1.946564"/><trkpt lat="43.328753" lon="-1.946541"/><trkpt lat="43.328786" lon="-1.946521"/><trkpt lat="43.328811" lon="-1.946478"/><trkpt lat="43.328822" lon="-1.946415"/><trkpt lat="43.328843" lon="-1.946381"/><trkpt lat="43.328875" lon="-1.946363"/><trkpt lat="43.328863" lon="-1.946315"/><trkpt lat="43.328864" lon="-1.946235"/><trkpt lat="43.328812" lon="-1.946092"/><trkpt lat="43.328662" lon="-1.945922"/><trkpt lat="43.32865" lon="-1.945807"/><trkpt lat="43.328666" lon="-1.945732"/><trkpt lat="43.328713" lon="-1.945647"/><trkpt lat="43.328793" lon="-1.94561"/><trkpt lat="43.328882" lon="-1.945528"/><trkpt lat="43.32905" lon="-1.945454"/><trkpt lat="43.329557" lon="-1.945315"/><trkpt lat="43.329732" lon="-1.945328"/><trkpt lat="43.329888" lon="-1.945322"/><trkpt lat="43.329984" lon="-1.9453"/><trkpt lat="43.33006" lon="-1.945252"/><trkpt lat="43.330088" lon="-1.945212"/><trkpt lat="43.330112" lon="-1.945148"/><trkpt lat="43.330124" lon="-1.945071"/><trkpt lat="43.330107" lon="-1.944903"/><trkpt lat="43.330051" lon="-1.944681"/><trkpt lat="43.330037" lon="-1.944593"/><trkpt lat="43.330051" lon="-1.944541"/><trkpt lat="43.330076" lon="-1.944521"/><trkpt lat="43.330318" lon="-1.944485"/><trkpt lat="43.330404" lon="-1.944452"/><trkpt lat="43.330459" lon="-1.9444"/><trkpt lat="43.330489" lon="-1.944344"/><trkpt lat="43.330509" lon="-1.944284"/><trkpt lat="43.330532" lon="-1.944164"/><trkpt lat="43.330546" lon="-1.944005"/><trkpt lat="43.330572" lon="-1.943878"/><trkpt lat="43.330617" lon="-1.943835"/><trkpt lat="43.330789" lon="-1.943838"/><trkpt lat="43.330832" lon="-1.94383"/><trkpt lat="43.330863" lon="-1.943803"/><trkpt lat="43.330903" lon="-1.943751"/><trkpt lat="43.331019" lon="-1.943499"/><trkpt lat="43.331071" lon="-1.943441"/><trkpt lat="43.331133" lon="-1.943423"/><trkpt lat="43.331195" lon="-1.94342"/><trkpt lat="43.33129" lon="-1.943393"/><trkpt lat="43.331396" lon="-1.943325"/><trkpt lat="43.331512" lon="-1.943192"/><trkpt lat="43.331635" lon="-1.943028"/><trkpt lat="43.331673" lon="-1.942923"/><trkpt lat="43.331821" lon="-1.942315"/><trkpt lat="43.331856" lon="-1.942276"/><trkpt lat="43.331935" lon="-1.942264"/><trkpt lat="43.332032" lon="-1.942263"/><trkpt lat="43.332102" lon="-1.942235"/><trkpt lat="43.332171" lon="-1.942182"/><trkpt lat="43.332284" lon="-1.942048"/><trkpt lat="43.332444" lon="-1.941912"/><trkpt lat="43.332543" lon="-1.941796"/><trkpt lat="43.332644" lon="-1.94166"/><trkpt lat="43.332742" lon="-1.941503"/><trkpt lat="43.332819" lon="-1.941395"/><trkpt lat="43.332964" lon="-1.94122"/><trkpt lat="43.333025" lon="-1.941162"/><trkpt lat="43.333094" lon="-1.941058"/><trkpt lat="43.333159" lon="-1.940883"/><trkpt lat="43.333177" lon="-1.940804"/><trkpt lat="43.333188" lon="-1.940756"/><trkpt lat="43.333254" lon="-1.94056"/><trkpt lat="43.333275" lon="-1.940442"/><trkpt lat="43.333254" lon="-1.940347"/><trkpt lat="43.333218" lon="-1.940264"/><trkpt lat="43.333184" lon="-1.940206"/><trkpt lat="43.333131" lon="-1.940153"/><trkpt lat="43.333034" lon="-1.940088"/><trkpt lat="43.332909" lon="-1.939985"/><trkpt lat="43.33289" lon="-1.939936"/><trkpt lat="43.332902" lon="-1.939905"/><trkpt lat="43.33308" lon="-1.939786"/><trkpt lat="43.333154" lon="-1.939725"/><trkpt lat="43.333211" lon="-1.939614"/><trkpt lat="43.333229" lon="-1.939547"/><trkpt lat="43.333226" lon="-1.93945"/><trkpt lat="43.333175" lon="-1.939153"/><trkpt lat="43.333111" lon="-1.938387"/><trkpt lat="43.333094" lon="-1.938326"/><trkpt lat="43.333057" lon="-1.938254"/><trkpt lat="43.33297" lon="-1.938137"/><trkpt lat="43.332913" lon="-1.938109"/><trkpt lat="43.332815" lon="-1.938075"/><trkpt lat="43.33269" lon="-1.93803"/><trkpt lat="43.332608" lon="-1.93799"/><trkpt lat="43.332588" lon="-1.937954"/><trkpt lat="43.332587" lon="-1.937897"/><trkpt lat="43.332602" lon="-1.93783"/><trkpt lat="43.332687" lon="-1.937577"/><trkpt lat="43.332687" lon="-1.937469"/><trkpt lat="43.332629" lon="-1.937338"/><trkpt lat="43.33254" lon="-1.937188"/><trkpt lat="43.332407" lon="-1.937005"/><trkpt lat="43.332289" lon="-1.93689"/><trkpt lat="43.332177" lon="-1.936845"/><trkpt lat="43.332111" lon="-1.936796"/><trkpt lat="43.332055" lon="-1.936692"/><trkpt lat="43.332025" lon="-1.936601"/><trkpt lat="43.332012" lon="-1.936529"/><trkpt lat="43.332014" lon="-1.936513"/><trkpt lat="43.332021" lon="-1.936456"/><trkpt lat="43.332067" lon="-1.936376"/><trkpt lat="43.332123" lon="-1.936323"/><trkpt lat="43.332176" lon="-1.936324"/><trkpt lat="43.332208" lon="-1.936347"/><trkpt lat="43.332452" lon="-1.936395"/><trkpt lat="43.332502" lon="-1.936394"/><trkpt lat="43.332557" lon="-1.936377"/><trkpt lat="43.332602" lon="-1.936332"/><trkpt lat="43.332646" lon="-1.936254"/><trkpt lat="43.332847" lon="-1.936044"/><trkpt lat="43.332958" lon="-1.935961"/><trkpt lat="43.333031" lon="-1.935891"/><trkpt lat="43.333159" lon="-1.93571"/><trkpt lat="43.333213" lon="-1.935618"/><trkpt lat="43.333313" lon="-1.935243"/><trkpt lat="43.333375" lon="-1.935131"/><trkpt lat="43.333398" lon="-1.935002"/><trkpt lat="43.333411" lon="-1.934838"/><trkpt lat="43.333409" lon="-1.934701"/><trkpt lat="43.333425" lon="-1.934376"/><trkpt lat="43.333419" lon="-1.934142"/><trkpt lat="43.333403" lon="-1.934038"/><trkpt lat="43.333221" lon="-1.933977"/><trkpt lat="43.332816" lon="-1.933618"/><trkpt lat="43.332649" lon="-1.933535"/><trkpt lat="43.332397" lon="-1.93333"/><trkpt lat="43.332269" lon="-1.933153"/><trkpt lat="43.332072" lon="-1.932778"/><trkpt lat="43.331883" lon="-1.932559"/><trkpt lat="43.331573" lon="-1.932003"/><trkpt lat="43.331516" lon="-1.931847"/><trkpt lat="43.331399" lon="-1.931575"/><trkpt lat="43.331348" lon="-1.93144"/><trkpt lat="43.331332" lon="-1.93134"/><trkpt lat="43.331327" lon="-1.931162"/><trkpt lat="43.331363" lon="-1.930864"/><trkpt lat="43.331356" lon="-1.930658"/><trkpt lat="43.331327" lon="-1.930563"/><trkpt lat="43.331195" lon="-1.930299"/><trkpt lat="43.331102" lon="-1.930083"/><trkpt lat="43.331015" lon="-1.929794"/><trkpt lat="43.330983" lon="-1.929561"/><trkpt lat="43.33095" lon="-1.929244"/><trkpt lat="43.330931" lon="-1.929153"/><trkpt lat="43.330868" lon="-1.929022"/><trkpt lat="43.330793" lon="-1.928926"/><trkpt lat="43.330633" lon="-1.928786"/><trkpt lat="43.330513" lon="-1.928585"/><trkpt lat="43.330468" lon="-1.928305"/><trkpt lat="43.330438" lon="-1.928159"/><trkpt lat="43.330421" lon="-1.928135"/><trkpt lat="43.330428" lon="-1.928073"/><trkpt lat="43.330426" lon="-1.927928"/><trkpt lat="43.330437" lon="-1.927796"/><trkpt lat="43.330509" lon="-1.927544"/><trkpt lat="43.330589" lon="-1.927309"/><trkpt lat="43.330617" lon="-1.92728"/><trkpt lat="43.330655" lon="-1.927293"/><trkpt lat="43.33073" lon="-1.927356"/><trkpt lat="43.330805" lon="-1.927405"/><trkpt lat="43.330817" lon="-1.927396"/><trkpt lat="43.330818" lon="-1.927267"/><trkpt lat="43.330846" lon="-1.927185"/><trkpt lat="43.330858" lon="-1.927168"/><trkpt lat="43.330875" lon="-1.927184"/><trkpt lat="43.330925" lon="-1.927316"/><trkpt lat="43.330951" lon="-1.927365"/><trkpt lat="43.330969" lon="-1.927375"/><trkpt lat="43.330981" lon="-1.927355"/><trkpt lat="43.33099" lon="-1.927261"/><trkpt lat="43.331017" lon="-1.927174"/><trkpt lat="43.331075" lon="-1.927054"/><trkpt lat="43.331104" lon="-1.926903"/><trkpt lat="43.331126" lon="-1.926824"/><trkpt lat="43.331161" lon="-1.926757"/><trkpt lat="43.331203" lon="-1.926702"/><trkpt lat="43.331446" lon="-1.926504"/><trkpt lat="43.331467" lon="-1.926576"/><trkpt lat="43.331481" lon="-1.926588"/><trkpt lat="43.331533" lon="-1.926527"/><trkpt lat="43.331538" lon="-1.926556"/><trkpt lat="43.331531" lon="-1.926655"/><trkpt lat="43.331553" lon="-1.926667"/><trkpt lat="43.331613" lon="-1.92658"/><trkpt lat="43.331657" lon="-1.926466"/><trkpt lat="43.331665" lon="-1.926479"/><trkpt lat="43.331662" lon="-1.926676"/><trkpt lat="43.331677" lon="-1.926671"/><trkpt lat="43.331712" lon="-1.926564"/><trkpt lat="43.331723" lon="-1.926583"/><trkpt lat="43.331762" lon="-1.926733"/><trkpt lat="43.331784" lon="-1.926719"/><trkpt lat="43.331869" lon="-1.926196"/><trkpt lat="43.331889" lon="-1.925889"/><trkpt lat="43.331884" lon="-1.925782"/><trkpt lat="43.331859" lon="-1.925709"/><trkpt lat="43.331803" lon="-1.925677"/><trkpt lat="43.331126" lon="-1.925674"/><trkpt lat="43.33098" lon="-1.925693"/><trkpt lat="43.330506" lon="-1.925678"/><trkpt lat="43.330042" lon="-1.925871"/><trkpt lat="43.329808" lon="-1.925978"/><trkpt lat="43.329686" lon="-1.926051"/><trkpt lat="43.329553" lon="-1.926153"/><trkpt lat="43.32945" lon="-1.926206"/><trkpt lat="43.329165" lon="-1.926223"/><trkpt lat="43.329124" lon="-1.926166"/><trkpt lat="43.329029" lon="-1.925761"/><trkpt lat="43.32888" lon="-1.925614"/><trkpt lat="43.32884" lon="-1.925506"/><trkpt lat="43.328889" lon="-1.924525"/><trkpt lat="43.328892" lon="-1.924331"/><trkpt lat="43.328866" lon="-1.924189"/><trkpt lat="43.328858" lon="-1.92409"/><trkpt lat="43.328782" lon="-1.923791"/><trkpt lat="43.328494" lon="-1.923371"/><trkpt lat="43.328322" lon="-1.923167"/><trkpt lat="43.328246" lon="-1.923143"/><trkpt lat="43.327969" lon="-1.923178"/><trkpt lat="43.32787" lon="-1.923189"/><trkpt lat="43.32764" lon="-1.923078"/><trkpt lat="43.327457" lon="-1.922986"/><trkpt lat="43.327312" lon="-1.922847"/><trkpt lat="43.327013" lon="-1.922703"/><trkpt lat="43.326911" lon="-1.922371"/><trkpt lat="43.326837" lon="-1.922298"/><trkpt lat="43.326787" lon="-1.922291"/><trkpt lat="43.326735" lon="-1.922283"/><trkpt lat="43.326625" lon="-1.922059"/><trkpt lat="43.32654" lon="-1.921903"/><trkpt lat="43.32649" lon="-1.921863"/><trkpt lat="43.326299" lon="-1.921795"/><trkpt lat="43.326251" lon="-1.921926"/><trkpt lat="43.326213" lon="-1.921978"/><trkpt lat="43.326175" lon="-1.922025"/><trkpt lat="43.326081" lon="-1.922089"/><trkpt lat="43.325935" lon="-1.922172"/><trkpt lat="43.32584" lon="-1.922258"/><trkpt lat="43.325684" lon="-1.922456"/><trkpt lat="43.325618" lon="-1.922552"/><trkpt lat="43.325567" lon="-1.922643"/><trkpt lat="43.325489" lon="-1.922854"/><trkpt lat="43.325467" lon="-1.922959"/><trkpt lat="43.32543" lon="-1.923371"/><trkpt lat="43.325353" lon="-1.924319"/><trkpt lat="43.325398" lon="-1.924516"/><trkpt lat="43.325468" lon="-1.925101"/><trkpt lat="43.32549" lon="-1.925322"/></trkseg></trk></gpx>