<?xml version="1.0" encoding="UTF-8"?><gpx version="1.1" creator="Basque Hikes Atlas" xmlns="http://www.topografix.com/GPX/1/1"><metadata><name>Gaztelugatxe · часовня на островной скале</name><desc>Планировочная реконструкция по OpenStreetMap, 14.09.2026. Не запись GPS и не проверенный навигационный трек. Высоты не экспортированы. Данные © OpenStreetMap contributors, ODbL. Автопереезды и канатки в пеший трек не включены.</desc><link href="https://www.openstreetmap.org/copyright"><text>OpenStreetMap contributors · ODbL</text></link></metadata><wpt lat="43.439306" lon="-2.783537"><name>Urizarreta · общественная парковка</name></wpt><wpt lat="43.440692" lon="-2.778893"><name>Gaztelugatxe · обзорная площадка</name></wpt><wpt lat="43.4444" lon="-2.783"><name>Каменный мост к островной скале</name></wpt><wpt lat="43.44726" lon="-2.785041"><name>San Juan · часовня на скале</name></wpt><trk><name>Gaztelugatxe · часовня на островной скале</name><desc>Планировочная реконструкция по OpenStreetMap, 14.09.2026. Не запись GPS и не проверенный навигационный трек. Высоты не экспортированы. Данные © OpenStreetMap contributors, ODbL. Автопереезды и канатки в пеший трек не включены.</desc><type>hiking</type><trkseg><trkpt lat="43.439294" lon="-2.783509"/><trkpt lat="43.439312" lon="-2.783497"/><trkpt lat="43.439366" lon="-2.783484"/><trkpt lat="43.439506" lon="-2.783477"/><trkpt lat="43.439559" lon="-2.783465"/><trkpt lat="43.439541" lon="-2.783426"/><trkpt lat="43.439529" lon="-2.783377"/><trkpt lat="43.439576" lon="-2.783369"/><trkpt lat="43.439622" lon="-2.783308"/><trkpt lat="43.43969" lon="-2.78325"/><trkpt lat="43.43979" lon="-2.783202"/><trkpt lat="43.439769" lon="-2.783111"/><trkpt lat="43.439838" lon="-2.783087"/><trkpt lat="43.439899" lon="-2.783065"/><trkpt lat="43.440017" lon="-2.782999"/><trkpt lat="43.440155" lon="-2.782884"/><trkpt lat="43.440182" lon="-2.782941"/><trkpt lat="43.440334" lon="-2.782808"/><trkpt lat="43.440393" lon="-2.782634"/><trkpt lat="43.440412" lon="-2.782477"/><trkpt lat="43.440412" lon="-2.782133"/><trkpt lat="43.440381" lon="-2.781839"/><trkpt lat="43.440335" lon="-2.781288"/><trkpt lat="43.440326" lon="-2.78112"/><trkpt lat="43.44045" lon="-2.78029"/><trkpt lat="43.44048" lon="-2.779941"/><trkpt lat="43.440497" lon="-2.779343"/><trkpt lat="43.440504" lon="-2.779259"/><trkpt lat="43.44067" lon="-2.77891"/><trkpt lat="43.440678" lon="-2.778885"/><trkpt lat="43.440734" lon="-2.778729"/><trkpt lat="43.440772" lon="-2.778647"/><trkpt lat="43.440768" lon="-2.7785"/><trkpt lat="43.441191" lon="-2.77729"/><trkpt lat="43.44133" lon="-2.776925"/><trkpt lat="43.441452" lon="-2.776156"/><trkpt lat="43.441534" lon="-2.775865"/><trkpt lat="43.441784" lon="-2.775269"/><trkpt lat="43.442401" lon="-2.773421"/><trkpt lat="43.442588" lon="-2.772996"/><trkpt lat="43.442681" lon="-2.772094"/><trkpt lat="43.44271" lon="-2.772024"/><trkpt lat="43.442777" lon="-2.771802"/><trkpt lat="43.442848" lon="-2.771595"/><trkpt lat="43.442917" lon="-2.77144"/><trkpt lat="43.442987" lon="-2.771315"/><trkpt lat="43.44318" lon="-2.771098"/><trkpt lat="43.443244" lon="-2.770963"/><trkpt lat="43.443277" lon="-2.770763"/><trkpt lat="43.443326" lon="-2.770621"/><trkpt lat="43.443377" lon="-2.770547"/><trkpt lat="43.443475" lon="-2.770511"/><trkpt lat="43.443647" lon="-2.770543"/><trkpt lat="43.443961" lon="-2.770642"/><trkpt lat="43.444081" lon="-2.770635"/><trkpt lat="43.444197" lon="-2.770568"/><trkpt lat="43.444277" lon="-2.770554"/><trkpt lat="43.44432" lon="-2.770593"/><trkpt lat="43.444313" lon="-2.770667"/><trkpt lat="43.444138" lon="-2.770864"/><trkpt lat="43.443871" lon="-2.771177"/><trkpt lat="43.443809" lon="-2.771286"/><trkpt lat="43.443636" lon="-2.771805"/><trkpt lat="43.443593" lon="-2.771971"/><trkpt lat="43.443556" lon="-2.772175"/><trkpt lat="43.443548" lon="-2.772456"/><trkpt lat="43.443591" lon="-2.772659"/><trkpt lat="43.443605" lon="-2.772809"/><trkpt lat="43.443609" lon="-2.772979"/><trkpt lat="43.443608" lon="-2.773084"/><trkpt lat="43.443601" lon="-2.773172"/><trkpt lat="43.443598" lon="-2.773207"/><trkpt lat="43.443578" lon="-2.773288"/><trkpt lat="43.443514" lon="-2.773515"/><trkpt lat="43.443499" lon="-2.773712"/><trkpt lat="43.443501" lon="-2.773964"/><trkpt lat="43.443491" lon="-2.774223"/><trkpt lat="43.443472" lon="-2.774406"/><trkpt lat="43.443432" lon="-2.774581"/><trkpt lat="43.443294" lon="-2.774892"/><trkpt lat="43.443245" lon="-2.775085"/><trkpt lat="43.443165" lon="-2.775533"/><trkpt lat="43.443122" lon="-2.775812"/><trkpt lat="43.443021" lon="-2.776257"/><trkpt lat="43.443011" lon="-2.776464"/><trkpt lat="43.442981" lon="-2.776655"/><trkpt lat="43.442933" lon="-2.77687"/><trkpt lat="43.442864" lon="-2.777113"/><trkpt lat="43.442851" lon="-2.777214"/><trkpt lat="43.442848" lon="-2.77733"/><trkpt lat="43.44288" lon="-2.77748"/><trkpt lat="43.442917" lon="-2.777728"/><trkpt lat="43.442909" lon="-2.777872"/><trkpt lat="43.442877" lon="-2.778006"/><trkpt lat="43.442796" lon="-2.77842"/><trkpt lat="43.442779" lon="-2.778657"/><trkpt lat="43.442786" lon="-2.779062"/><trkpt lat="43.442773" lon="-2.779293"/><trkpt lat="43.442751" lon="-2.779542"/><trkpt lat="43.442751" lon="-2.779659"/><trkpt lat="43.442765" lon="-2.779755"/><trkpt lat="43.442816" lon="-2.779893"/><trkpt lat="43.443107" lon="-2.780547"/><trkpt lat="43.443135" lon="-2.78063"/><trkpt lat="43.443153" lon="-2.780702"/><trkpt lat="43.44316" lon="-2.780771"/><trkpt lat="43.443156" lon="-2.780987"/><trkpt lat="43.443161" lon="-2.781128"/><trkpt lat="43.443181" lon="-2.781219"/><trkpt lat="43.443208" lon="-2.781287"/><trkpt lat="43.443234" lon="-2.78133"/><trkpt lat="43.443272" lon="-2.781368"/><trkpt lat="43.443305" lon="-2.781389"/><trkpt lat="43.443433" lon="-2.781427"/><trkpt lat="43.44348" lon="-2.781452"/><trkpt lat="43.443571" lon="-2.781533"/><trkpt lat="43.443614" lon="-2.781588"/><trkpt lat="43.443653" lon="-2.78167"/><trkpt lat="43.443695" lon="-2.781803"/><trkpt lat="43.443819" lon="-2.782129"/><trkpt lat="43.443857" lon="-2.782183"/><trkpt lat="43.443953" lon="-2.782236"/><trkpt lat="43.444006" lon="-2.782278"/><trkpt lat="43.44404" lon="-2.782358"/><trkpt lat="43.444141" lon="-2.782765"/><trkpt lat="43.444199" lon="-2.782925"/><trkpt lat="43.444238" lon="-2.783062"/><trkpt lat="43.44427" lon="-2.783126"/><trkpt lat="43.44434" lon="-2.78326"/><trkpt lat="43.444369" lon="-2.783307"/><trkpt lat="43.444406" lon="-2.783447"/><trkpt lat="43.444418" lon="-2.783482"/><trkpt lat="43.444449" lon="-2.783519"/><trkpt lat="43.444671" lon="-2.783715"/><trkpt lat="43.444756" lon="-2.783777"/><trkpt lat="43.4448" lon="-2.783793"/><trkpt lat="43.444961" lon="-2.783824"/><trkpt lat="43.445042" lon="-2.783913"/><trkpt lat="43.445074" lon="-2.783965"/><trkpt lat="43.445138" lon="-2.784048"/><trkpt lat="43.445325" lon="-2.784075"/><trkpt lat="43.445393" lon="-2.784161"/><trkpt lat="43.445424" lon="-2.784229"/><trkpt lat="43.445536" lon="-2.784369"/><trkpt lat="43.445605" lon="-2.784467"/><trkpt lat="43.445658" lon="-2.7845"/><trkpt lat="43.445793" lon="-2.784514"/><trkpt lat="43.445974" lon="-2.784562"/><trkpt lat="43.445996" lon="-2.784606"/><trkpt lat="43.446016" lon="-2.784626"/><trkpt lat="43.446091" lon="-2.78464"/><trkpt lat="43.446144" lon="-2.78461"/><trkpt lat="43.446213" lon="-2.784591"/><trkpt lat="43.446279" lon="-2.784599"/><trkpt lat="43.446374" lon="-2.784618"/><trkpt lat="43.446414" lon="-2.784611"/><trkpt lat="43.446455" lon="-2.784621"/><trkpt lat="43.446581" lon="-2.784721"/><trkpt lat="43.446593" lon="-2.78477"/><trkpt lat="43.446699" lon="-2.784779"/><trkpt lat="43.446885" lon="-2.784825"/><trkpt lat="43.446886" lon="-2.784838"/><trkpt lat="43.446726" lon="-2.784986"/><trkpt lat="43.44673" lon="-2.784996"/><trkpt lat="43.446999" lon="-2.784908"/><trkpt lat="43.447093" lon="-2.785072"/><trkpt lat="43.447116" lon="-2.785157"/><trkpt lat="43.447101" lon="-2.78525"/><trkpt lat="43.447102" lon="-2.785278"/><trkpt lat="43.447116" lon="-2.785295"/><trkpt lat="43.447135" lon="-2.785291"/><trkpt lat="43.447156" lon="-2.785269"/><trkpt lat="43.447183" lon="-2.785223"/><trkpt lat="43.447203" lon="-2.785173"/><trkpt lat="43.44723" lon="-2.785069"/><trkpt lat="43.447231" lon="-2.785039"/><trkpt lat="43.44723" lon="-2.785069"/><trkpt lat="43.447203" lon="-2.785173"/><trkpt lat="43.447183" lon="-2.785223"/><trkpt lat="43.447156" lon="-2.785269"/><trkpt lat="43.447135" lon="-2.785291"/><trkpt lat="43.447116" lon="-2.785295"/><trkpt lat="43.447102" lon="-2.785278"/><trkpt lat="43.447101" lon="-2.78525"/><trkpt lat="43.447116" lon="-2.785157"/><trkpt lat="43.447093" lon="-2.785072"/><trkpt lat="43.446999" lon="-2.784908"/><trkpt lat="43.44673" lon="-2.784996"/><trkpt lat="43.446726" lon="-2.784986"/><trkpt lat="43.446886" lon="-2.784838"/><trkpt lat="43.446885" lon="-2.784825"/><trkpt lat="43.446699" lon="-2.784779"/><trkpt lat="43.446593" lon="-2.78477"/><trkpt lat="43.446581" lon="-2.784721"/><trkpt lat="43.446455" lon="-2.784621"/><trkpt lat="43.446414" lon="-2.784611"/><trkpt lat="43.446374" lon="-2.784618"/><trkpt lat="43.446279" lon="-2.784599"/><trkpt lat="43.446213" lon="-2.784591"/><trkpt lat="43.446144" lon="-2.78461"/><trkpt lat="43.446091" lon="-2.78464"/><trkpt lat="43.446016" lon="-2.784626"/><trkpt lat="43.445996" lon="-2.784606"/><trkpt lat="43.445974" lon="-2.784562"/><trkpt lat="43.445793" lon="-2.784514"/><trkpt lat="43.445658" lon="-2.7845"/><trkpt lat="43.445605" lon="-2.784467"/><trkpt lat="43.445536" lon="-2.784369"/><trkpt lat="43.445424" lon="-2.784229"/><trkpt lat="43.445393" lon="-2.784161"/><trkpt lat="43.445325" lon="-2.784075"/><trkpt lat="43.445138" lon="-2.784048"/><trkpt lat="43.445074" lon="-2.783965"/><trkpt lat="43.445042" lon="-2.783913"/><trkpt lat="43.444961" lon="-2.783824"/><trkpt lat="43.4448" lon="-2.783793"/><trkpt lat="43.444756" lon="-2.783777"/><trkpt lat="43.444671" lon="-2.783715"/><trkpt lat="43.444449" lon="-2.783519"/><trkpt lat="43.444418" lon="-2.783482"/><trkpt lat="43.444406" lon="-2.783447"/><trkpt lat="43.444369" lon="-2.783307"/><trkpt lat="43.44434" lon="-2.78326"/><trkpt lat="43.44427" lon="-2.783126"/><trkpt lat="43.444238" lon="-2.783062"/><trkpt lat="43.444199" lon="-2.782925"/><trkpt lat="43.444141" lon="-2.782765"/><trkpt lat="43.44404" lon="-2.782358"/><trkpt lat="43.444006" lon="-2.782278"/><trkpt lat="43.443953" lon="-2.782236"/><trkpt lat="43.443857" lon="-2.782183"/><trkpt lat="43.443819" lon="-2.782129"/><trkpt lat="43.443695" lon="-2.781803"/><trkpt lat="43.443653" lon="-2.78167"/><trkpt lat="43.443614" lon="-2.781588"/><trkpt lat="43.443571" lon="-2.781533"/><trkpt lat="43.44348" lon="-2.781452"/><trkpt lat="43.443433" lon="-2.781427"/><trkpt lat="43.443305" lon="-2.781389"/><trkpt lat="43.443272" lon="-2.781368"/><trkpt lat="43.443234" lon="-2.78133"/><trkpt lat="43.443208" lon="-2.781287"/><trkpt lat="43.443181" lon="-2.781219"/><trkpt lat="43.443161" lon="-2.781128"/><trkpt lat="43.443156" lon="-2.780987"/><trkpt lat="43.44316" lon="-2.780771"/><trkpt lat="43.443153" lon="-2.780702"/><trkpt lat="43.443135" lon="-2.78063"/><trkpt lat="43.443107" lon="-2.780547"/><trkpt lat="43.442816" lon="-2.779893"/><trkpt lat="43.442765" lon="-2.779755"/><trkpt lat="43.442751" lon="-2.779659"/><trkpt lat="43.442751" lon="-2.779542"/><trkpt lat="43.442773" lon="-2.779293"/><trkpt lat="43.442786" lon="-2.779062"/><trkpt lat="43.442779" lon="-2.778657"/><trkpt lat="43.442796" lon="-2.77842"/><trkpt lat="43.442877" lon="-2.778006"/><trkpt lat="43.442909" lon="-2.777872"/><trkpt lat="43.442917" lon="-2.777728"/><trkpt lat="43.44288" lon="-2.77748"/><trkpt lat="43.442848" lon="-2.77733"/><trkpt lat="43.442851" lon="-2.777214"/><trkpt lat="43.442864" lon="-2.777113"/><trkpt lat="43.442933" lon="-2.77687"/><trkpt lat="43.442981" lon="-2.776655"/><trkpt lat="43.443011" lon="-2.776464"/><trkpt lat="43.443021" lon="-2.776257"/><trkpt lat="43.443122" lon="-2.775812"/><trkpt lat="43.443165" lon="-2.775533"/><trkpt lat="43.443245" lon="-2.775085"/><trkpt lat="43.443294" lon="-2.774892"/><trkpt lat="43.443432" lon="-2.774581"/><trkpt lat="43.443472" lon="-2.774406"/><trkpt lat="43.443491" lon="-2.774223"/><trkpt lat="43.443501" lon="-2.773964"/><trkpt lat="43.443499" lon="-2.773712"/><trkpt lat="43.443514" lon="-2.773515"/><trkpt lat="43.443578" lon="-2.773288"/><trkpt lat="43.443598" lon="-2.773207"/><trkpt lat="43.443601" lon="-2.773172"/><trkpt lat="43.443608" lon="-2.773084"/><trkpt lat="43.443609" lon="-2.772979"/><trkpt lat="43.443605" lon="-2.772809"/><trkpt lat="43.443591" lon="-2.772659"/><trkpt lat="43.443548" lon="-2.772456"/><trkpt lat="43.443556" lon="-2.772175"/><trkpt lat="43.443593" lon="-2.771971"/><trkpt lat="43.443636" lon="-2.771805"/><trkpt lat="43.443809" lon="-2.771286"/><trkpt lat="43.443871" lon="-2.771177"/><trkpt lat="43.444138" lon="-2.770864"/><trkpt lat="43.444313" lon="-2.770667"/><trkpt lat="43.44432" lon="-2.770593"/><trkpt lat="43.444277" lon="-2.770554"/><trkpt lat="43.444197" lon="-2.770568"/><trkpt lat="43.444081" lon="-2.770635"/><trkpt lat="43.443961" lon="-2.770642"/><trkpt lat="43.443647" lon="-2.770543"/><trkpt lat="43.443475" lon="-2.770511"/><trkpt lat="43.443377" lon="-2.770547"/><trkpt lat="43.443326" lon="-2.770621"/><trkpt lat="43.443277" lon="-2.770763"/><trkpt lat="43.443244" lon="-2.770963"/><trkpt lat="43.44318" lon="-2.771098"/><trkpt lat="43.442987" lon="-2.771315"/><trkpt lat="43.442917" lon="-2.77144"/><trkpt lat="43.442848" lon="-2.771595"/><trkpt lat="43.442777" lon="-2.771802"/><trkpt lat="43.44271" lon="-2.772024"/><trkpt lat="43.442681" lon="-2.772094"/><trkpt lat="43.442588" lon="-2.772996"/><trkpt lat="43.442401" lon="-2.773421"/><trkpt lat="43.441784" lon="-2.775269"/><trkpt lat="43.441534" lon="-2.775865"/><trkpt lat="43.441452" lon="-2.776156"/><trkpt lat="43.44133" lon="-2.776925"/><trkpt lat="43.441191" lon="-2.77729"/><trkpt lat="43.440768" lon="-2.7785"/><trkpt lat="43.440772" lon="-2.778647"/><trkpt lat="43.440734" lon="-2.778729"/><trkpt lat="43.440678" lon="-2.778885"/><trkpt lat="43.44067" lon="-2.77891"/><trkpt lat="43.440504" lon="-2.779259"/><trkpt lat="43.440497" lon="-2.779343"/><trkpt lat="43.44048" lon="-2.779941"/><trkpt lat="43.44045" lon="-2.78029"/><trkpt lat="43.440326" lon="-2.78112"/><trkpt lat="43.440335" lon="-2.781288"/><trkpt lat="43.440381" lon="-2.781839"/><trkpt lat="43.440412" lon="-2.782133"/><trkpt lat="43.440412" lon="-2.782477"/><trkpt lat="43.440393" lon="-2.782634"/><trkpt lat="43.440334" lon="-2.782808"/><trkpt lat="43.440182" lon="-2.782941"/><trkpt lat="43.440155" lon="-2.782884"/><trkpt lat="43.440017" lon="-2.782999"/><trkpt lat="43.439899" lon="-2.783065"/><trkpt lat="43.439838" lon="-2.783087"/><trkpt lat="43.439769" lon="-2.783111"/><trkpt lat="43.43979" lon="-2.783202"/><trkpt lat="43.43969" lon="-2.78325"/><trkpt lat="43.439622" lon="-2.783308"/><trkpt lat="43.439576" lon="-2.783369"/><trkpt lat="43.439529" lon="-2.783377"/><trkpt lat="43.439541" lon="-2.783426"/><trkpt lat="43.439559" lon="-2.783465"/><trkpt lat="43.439506" lon="-2.783477"/><trkpt lat="43.439366" lon="-2.783484"/><trkpt lat="43.439312" lon="-2.783497"/><trkpt lat="43.439294" lon="-2.783509"/></trkseg></trk></gpx>