<?xml version="1.0" encoding="UTF-8"?><kml xmlns="http://www.opengis.net/kml/2.2"><Document><name>Gaztelugatxe · часовня на островной скале</name><description>Планировочная реконструкция по OpenStreetMap, 14.09.2026. Не запись GPS и не проверенный навигационный трек. Высоты не экспортированы. Данные © OpenStreetMap contributors, ODbL. Автопереезды и канатки в пеший трек не включены.</description><Style id="track"><LineStyle><color>ff8a6d21</color><width>4</width></LineStyle></Style><Placemark><name>Urizarreta · общественная парковка</name><Point><coordinates>-2.783537,43.439306</coordinates></Point></Placemark><Placemark><name>Gaztelugatxe · обзорная площадка</name><Point><coordinates>-2.778893,43.440692</coordinates></Point></Placemark><Placemark><name>Каменный мост к островной скале</name><Point><coordinates>-2.783,43.4444</coordinates></Point></Placemark><Placemark><name>San Juan · часовня на скале</name><Point><coordinates>-2.785041,43.44726</coordinates></Point></Placemark><Placemark><name>Gaztelugatxe · часовня на островной скале</name><description>Планировочная реконструкция по OpenStreetMap, 14.09.2026. Не запись GPS и не проверенный навигационный трек. Высоты не экспортированы. Данные © OpenStreetMap contributors, ODbL. Автопереезды и канатки в пеший трек не включены.</description><styleUrl>#track</styleUrl><LineString><tessellate>1</tessellate><altitudeMode>clampToGround</altitudeMode><coordinates>-2.783509,43.439294,0 -2.783497,43.439312,0 -2.783484,43.439366,0 -2.783477,43.439506,0 -2.783465,43.439559,0 -2.783426,43.439541,0 -2.783377,43.439529,0 -2.783369,43.439576,0 -2.783308,43.439622,0 -2.78325,43.43969,0 -2.783202,43.43979,0 -2.783111,43.439769,0 -2.783087,43.439838,0 -2.783065,43.439899,0 -2.782999,43.440017,0 -2.782884,43.440155,0 -2.782941,43.440182,0 -2.782808,43.440334,0 -2.782634,43.440393,0 -2.782477,43.440412,0 -2.782133,43.440412,0 -2.781839,43.440381,0 -2.781288,43.440335,0 -2.78112,43.440326,0 -2.78029,43.44045,0 -2.779941,43.44048,0 -2.779343,43.440497,0 -2.779259,43.440504,0 -2.77891,43.44067,0 -2.778885,43.440678,0 -2.778729,43.440734,0 -2.778647,43.440772,0 -2.7785,43.440768,0 -2.77729,43.441191,0 -2.776925,43.44133,0 -2.776156,43.441452,0 -2.775865,43.441534,0 -2.775269,43.441784,0 -2.773421,43.442401,0 -2.772996,43.442588,0 -2.772094,43.442681,0 -2.772024,43.44271,0 -2.771802,43.442777,0 -2.771595,43.442848,0 -2.77144,43.442917,0 -2.771315,43.442987,0 -2.771098,43.44318,0 -2.770963,43.443244,0 -2.770763,43.443277,0 -2.770621,43.443326,0 -2.770547,43.443377,0 -2.770511,43.443475,0 -2.770543,43.443647,0 -2.770642,43.443961,0 -2.770635,43.444081,0 -2.770568,43.444197,0 -2.770554,43.444277,0 -2.770593,43.44432,0 -2.770667,43.444313,0 -2.770864,43.444138,0 -2.771177,43.443871,0 -2.771286,43.443809,0 -2.771805,43.443636,0 -2.771971,43.443593,0 -2.772175,43.443556,0 -2.772456,43.443548,0 -2.772659,43.443591,0 -2.772809,43.443605,0 -2.772979,43.443609,0 -2.773084,43.443608,0 -2.773172,43.443601,0 -2.773207,43.443598,0 -2.773288,43.443578,0 -2.773515,43.443514,0 -2.773712,43.443499,0 -2.773964,43.443501,0 -2.774223,43.443491,0 -2.774406,43.443472,0 -2.774581,43.443432,0 -2.774892,43.443294,0 -2.775085,43.443245,0 -2.775533,43.443165,0 -2.775812,43.443122,0 -2.776257,43.443021,0 -2.776464,43.443011,0 -2.776655,43.442981,0 -2.77687,43.442933,0 -2.777113,43.442864,0 -2.777214,43.442851,0 -2.77733,43.442848,0 -2.77748,43.44288,0 -2.777728,43.442917,0 -2.777872,43.442909,0 -2.778006,43.442877,0 -2.77842,43.442796,0 -2.778657,43.442779,0 -2.779062,43.442786,0 -2.779293,43.442773,0 -2.779542,43.442751,0 -2.779659,43.442751,0 -2.779755,43.442765,0 -2.779893,43.442816,0 -2.780547,43.443107,0 -2.78063,43.443135,0 -2.780702,43.443153,0 -2.780771,43.44316,0 -2.780987,43.443156,0 -2.781128,43.443161,0 -2.781219,43.443181,0 -2.781287,43.443208,0 -2.78133,43.443234,0 -2.781368,43.443272,0 -2.781389,43.443305,0 -2.781427,43.443433,0 -2.781452,43.44348,0 -2.781533,43.443571,0 -2.781588,43.443614,0 -2.78167,43.443653,0 -2.781803,43.443695,0 -2.782129,43.443819,0 -2.782183,43.443857,0 -2.782236,43.443953,0 -2.782278,43.444006,0 -2.782358,43.44404,0 -2.782765,43.444141,0 -2.782925,43.444199,0 -2.783062,43.444238,0 -2.783126,43.44427,0 -2.78326,43.44434,0 -2.783307,43.444369,0 -2.783447,43.444406,0 -2.783482,43.444418,0 -2.783519,43.444449,0 -2.783715,43.444671,0 -2.783777,43.444756,0 -2.783793,43.4448,0 -2.783824,43.444961,0 -2.783913,43.445042,0 -2.783965,43.445074,0 -2.784048,43.445138,0 -2.784075,43.445325,0 -2.784161,43.445393,0 -2.784229,43.445424,0 -2.784369,43.445536,0 -2.784467,43.445605,0 -2.7845,43.445658,0 -2.784514,43.445793,0 -2.784562,43.445974,0 -2.784606,43.445996,0 -2.784626,43.446016,0 -2.78464,43.446091,0 -2.78461,43.446144,0 -2.784591,43.446213,0 -2.784599,43.446279,0 -2.784618,43.446374,0 -2.784611,43.446414,0 -2.784621,43.446455,0 -2.784721,43.446581,0 -2.78477,43.446593,0 -2.784779,43.446699,0 -2.784825,43.446885,0 -2.784838,43.446886,0 -2.784986,43.446726,0 -2.784996,43.44673,0 -2.784908,43.446999,0 -2.785072,43.447093,0 -2.785157,43.447116,0 -2.78525,43.447101,0 -2.785278,43.447102,0 -2.785295,43.447116,0 -2.785291,43.447135,0 -2.785269,43.447156,0 -2.785223,43.447183,0 -2.785173,43.447203,0 -2.785069,43.44723,0 -2.785039,43.447231,0 -2.785069,43.44723,0 -2.785173,43.447203,0 -2.785223,43.447183,0 -2.785269,43.447156,0 -2.785291,43.447135,0 -2.785295,43.447116,0 -2.785278,43.447102,0 -2.78525,43.447101,0 -2.785157,43.447116,0 -2.785072,43.447093,0 -2.784908,43.446999,0 -2.784996,43.44673,0 -2.784986,43.446726,0 -2.784838,43.446886,0 -2.784825,43.446885,0 -2.784779,43.446699,0 -2.78477,43.446593,0 -2.784721,43.446581,0 -2.784621,43.446455,0 -2.784611,43.446414,0 -2.784618,43.446374,0 -2.784599,43.446279,0 -2.784591,43.446213,0 -2.78461,43.446144,0 -2.78464,43.446091,0 -2.784626,43.446016,0 -2.784606,43.445996,0 -2.784562,43.445974,0 -2.784514,43.445793,0 -2.7845,43.445658,0 -2.784467,43.445605,0 -2.784369,43.445536,0 -2.784229,43.445424,0 -2.784161,43.445393,0 -2.784075,43.445325,0 -2.784048,43.445138,0 -2.783965,43.445074,0 -2.783913,43.445042,0 -2.783824,43.444961,0 -2.783793,43.4448,0 -2.783777,43.444756,0 -2.783715,43.444671,0 -2.783519,43.444449,0 -2.783482,43.444418,0 -2.783447,43.444406,0 -2.783307,43.444369,0 -2.78326,43.44434,0 -2.783126,43.44427,0 -2.783062,43.444238,0 -2.782925,43.444199,0 -2.782765,43.444141,0 -2.782358,43.44404,0 -2.782278,43.444006,0 -2.782236,43.443953,0 -2.782183,43.443857,0 -2.782129,43.443819,0 -2.781803,43.443695,0 -2.78167,43.443653,0 -2.781588,43.443614,0 -2.781533,43.443571,0 -2.781452,43.44348,0 -2.781427,43.443433,0 -2.781389,43.443305,0 -2.781368,43.443272,0 -2.78133,43.443234,0 -2.781287,43.443208,0 -2.781219,43.443181,0 -2.781128,43.443161,0 -2.780987,43.443156,0 -2.780771,43.44316,0 -2.780702,43.443153,0 -2.78063,43.443135,0 -2.780547,43.443107,0 -2.779893,43.442816,0 -2.779755,43.442765,0 -2.779659,43.442751,0 -2.779542,43.442751,0 -2.779293,43.442773,0 -2.779062,43.442786,0 -2.778657,43.442779,0 -2.77842,43.442796,0 -2.778006,43.442877,0 -2.777872,43.442909,0 -2.777728,43.442917,0 -2.77748,43.44288,0 -2.77733,43.442848,0 -2.777214,43.442851,0 -2.777113,43.442864,0 -2.77687,43.442933,0 -2.776655,43.442981,0 -2.776464,43.443011,0 -2.776257,43.443021,0 -2.775812,43.443122,0 -2.775533,43.443165,0 -2.775085,43.443245,0 -2.774892,43.443294,0 -2.774581,43.443432,0 -2.774406,43.443472,0 -2.774223,43.443491,0 -2.773964,43.443501,0 -2.773712,43.443499,0 -2.773515,43.443514,0 -2.773288,43.443578,0 -2.773207,43.443598,0 -2.773172,43.443601,0 -2.773084,43.443608,0 -2.772979,43.443609,0 -2.772809,43.443605,0 -2.772659,43.443591,0 -2.772456,43.443548,0 -2.772175,43.443556,0 -2.771971,43.443593,0 -2.771805,43.443636,0 -2.771286,43.443809,0 -2.771177,43.443871,0 -2.770864,43.444138,0 -2.770667,43.444313,0 -2.770593,43.44432,0 -2.770554,43.444277,0 -2.770568,43.444197,0 -2.770635,43.444081,0 -2.770642,43.443961,0 -2.770543,43.443647,0 -2.770511,43.443475,0 -2.770547,43.443377,0 -2.770621,43.443326,0 -2.770763,43.443277,0 -2.770963,43.443244,0 -2.771098,43.44318,0 -2.771315,43.442987,0 -2.77144,43.442917,0 -2.771595,43.442848,0 -2.771802,43.442777,0 -2.772024,43.44271,0 -2.772094,43.442681,0 -2.772996,43.442588,0 -2.773421,43.442401,0 -2.775269,43.441784,0 -2.775865,43.441534,0 -2.776156,43.441452,0 -2.776925,43.44133,0 -2.77729,43.441191,0 -2.7785,43.440768,0 -2.778647,43.440772,0 -2.778729,43.440734,0 -2.778885,43.440678,0 -2.77891,43.44067,0 -2.779259,43.440504,0 -2.779343,43.440497,0 -2.779941,43.44048,0 -2.78029,43.44045,0 -2.78112,43.440326,0 -2.781288,43.440335,0 -2.781839,43.440381,0 -2.782133,43.440412,0 -2.782477,43.440412,0 -2.782634,43.440393,0 -2.782808,43.440334,0 -2.782941,43.440182,0 -2.782884,43.440155,0 -2.782999,43.440017,0 -2.783065,43.439899,0 -2.783087,43.439838,0 -2.783111,43.439769,0 -2.783202,43.43979,0 -2.78325,43.43969,0 -2.783308,43.439622,0 -2.783369,43.439576,0 -2.783377,43.439529,0 -2.783426,43.439541,0 -2.783465,43.439559,0 -2.783477,43.439506,0 -2.783484,43.439366,0 -2.783497,43.439312,0 -2.783509,43.439294,0</coordinates></LineString></Placemark></Document></kml>