<?xml version="1.0" encoding="UTF-8"?><gpx version="1.1" creator="Basque Hikes Atlas" xmlns="http://www.topografix.com/GPX/1/1"><metadata><name>Ogoño · морской утёс над пляжем Laga</name><desc>Планировочная реконструкция по OpenStreetMap, 14.09.2026. Не запись GPS и не проверенный навигационный трек. Высоты не экспортированы. Данные © OpenStreetMap contributors, ODbL. Автопереезды и канатки в пеший трек не включены.</desc><link href="https://www.openstreetmap.org/copyright"><text>OpenStreetMap contributors · ODbL</text></link></metadata><wpt lat="43.403139" lon="-2.63827"><name>Elantxobe · верхняя парковка</name></wpt><wpt lat="43.4052" lon="-2.6398"><name>Elantxobe · вид на гавань</name></wpt><wpt lat="43.408767" lon="-2.644944"><name>Ogoño · вершина над пляжем</name></wpt><wpt lat="43.414244" lon="-2.648583"><name>Ogoño Lurmuturra · морской утёс</name></wpt><trk><name>Ogoño · морской утёс над пляжем Laga</name><desc>Планировочная реконструкция по OpenStreetMap, 14.09.2026. Не запись GPS и не проверенный навигационный трек. Высоты не экспортированы. Данные © OpenStreetMap contributors, ODbL. Автопереезды и канатки в пеший трек не включены.</desc><type>hiking</type><trkseg><trkpt lat="43.403146" lon="-2.638223"/><trkpt lat="43.403436" lon="-2.638307"/><trkpt lat="43.403486" lon="-2.638332"/><trkpt lat="43.403526" lon="-2.638401"/><trkpt lat="43.403471" lon="-2.63845"/><trkpt lat="43.403463" lon="-2.638456"/><trkpt lat="43.403339" lon="-2.638497"/><trkpt lat="43.403275" lon="-2.638505"/><trkpt lat="43.403276" lon="-2.638559"/><trkpt lat="43.403282" lon="-2.63862"/><trkpt lat="43.403298" lon="-2.63862"/><trkpt lat="43.403304" lon="-2.63862"/><trkpt lat="43.403309" lon="-2.638688"/><trkpt lat="43.403249" lon="-2.638689"/><trkpt lat="43.403322" lon="-2.638749"/><trkpt lat="43.403315" lon="-2.63877"/><trkpt lat="43.403404" lon="-2.638807"/><trkpt lat="43.403368" lon="-2.638805"/><trkpt lat="43.40328" lon="-2.638836"/><trkpt lat="43.403407" lon="-2.638884"/><trkpt lat="43.403428" lon="-2.638916"/><trkpt lat="43.403433" lon="-2.638987"/><trkpt lat="43.403594" lon="-2.639473"/><trkpt lat="43.403526" lon="-2.639573"/><trkpt lat="43.403399" lon="-2.639751"/><trkpt lat="43.40338" lon="-2.639778"/><trkpt lat="43.403244" lon="-2.639894"/><trkpt lat="43.403139" lon="-2.639947"/><trkpt lat="43.403055" lon="-2.639943"/><trkpt lat="43.40304" lon="-2.640018"/><trkpt lat="43.403043" lon="-2.640177"/><trkpt lat="43.403028" lon="-2.640247"/><trkpt lat="43.402972" lon="-2.640423"/><trkpt lat="43.402939" lon="-2.640588"/><trkpt lat="43.402908" lon="-2.640616"/><trkpt lat="43.402885" lon="-2.640612"/><trkpt lat="43.402826" lon="-2.64072"/><trkpt lat="43.402549" lon="-2.640803"/><trkpt lat="43.402544" lon="-2.640825"/><trkpt lat="43.402596" lon="-2.640844"/><trkpt lat="43.402712" lon="-2.640923"/><trkpt lat="43.402758" lon="-2.640976"/><trkpt lat="43.402808" lon="-2.641017"/><trkpt lat="43.402862" lon="-2.641031"/><trkpt lat="43.402908" lon="-2.641037"/><trkpt lat="43.403028" lon="-2.640957"/><trkpt lat="43.403129" lon="-2.640916"/><trkpt lat="43.40315" lon="-2.640814"/><trkpt lat="43.403195" lon="-2.640784"/><trkpt lat="43.403405" lon="-2.640728"/><trkpt lat="43.403654" lon="-2.640757"/><trkpt lat="43.403777" lon="-2.64082"/><trkpt lat="43.403942" lon="-2.640831"/><trkpt lat="43.404064" lon="-2.640791"/><trkpt lat="43.404139" lon="-2.640819"/><trkpt lat="43.404346" lon="-2.640747"/><trkpt lat="43.404459" lon="-2.640745"/><trkpt lat="43.404525" lon="-2.640793"/><trkpt lat="43.40465" lon="-2.640815"/><trkpt lat="43.404742" lon="-2.640746"/><trkpt lat="43.404852" lon="-2.640685"/><trkpt lat="43.404963" lon="-2.640575"/><trkpt lat="43.405015" lon="-2.64058"/><trkpt lat="43.405074" lon="-2.640606"/><trkpt lat="43.405264" lon="-2.640653"/><trkpt lat="43.405317" lon="-2.640624"/><trkpt lat="43.405342" lon="-2.640487"/><trkpt lat="43.405384" lon="-2.64038"/><trkpt lat="43.405473" lon="-2.640354"/><trkpt lat="43.40562" lon="-2.640403"/><trkpt lat="43.405577" lon="-2.640477"/><trkpt lat="43.405552" lon="-2.640578"/><trkpt lat="43.40553" lon="-2.640715"/><trkpt lat="43.405523" lon="-2.640822"/><trkpt lat="43.405529" lon="-2.640994"/><trkpt lat="43.405589" lon="-2.641128"/><trkpt lat="43.405795" lon="-2.641459"/><trkpt lat="43.405732" lon="-2.641461"/><trkpt lat="43.405648" lon="-2.641434"/><trkpt lat="43.40556" lon="-2.641431"/><trkpt lat="43.405478" lon="-2.64145"/><trkpt lat="43.405363" lon="-2.641429"/><trkpt lat="43.405252" lon="-2.64142"/><trkpt lat="43.404993" lon="-2.641431"/><trkpt lat="43.404814" lon="-2.641429"/><trkpt lat="43.404775" lon="-2.641445"/><trkpt lat="43.404796" lon="-2.641498"/><trkpt lat="43.405014" lon="-2.641702"/><trkpt lat="43.405014" lon="-2.641737"/><trkpt lat="43.405014" lon="-2.641812"/><trkpt lat="43.404983" lon="-2.641801"/><trkpt lat="43.404931" lon="-2.641833"/><trkpt lat="43.404793" lon="-2.641945"/><trkpt lat="43.404671" lon="-2.642056"/><trkpt lat="43.404549" lon="-2.642147"/><trkpt lat="43.40476" lon="-2.642233"/><trkpt lat="43.405022" lon="-2.642389"/><trkpt lat="43.405156" lon="-2.642539"/><trkpt lat="43.405324" lon="-2.642743"/><trkpt lat="43.405407" lon="-2.642863"/><trkpt lat="43.405479" lon="-2.643086"/><trkpt lat="43.40548" lon="-2.643202"/><trkpt lat="43.40546" lon="-2.6434"/><trkpt lat="43.405514" lon="-2.643585"/><trkpt lat="43.405725" lon="-2.643944"/><trkpt lat="43.405999" lon="-2.644288"/><trkpt lat="43.406385" lon="-2.644727"/><trkpt lat="43.40649" lon="-2.644917"/><trkpt lat="43.406582" lon="-2.645231"/><trkpt lat="43.406707" lon="-2.645599"/><trkpt lat="43.406843" lon="-2.645913"/><trkpt lat="43.407071" lon="-2.646267"/><trkpt lat="43.407237" lon="-2.646126"/><trkpt lat="43.407289" lon="-2.646103"/><trkpt lat="43.407437" lon="-2.646171"/><trkpt lat="43.407552" lon="-2.646324"/><trkpt lat="43.407728" lon="-2.64651"/><trkpt lat="43.407807" lon="-2.646611"/><trkpt lat="43.407953" lon="-2.646747"/><trkpt lat="43.408115" lon="-2.646863"/><trkpt lat="43.408248" lon="-2.64692"/><trkpt lat="43.408294" lon="-2.646911"/><trkpt lat="43.40866" lon="-2.647019"/><trkpt lat="43.408884" lon="-2.647066"/><trkpt lat="43.409117" lon="-2.647145"/><trkpt lat="43.409357" lon="-2.647198"/><trkpt lat="43.409359" lon="-2.647054"/><trkpt lat="43.409386" lon="-2.646914"/><trkpt lat="43.409443" lon="-2.646826"/><trkpt lat="43.409474" lon="-2.64673"/><trkpt lat="43.409494" lon="-2.646578"/><trkpt lat="43.409641" lon="-2.646242"/><trkpt lat="43.409718" lon="-2.646168"/><trkpt lat="43.409759" lon="-2.646033"/><trkpt lat="43.409775" lon="-2.645923"/><trkpt lat="43.409759" lon="-2.645789"/><trkpt lat="43.409718" lon="-2.645697"/><trkpt lat="43.409685" lon="-2.645591"/><trkpt lat="43.409638" lon="-2.645562"/><trkpt lat="43.409584" lon="-2.645577"/><trkpt lat="43.409541" lon="-2.645538"/><trkpt lat="43.409462" lon="-2.645483"/><trkpt lat="43.409378" lon="-2.645485"/><trkpt lat="43.40934" lon="-2.645389"/><trkpt lat="43.409266" lon="-2.645308"/><trkpt lat="43.409173" lon="-2.645227"/><trkpt lat="43.409124" lon="-2.645201"/><trkpt lat="43.408988" lon="-2.64509"/><trkpt lat="43.408915" lon="-2.645057"/><trkpt lat="43.40889" lon="-2.645003"/><trkpt lat="43.408808" lon="-2.644922"/><trkpt lat="43.408772" lon="-2.644912"/><trkpt lat="43.408808" lon="-2.644922"/><trkpt lat="43.40889" lon="-2.645003"/><trkpt lat="43.408915" lon="-2.645057"/><trkpt lat="43.408988" lon="-2.64509"/><trkpt lat="43.409124" lon="-2.645201"/><trkpt lat="43.409173" lon="-2.645227"/><trkpt lat="43.409266" lon="-2.645308"/><trkpt lat="43.40934" lon="-2.645389"/><trkpt lat="43.409378" lon="-2.645485"/><trkpt lat="43.409462" lon="-2.645483"/><trkpt lat="43.409541" lon="-2.645538"/><trkpt lat="43.409584" lon="-2.645577"/><trkpt lat="43.409638" lon="-2.645562"/><trkpt lat="43.409685" lon="-2.645591"/><trkpt lat="43.409718" lon="-2.645697"/><trkpt lat="43.409759" lon="-2.645789"/><trkpt lat="43.409775" lon="-2.645923"/><trkpt lat="43.409759" lon="-2.646033"/><trkpt lat="43.409718" lon="-2.646168"/><trkpt lat="43.409641" lon="-2.646242"/><trkpt lat="43.409494" lon="-2.646578"/><trkpt lat="43.409474" lon="-2.64673"/><trkpt lat="43.409443" lon="-2.646826"/><trkpt lat="43.409386" lon="-2.646914"/><trkpt lat="43.409359" lon="-2.647054"/><trkpt lat="43.409357" lon="-2.647198"/><trkpt lat="43.409528" lon="-2.64722"/><trkpt lat="43.409703" lon="-2.647214"/><trkpt lat="43.41022" lon="-2.647479"/><trkpt lat="43.410367" lon="-2.647552"/><trkpt lat="43.410523" lon="-2.64758"/><trkpt lat="43.410631" lon="-2.647637"/><trkpt lat="43.410655" lon="-2.647639"/><trkpt lat="43.410761" lon="-2.647568"/><trkpt lat="43.410885" lon="-2.647504"/><trkpt lat="43.410975" lon="-2.647462"/><trkpt lat="43.411083" lon="-2.647444"/><trkpt lat="43.411223" lon="-2.647453"/><trkpt lat="43.411339" lon="-2.647437"/><trkpt lat="43.411723" lon="-2.647362"/><trkpt lat="43.411779" lon="-2.647398"/><trkpt lat="43.411996" lon="-2.647577"/><trkpt lat="43.412055" lon="-2.647649"/><trkpt lat="43.412147" lon="-2.647677"/><trkpt lat="43.412351" lon="-2.647871"/><trkpt lat="43.41249" lon="-2.647949"/><trkpt lat="43.412711" lon="-2.648143"/><trkpt lat="43.412795" lon="-2.648225"/><trkpt lat="43.412912" lon="-2.648199"/><trkpt lat="43.412968" lon="-2.6483"/><trkpt lat="43.413079" lon="-2.64837"/><trkpt lat="43.413153" lon="-2.648515"/><trkpt lat="43.413365" lon="-2.648655"/><trkpt lat="43.413661" lon="-2.648676"/><trkpt lat="43.413766" lon="-2.648655"/><trkpt lat="43.413871" lon="-2.648671"/><trkpt lat="43.413904" lon="-2.648647"/><trkpt lat="43.414244" lon="-2.648583"/><trkpt lat="43.413904" lon="-2.648647"/><trkpt lat="43.413871" lon="-2.648671"/><trkpt lat="43.413766" lon="-2.648655"/><trkpt lat="43.413661" lon="-2.648676"/><trkpt lat="43.413365" lon="-2.648655"/><trkpt lat="43.413153" lon="-2.648515"/><trkpt lat="43.413079" lon="-2.64837"/><trkpt lat="43.412968" lon="-2.6483"/><trkpt lat="43.412912" lon="-2.648199"/><trkpt lat="43.412795" lon="-2.648225"/><trkpt lat="43.412711" lon="-2.648143"/><trkpt lat="43.41249" lon="-2.647949"/><trkpt lat="43.412351" lon="-2.647871"/><trkpt lat="43.412147" lon="-2.647677"/><trkpt lat="43.412055" lon="-2.647649"/><trkpt lat="43.411996" lon="-2.647577"/><trkpt lat="43.411779" lon="-2.647398"/><trkpt lat="43.411723" lon="-2.647362"/><trkpt lat="43.411339" lon="-2.647437"/><trkpt lat="43.411223" lon="-2.647453"/><trkpt lat="43.411083" lon="-2.647444"/><trkpt lat="43.410975" lon="-2.647462"/><trkpt lat="43.410885" lon="-2.647504"/><trkpt lat="43.410761" lon="-2.647568"/><trkpt lat="43.410655" lon="-2.647639"/><trkpt lat="43.410631" lon="-2.647637"/><trkpt lat="43.410523" lon="-2.64758"/><trkpt lat="43.410367" lon="-2.647552"/><trkpt lat="43.41022" lon="-2.647479"/><trkpt lat="43.409703" lon="-2.647214"/><trkpt lat="43.409528" lon="-2.64722"/><trkpt lat="43.409357" lon="-2.647198"/><trkpt lat="43.409359" lon="-2.647054"/><trkpt lat="43.409386" lon="-2.646914"/><trkpt lat="43.409443" lon="-2.646826"/><trkpt lat="43.409474" lon="-2.64673"/><trkpt lat="43.409494" lon="-2.646578"/><trkpt lat="43.409641" lon="-2.646242"/><trkpt lat="43.409718" lon="-2.646168"/><trkpt lat="43.409759" lon="-2.646033"/><trkpt lat="43.409775" lon="-2.645923"/><trkpt lat="43.409759" lon="-2.645789"/><trkpt lat="43.409718" lon="-2.645697"/><trkpt lat="43.409685" lon="-2.645591"/><trkpt lat="43.409638" lon="-2.645562"/><trkpt lat="43.409584" lon="-2.645577"/><trkpt lat="43.409541" lon="-2.645538"/><trkpt lat="43.409462" lon="-2.645483"/><trkpt lat="43.409378" lon="-2.645485"/><trkpt lat="43.40934" lon="-2.645389"/><trkpt lat="43.409266" lon="-2.645308"/><trkpt lat="43.409173" lon="-2.645227"/><trkpt lat="43.409124" lon="-2.645201"/><trkpt lat="43.408988" lon="-2.64509"/><trkpt lat="43.408915" lon="-2.645057"/><trkpt lat="43.40889" lon="-2.645003"/><trkpt lat="43.408808" lon="-2.644922"/><trkpt lat="43.408772" lon="-2.644912"/><trkpt lat="43.408808" lon="-2.644922"/><trkpt lat="43.40889" lon="-2.645003"/><trkpt lat="43.408915" lon="-2.645057"/><trkpt lat="43.408988" lon="-2.64509"/><trkpt lat="43.409124" lon="-2.645201"/><trkpt lat="43.409173" lon="-2.645227"/><trkpt lat="43.409266" lon="-2.645308"/><trkpt lat="43.40934" lon="-2.645389"/><trkpt lat="43.409378" lon="-2.645485"/><trkpt lat="43.409462" lon="-2.645483"/><trkpt lat="43.409541" lon="-2.645538"/><trkpt lat="43.409584" lon="-2.645577"/><trkpt lat="43.409638" lon="-2.645562"/><trkpt lat="43.409685" lon="-2.645591"/><trkpt lat="43.409718" lon="-2.645697"/><trkpt lat="43.409759" lon="-2.645789"/><trkpt lat="43.409775" lon="-2.645923"/><trkpt lat="43.409759" lon="-2.646033"/><trkpt lat="43.409718" lon="-2.646168"/><trkpt lat="43.409641" lon="-2.646242"/><trkpt lat="43.409494" lon="-2.646578"/><trkpt lat="43.409474" lon="-2.64673"/><trkpt lat="43.409443" lon="-2.646826"/><trkpt lat="43.409386" lon="-2.646914"/><trkpt lat="43.409359" lon="-2.647054"/><trkpt lat="43.409357" lon="-2.647198"/><trkpt lat="43.409117" lon="-2.647145"/><trkpt lat="43.408884" lon="-2.647066"/><trkpt lat="43.40866" lon="-2.647019"/><trkpt lat="43.408294" lon="-2.646911"/><trkpt lat="43.408248" lon="-2.64692"/><trkpt lat="43.408115" lon="-2.646863"/><trkpt lat="43.407953" lon="-2.646747"/><trkpt lat="43.407807" lon="-2.646611"/><trkpt lat="43.407728" lon="-2.64651"/><trkpt lat="43.407552" lon="-2.646324"/><trkpt lat="43.407437" lon="-2.646171"/><trkpt lat="43.407289" lon="-2.646103"/><trkpt lat="43.407237" lon="-2.646126"/><trkpt lat="43.407071" lon="-2.646267"/><trkpt lat="43.406843" lon="-2.645913"/><trkpt lat="43.406707" lon="-2.645599"/><trkpt lat="43.406582" lon="-2.645231"/><trkpt lat="43.40649" lon="-2.644917"/><trkpt lat="43.406385" lon="-2.644727"/><trkpt lat="43.405999" lon="-2.644288"/><trkpt lat="43.405725" lon="-2.643944"/><trkpt lat="43.405514" lon="-2.643585"/><trkpt lat="43.40546" lon="-2.6434"/><trkpt lat="43.40548" lon="-2.643202"/><trkpt lat="43.405479" lon="-2.643086"/><trkpt lat="43.405407" lon="-2.642863"/><trkpt lat="43.405324" lon="-2.642743"/><trkpt lat="43.405156" lon="-2.642539"/><trkpt lat="43.405022" lon="-2.642389"/><trkpt lat="43.40476" lon="-2.642233"/><trkpt lat="43.404549" lon="-2.642147"/><trkpt lat="43.404671" lon="-2.642056"/><trkpt lat="43.404793" lon="-2.641945"/><trkpt lat="43.404931" lon="-2.641833"/><trkpt lat="43.404983" lon="-2.641801"/><trkpt lat="43.405014" lon="-2.641812"/><trkpt lat="43.405014" lon="-2.641737"/><trkpt lat="43.405014" lon="-2.641702"/><trkpt lat="43.404796" lon="-2.641498"/><trkpt lat="43.404775" lon="-2.641445"/><trkpt lat="43.404814" lon="-2.641429"/><trkpt lat="43.404993" lon="-2.641431"/><trkpt lat="43.405252" lon="-2.64142"/><trkpt lat="43.405363" lon="-2.641429"/><trkpt lat="43.405478" lon="-2.64145"/><trkpt lat="43.40556" lon="-2.641431"/><trkpt lat="43.405648" lon="-2.641434"/><trkpt lat="43.405732" lon="-2.641461"/><trkpt lat="43.405795" lon="-2.641459"/><trkpt lat="43.405589" lon="-2.641128"/><trkpt lat="43.405529" lon="-2.640994"/><trkpt lat="43.405523" lon="-2.640822"/><trkpt lat="43.40553" lon="-2.640715"/><trkpt lat="43.405552" lon="-2.640578"/><trkpt lat="43.405577" lon="-2.640477"/><trkpt lat="43.40562" lon="-2.640403"/><trkpt lat="43.405473" lon="-2.640354"/><trkpt lat="43.405384" lon="-2.64038"/><trkpt lat="43.405342" lon="-2.640487"/><trkpt lat="43.405317" lon="-2.640624"/><trkpt lat="43.405264" lon="-2.640653"/><trkpt lat="43.405074" lon="-2.640606"/><trkpt lat="43.405015" lon="-2.64058"/><trkpt lat="43.404963" lon="-2.640575"/><trkpt lat="43.404852" lon="-2.640685"/><trkpt lat="43.404742" lon="-2.640746"/><trkpt lat="43.40465" lon="-2.640815"/><trkpt lat="43.404525" lon="-2.640793"/><trkpt lat="43.404459" lon="-2.640745"/><trkpt lat="43.404346" lon="-2.640747"/><trkpt lat="43.404139" lon="-2.640819"/><trkpt lat="43.404064" lon="-2.640791"/><trkpt lat="43.403942" lon="-2.640831"/><trkpt lat="43.403777" lon="-2.64082"/><trkpt lat="43.403654" lon="-2.640757"/><trkpt lat="43.403405" lon="-2.640728"/><trkpt lat="43.403195" lon="-2.640784"/><trkpt lat="43.40315" lon="-2.640814"/><trkpt lat="43.403129" lon="-2.640916"/><trkpt lat="43.403028" lon="-2.640957"/><trkpt lat="43.402908" lon="-2.641037"/><trkpt lat="43.402862" lon="-2.641031"/><trkpt lat="43.402808" lon="-2.641017"/><trkpt lat="43.402758" lon="-2.640976"/><trkpt lat="43.402712" lon="-2.640923"/><trkpt lat="43.402596" lon="-2.640844"/><trkpt lat="43.402544" lon="-2.640825"/><trkpt lat="43.402549" lon="-2.640803"/><trkpt lat="43.402826" lon="-2.64072"/><trkpt lat="43.402885" lon="-2.640612"/><trkpt lat="43.402908" lon="-2.640616"/><trkpt lat="43.402939" lon="-2.640588"/><trkpt lat="43.402972" lon="-2.640423"/><trkpt lat="43.403028" lon="-2.640247"/><trkpt lat="43.403043" lon="-2.640177"/><trkpt lat="43.40304" lon="-2.640018"/><trkpt lat="43.403055" lon="-2.639943"/><trkpt lat="43.403139" lon="-2.639947"/><trkpt lat="43.403244" lon="-2.639894"/><trkpt lat="43.40338" lon="-2.639778"/><trkpt lat="43.403399" lon="-2.639751"/><trkpt lat="43.403526" lon="-2.639573"/><trkpt lat="43.403594" lon="-2.639473"/><trkpt lat="43.403433" lon="-2.638987"/><trkpt lat="43.403428" lon="-2.638916"/><trkpt lat="43.403407" lon="-2.638884"/><trkpt lat="43.40328" lon="-2.638836"/><trkpt lat="43.403368" lon="-2.638805"/><trkpt lat="43.403404" lon="-2.638807"/><trkpt lat="43.403315" lon="-2.63877"/><trkpt lat="43.403322" lon="-2.638749"/><trkpt lat="43.403249" lon="-2.638689"/><trkpt lat="43.403309" lon="-2.638688"/><trkpt lat="43.403304" lon="-2.63862"/><trkpt lat="43.403298" lon="-2.63862"/><trkpt lat="43.403282" lon="-2.63862"/><trkpt lat="43.403276" lon="-2.638559"/><trkpt lat="43.403275" lon="-2.638505"/><trkpt lat="43.403339" lon="-2.638497"/><trkpt lat="43.403463" lon="-2.638456"/><trkpt lat="43.403471" lon="-2.63845"/><trkpt lat="43.403526" lon="-2.638401"/><trkpt lat="43.403486" lon="-2.638332"/><trkpt lat="43.403436" lon="-2.638307"/><trkpt lat="43.403146" lon="-2.638223"/></trkseg></trk></gpx>