<?xml version="1.0" encoding="UTF-8"?><kml xmlns="http://www.opengis.net/kml/2.2"><Document><name>Ogoño · морской утёс над пляжем Laga</name><description>Планировочная реконструкция по OpenStreetMap, 14.09.2026. Не запись GPS и не проверенный навигационный трек. Высоты не экспортированы. Данные © OpenStreetMap contributors, ODbL. Автопереезды и канатки в пеший трек не включены.</description><Style id="track"><LineStyle><color>ff217191</color><width>4</width></LineStyle></Style><Placemark><name>Elantxobe · верхняя парковка</name><Point><coordinates>-2.63827,43.403139</coordinates></Point></Placemark><Placemark><name>Elantxobe · вид на гавань</name><Point><coordinates>-2.6398,43.4052</coordinates></Point></Placemark><Placemark><name>Ogoño · вершина над пляжем</name><Point><coordinates>-2.644944,43.408767</coordinates></Point></Placemark><Placemark><name>Ogoño Lurmuturra · морской утёс</name><Point><coordinates>-2.648583,43.414244</coordinates></Point></Placemark><Placemark><name>Ogoño · морской утёс над пляжем Laga</name><description>Планировочная реконструкция по OpenStreetMap, 14.09.2026. Не запись GPS и не проверенный навигационный трек. Высоты не экспортированы. Данные © OpenStreetMap contributors, ODbL. Автопереезды и канатки в пеший трек не включены.</description><styleUrl>#track</styleUrl><LineString><tessellate>1</tessellate><altitudeMode>clampToGround</altitudeMode><coordinates>-2.638223,43.403146,0 -2.638307,43.403436,0 -2.638332,43.403486,0 -2.638401,43.403526,0 -2.63845,43.403471,0 -2.638456,43.403463,0 -2.638497,43.403339,0 -2.638505,43.403275,0 -2.638559,43.403276,0 -2.63862,43.403282,0 -2.63862,43.403298,0 -2.63862,43.403304,0 -2.638688,43.403309,0 -2.638689,43.403249,0 -2.638749,43.403322,0 -2.63877,43.403315,0 -2.638807,43.403404,0 -2.638805,43.403368,0 -2.638836,43.40328,0 -2.638884,43.403407,0 -2.638916,43.403428,0 -2.638987,43.403433,0 -2.639473,43.403594,0 -2.639573,43.403526,0 -2.639751,43.403399,0 -2.639778,43.40338,0 -2.639894,43.403244,0 -2.639947,43.403139,0 -2.639943,43.403055,0 -2.640018,43.40304,0 -2.640177,43.403043,0 -2.640247,43.403028,0 -2.640423,43.402972,0 -2.640588,43.402939,0 -2.640616,43.402908,0 -2.640612,43.402885,0 -2.64072,43.402826,0 -2.640803,43.402549,0 -2.640825,43.402544,0 -2.640844,43.402596,0 -2.640923,43.402712,0 -2.640976,43.402758,0 -2.641017,43.402808,0 -2.641031,43.402862,0 -2.641037,43.402908,0 -2.640957,43.403028,0 -2.640916,43.403129,0 -2.640814,43.40315,0 -2.640784,43.403195,0 -2.640728,43.403405,0 -2.640757,43.403654,0 -2.64082,43.403777,0 -2.640831,43.403942,0 -2.640791,43.404064,0 -2.640819,43.404139,0 -2.640747,43.404346,0 -2.640745,43.404459,0 -2.640793,43.404525,0 -2.640815,43.40465,0 -2.640746,43.404742,0 -2.640685,43.404852,0 -2.640575,43.404963,0 -2.64058,43.405015,0 -2.640606,43.405074,0 -2.640653,43.405264,0 -2.640624,43.405317,0 -2.640487,43.405342,0 -2.64038,43.405384,0 -2.640354,43.405473,0 -2.640403,43.40562,0 -2.640477,43.405577,0 -2.640578,43.405552,0 -2.640715,43.40553,0 -2.640822,43.405523,0 -2.640994,43.405529,0 -2.641128,43.405589,0 -2.641459,43.405795,0 -2.641461,43.405732,0 -2.641434,43.405648,0 -2.641431,43.40556,0 -2.64145,43.405478,0 -2.641429,43.405363,0 -2.64142,43.405252,0 -2.641431,43.404993,0 -2.641429,43.404814,0 -2.641445,43.404775,0 -2.641498,43.404796,0 -2.641702,43.405014,0 -2.641737,43.405014,0 -2.641812,43.405014,0 -2.641801,43.404983,0 -2.641833,43.404931,0 -2.641945,43.404793,0 -2.642056,43.404671,0 -2.642147,43.404549,0 -2.642233,43.40476,0 -2.642389,43.405022,0 -2.642539,43.405156,0 -2.642743,43.405324,0 -2.642863,43.405407,0 -2.643086,43.405479,0 -2.643202,43.40548,0 -2.6434,43.40546,0 -2.643585,43.405514,0 -2.643944,43.405725,0 -2.644288,43.405999,0 -2.644727,43.406385,0 -2.644917,43.40649,0 -2.645231,43.406582,0 -2.645599,43.406707,0 -2.645913,43.406843,0 -2.646267,43.407071,0 -2.646126,43.407237,0 -2.646103,43.407289,0 -2.646171,43.407437,0 -2.646324,43.407552,0 -2.64651,43.407728,0 -2.646611,43.407807,0 -2.646747,43.407953,0 -2.646863,43.408115,0 -2.64692,43.408248,0 -2.646911,43.408294,0 -2.647019,43.40866,0 -2.647066,43.408884,0 -2.647145,43.409117,0 -2.647198,43.409357,0 -2.647054,43.409359,0 -2.646914,43.409386,0 -2.646826,43.409443,0 -2.64673,43.409474,0 -2.646578,43.409494,0 -2.646242,43.409641,0 -2.646168,43.409718,0 -2.646033,43.409759,0 -2.645923,43.409775,0 -2.645789,43.409759,0 -2.645697,43.409718,0 -2.645591,43.409685,0 -2.645562,43.409638,0 -2.645577,43.409584,0 -2.645538,43.409541,0 -2.645483,43.409462,0 -2.645485,43.409378,0 -2.645389,43.40934,0 -2.645308,43.409266,0 -2.645227,43.409173,0 -2.645201,43.409124,0 -2.64509,43.408988,0 -2.645057,43.408915,0 -2.645003,43.40889,0 -2.644922,43.408808,0 -2.644912,43.408772,0 -2.644922,43.408808,0 -2.645003,43.40889,0 -2.645057,43.408915,0 -2.64509,43.408988,0 -2.645201,43.409124,0 -2.645227,43.409173,0 -2.645308,43.409266,0 -2.645389,43.40934,0 -2.645485,43.409378,0 -2.645483,43.409462,0 -2.645538,43.409541,0 -2.645577,43.409584,0 -2.645562,43.409638,0 -2.645591,43.409685,0 -2.645697,43.409718,0 -2.645789,43.409759,0 -2.645923,43.409775,0 -2.646033,43.409759,0 -2.646168,43.409718,0 -2.646242,43.409641,0 -2.646578,43.409494,0 -2.64673,43.409474,0 -2.646826,43.409443,0 -2.646914,43.409386,0 -2.647054,43.409359,0 -2.647198,43.409357,0 -2.64722,43.409528,0 -2.647214,43.409703,0 -2.647479,43.41022,0 -2.647552,43.410367,0 -2.64758,43.410523,0 -2.647637,43.410631,0 -2.647639,43.410655,0 -2.647568,43.410761,0 -2.647504,43.410885,0 -2.647462,43.410975,0 -2.647444,43.411083,0 -2.647453,43.411223,0 -2.647437,43.411339,0 -2.647362,43.411723,0 -2.647398,43.411779,0 -2.647577,43.411996,0 -2.647649,43.412055,0 -2.647677,43.412147,0 -2.647871,43.412351,0 -2.647949,43.41249,0 -2.648143,43.412711,0 -2.648225,43.412795,0 -2.648199,43.412912,0 -2.6483,43.412968,0 -2.64837,43.413079,0 -2.648515,43.413153,0 -2.648655,43.413365,0 -2.648676,43.413661,0 -2.648655,43.413766,0 -2.648671,43.413871,0 -2.648647,43.413904,0 -2.648583,43.414244,0 -2.648647,43.413904,0 -2.648671,43.413871,0 -2.648655,43.413766,0 -2.648676,43.413661,0 -2.648655,43.413365,0 -2.648515,43.413153,0 -2.64837,43.413079,0 -2.6483,43.412968,0 -2.648199,43.412912,0 -2.648225,43.412795,0 -2.648143,43.412711,0 -2.647949,43.41249,0 -2.647871,43.412351,0 -2.647677,43.412147,0 -2.647649,43.412055,0 -2.647577,43.411996,0 -2.647398,43.411779,0 -2.647362,43.411723,0 -2.647437,43.411339,0 -2.647453,43.411223,0 -2.647444,43.411083,0 -2.647462,43.410975,0 -2.647504,43.410885,0 -2.647568,43.410761,0 -2.647639,43.410655,0 -2.647637,43.410631,0 -2.64758,43.410523,0 -2.647552,43.410367,0 -2.647479,43.41022,0 -2.647214,43.409703,0 -2.64722,43.409528,0 -2.647198,43.409357,0 -2.647054,43.409359,0 -2.646914,43.409386,0 -2.646826,43.409443,0 -2.64673,43.409474,0 -2.646578,43.409494,0 -2.646242,43.409641,0 -2.646168,43.409718,0 -2.646033,43.409759,0 -2.645923,43.409775,0 -2.645789,43.409759,0 -2.645697,43.409718,0 -2.645591,43.409685,0 -2.645562,43.409638,0 -2.645577,43.409584,0 -2.645538,43.409541,0 -2.645483,43.409462,0 -2.645485,43.409378,0 -2.645389,43.40934,0 -2.645308,43.409266,0 -2.645227,43.409173,0 -2.645201,43.409124,0 -2.64509,43.408988,0 -2.645057,43.408915,0 -2.645003,43.40889,0 -2.644922,43.408808,0 -2.644912,43.408772,0 -2.644922,43.408808,0 -2.645003,43.40889,0 -2.645057,43.408915,0 -2.64509,43.408988,0 -2.645201,43.409124,0 -2.645227,43.409173,0 -2.645308,43.409266,0 -2.645389,43.40934,0 -2.645485,43.409378,0 -2.645483,43.409462,0 -2.645538,43.409541,0 -2.645577,43.409584,0 -2.645562,43.409638,0 -2.645591,43.409685,0 -2.645697,43.409718,0 -2.645789,43.409759,0 -2.645923,43.409775,0 -2.646033,43.409759,0 -2.646168,43.409718,0 -2.646242,43.409641,0 -2.646578,43.409494,0 -2.64673,43.409474,0 -2.646826,43.409443,0 -2.646914,43.409386,0 -2.647054,43.409359,0 -2.647198,43.409357,0 -2.647145,43.409117,0 -2.647066,43.408884,0 -2.647019,43.40866,0 -2.646911,43.408294,0 -2.64692,43.408248,0 -2.646863,43.408115,0 -2.646747,43.407953,0 -2.646611,43.407807,0 -2.64651,43.407728,0 -2.646324,43.407552,0 -2.646171,43.407437,0 -2.646103,43.407289,0 -2.646126,43.407237,0 -2.646267,43.407071,0 -2.645913,43.406843,0 -2.645599,43.406707,0 -2.645231,43.406582,0 -2.644917,43.40649,0 -2.644727,43.406385,0 -2.644288,43.405999,0 -2.643944,43.405725,0 -2.643585,43.405514,0 -2.6434,43.40546,0 -2.643202,43.40548,0 -2.643086,43.405479,0 -2.642863,43.405407,0 -2.642743,43.405324,0 -2.642539,43.405156,0 -2.642389,43.405022,0 -2.642233,43.40476,0 -2.642147,43.404549,0 -2.642056,43.404671,0 -2.641945,43.404793,0 -2.641833,43.404931,0 -2.641801,43.404983,0 -2.641812,43.405014,0 -2.641737,43.405014,0 -2.641702,43.405014,0 -2.641498,43.404796,0 -2.641445,43.404775,0 -2.641429,43.404814,0 -2.641431,43.404993,0 -2.64142,43.405252,0 -2.641429,43.405363,0 -2.64145,43.405478,0 -2.641431,43.40556,0 -2.641434,43.405648,0 -2.641461,43.405732,0 -2.641459,43.405795,0 -2.641128,43.405589,0 -2.640994,43.405529,0 -2.640822,43.405523,0 -2.640715,43.40553,0 -2.640578,43.405552,0 -2.640477,43.405577,0 -2.640403,43.40562,0 -2.640354,43.405473,0 -2.64038,43.405384,0 -2.640487,43.405342,0 -2.640624,43.405317,0 -2.640653,43.405264,0 -2.640606,43.405074,0 -2.64058,43.405015,0 -2.640575,43.404963,0 -2.640685,43.404852,0 -2.640746,43.404742,0 -2.640815,43.40465,0 -2.640793,43.404525,0 -2.640745,43.404459,0 -2.640747,43.404346,0 -2.640819,43.404139,0 -2.640791,43.404064,0 -2.640831,43.403942,0 -2.64082,43.403777,0 -2.640757,43.403654,0 -2.640728,43.403405,0 -2.640784,43.403195,0 -2.640814,43.40315,0 -2.640916,43.403129,0 -2.640957,43.403028,0 -2.641037,43.402908,0 -2.641031,43.402862,0 -2.641017,43.402808,0 -2.640976,43.402758,0 -2.640923,43.402712,0 -2.640844,43.402596,0 -2.640825,43.402544,0 -2.640803,43.402549,0 -2.64072,43.402826,0 -2.640612,43.402885,0 -2.640616,43.402908,0 -2.640588,43.402939,0 -2.640423,43.402972,0 -2.640247,43.403028,0 -2.640177,43.403043,0 -2.640018,43.40304,0 -2.639943,43.403055,0 -2.639947,43.403139,0 -2.639894,43.403244,0 -2.639778,43.40338,0 -2.639751,43.403399,0 -2.639573,43.403526,0 -2.639473,43.403594,0 -2.638987,43.403433,0 -2.638916,43.403428,0 -2.638884,43.403407,0 -2.638836,43.40328,0 -2.638805,43.403368,0 -2.638807,43.403404,0 -2.63877,43.403315,0 -2.638749,43.403322,0 -2.638689,43.403249,0 -2.638688,43.403309,0 -2.63862,43.403304,0 -2.63862,43.403298,0 -2.63862,43.403282,0 -2.638559,43.403276,0 -2.638505,43.403275,0 -2.638497,43.403339,0 -2.638456,43.403463,0 -2.63845,43.403471,0 -2.638401,43.403526,0 -2.638332,43.403486,0 -2.638307,43.403436,0 -2.638223,43.403146,0</coordinates></LineString></Placemark></Document></kml>