<?xml version="1.0" encoding="UTF-8"?><gpx version="1.1" creator="Basque Hikes Atlas" xmlns="http://www.topografix.com/GPX/1/1"><metadata><name>Atxarre · смотровая над эстуарием Urdaibai</name><desc>Планировочная реконструкция по OpenStreetMap, 14.09.2026. Не запись GPS и не проверенный навигационный трек. Высоты не экспортированы. Данные © OpenStreetMap contributors, ODbL. Автопереезды и канатки в пеший трек не включены.</desc><link href="https://www.openstreetmap.org/copyright"><text>OpenStreetMap contributors · ODbL</text></link></metadata><wpt lat="43.389152" lon="-2.680924"><name>Kanala · начало подъёма · старт прогулки</name></wpt><wpt lat="43.3965088" lon="-2.6710269"><name>Atxarre · вид на Urdaibai · смотровая площадка</name></wpt><wpt lat="43.3965088" lon="-2.6710269"><name>San Pedro de Atxarre · часовня у смотровой</name></wpt><trk><name>Atxarre · панорама эстуария Urdaibai</name><desc>Планировочная реконструкция по OpenStreetMap, 14.09.2026. Не запись GPS и не проверенный навигационный трек. Высоты не экспортированы. Данные © OpenStreetMap contributors, ODbL. Автопереезды и канатки в пеший трек не включены.</desc><type>hiking</type><trkseg><trkpt lat="43.389152" lon="-2.680924"/><trkpt lat="43.38889" lon="-2.680778"/><trkpt lat="43.38861" lon="-2.680589"/><trkpt lat="43.387984" lon="-2.680102"/><trkpt lat="43.387546" lon="-2.679748"/><trkpt lat="43.38667" lon="-2.679086"/><trkpt lat="43.38652" lon="-2.678985"/><trkpt lat="43.386415" lon="-2.678907"/><trkpt lat="43.386454" lon="-2.678787"/><trkpt lat="43.386471" lon="-2.678734"/><trkpt lat="43.386488" lon="-2.678704"/><trkpt lat="43.386539" lon="-2.67863"/><trkpt lat="43.386579" lon="-2.678596"/><trkpt lat="43.386647" lon="-2.678552"/><trkpt lat="43.38684" lon="-2.678475"/><trkpt lat="43.386943" lon="-2.678413"/><trkpt lat="43.387045" lon="-2.678328"/><trkpt lat="43.387122" lon="-2.678244"/><trkpt lat="43.387164" lon="-2.678187"/><trkpt lat="43.387199" lon="-2.678155"/><trkpt lat="43.387242" lon="-2.678137"/><trkpt lat="43.387289" lon="-2.678132"/><trkpt lat="43.387336" lon="-2.678142"/><trkpt lat="43.387394" lon="-2.678177"/><trkpt lat="43.387448" lon="-2.678216"/><trkpt lat="43.387556" lon="-2.678321"/><trkpt lat="43.387922" lon="-2.67871"/><trkpt lat="43.388185" lon="-2.678888"/><trkpt lat="43.388301" lon="-2.678979"/><trkpt lat="43.38848" lon="-2.679088"/><trkpt lat="43.388463" lon="-2.679001"/><trkpt lat="43.38842" lon="-2.678893"/><trkpt lat="43.388384" lon="-2.678767"/><trkpt lat="43.388388" lon="-2.678628"/><trkpt lat="43.388523" lon="-2.678289"/><trkpt lat="43.388673" lon="-2.678088"/><trkpt lat="43.388703" lon="-2.678006"/><trkpt lat="43.388841" lon="-2.677488"/><trkpt lat="43.388842" lon="-2.677414"/><trkpt lat="43.388793" lon="-2.677257"/><trkpt lat="43.388784" lon="-2.67709"/><trkpt lat="43.388788" lon="-2.676791"/><trkpt lat="43.388822" lon="-2.676677"/><trkpt lat="43.388868" lon="-2.676695"/><trkpt lat="43.388984" lon="-2.676669"/><trkpt lat="43.389166" lon="-2.676567"/><trkpt lat="43.389341" lon="-2.676481"/><trkpt lat="43.389404" lon="-2.676391"/><trkpt lat="43.389542" lon="-2.67606"/><trkpt lat="43.389573" lon="-2.675931"/><trkpt lat="43.38961" lon="-2.675816"/><trkpt lat="43.389758" lon="-2.6756"/><trkpt lat="43.389802" lon="-2.675559"/><trkpt lat="43.389918" lon="-2.675521"/><trkpt lat="43.390156" lon="-2.675425"/><trkpt lat="43.3903" lon="-2.675323"/><trkpt lat="43.390735" lon="-2.674993"/><trkpt lat="43.390842" lon="-2.674802"/><trkpt lat="43.390942" lon="-2.674356"/><trkpt lat="43.390962" lon="-2.674148"/><trkpt lat="43.390958" lon="-2.673864"/><trkpt lat="43.390923" lon="-2.673468"/><trkpt lat="43.390916" lon="-2.67331"/><trkpt lat="43.390887" lon="-2.673136"/><trkpt lat="43.390823" lon="-2.672981"/><trkpt lat="43.390763" lon="-2.672901"/><trkpt lat="43.39071" lon="-2.672756"/><trkpt lat="43.390566" lon="-2.672307"/><trkpt lat="43.390518" lon="-2.672124"/><trkpt lat="43.390529" lon="-2.671901"/><trkpt lat="43.390576" lon="-2.67164"/><trkpt lat="43.390658" lon="-2.671444"/><trkpt lat="43.39074" lon="-2.671117"/><trkpt lat="43.390783" lon="-2.671017"/><trkpt lat="43.391086" lon="-2.670595"/><trkpt lat="43.391185" lon="-2.67035"/><trkpt lat="43.391271" lon="-2.670195"/><trkpt lat="43.391523" lon="-2.669779"/><trkpt lat="43.391698" lon="-2.669366"/><trkpt lat="43.391745" lon="-2.669199"/><trkpt lat="43.391767" lon="-2.669053"/><trkpt lat="43.391773" lon="-2.668722"/><trkpt lat="43.39181" lon="-2.668507"/><trkpt lat="43.391874" lon="-2.668369"/><trkpt lat="43.391938" lon="-2.668139"/><trkpt lat="43.391932" lon="-2.667852"/><trkpt lat="43.391952" lon="-2.667687"/><trkpt lat="43.39197" lon="-2.667654"/><trkpt lat="43.392102" lon="-2.667512"/><trkpt lat="43.392567" lon="-2.666767"/><trkpt lat="43.392692" lon="-2.666638"/><trkpt lat="43.392915" lon="-2.666363"/><trkpt lat="43.392973" lon="-2.666206"/><trkpt lat="43.393047" lon="-2.666107"/><trkpt lat="43.393173" lon="-2.665825"/><trkpt lat="43.393332" lon="-2.665621"/><trkpt lat="43.3934" lon="-2.66555"/><trkpt lat="43.393618" lon="-2.665369"/><trkpt lat="43.393701" lon="-2.665328"/><trkpt lat="43.393761" lon="-2.665242"/><trkpt lat="43.39379" lon="-2.665146"/><trkpt lat="43.393874" lon="-2.66473"/><trkpt lat="43.393946" lon="-2.664671"/><trkpt lat="43.394034" lon="-2.664636"/><trkpt lat="43.394096" lon="-2.664553"/><trkpt lat="43.394117" lon="-2.664503"/><trkpt lat="43.39414" lon="-2.664611"/><trkpt lat="43.394292" lon="-2.665015"/><trkpt lat="43.39445" lon="-2.665517"/><trkpt lat="43.394446" lon="-2.665715"/><trkpt lat="43.394403" lon="-2.665968"/><trkpt lat="43.394414" lon="-2.666157"/><trkpt lat="43.394451" lon="-2.666352"/><trkpt lat="43.394473" lon="-2.666534"/><trkpt lat="43.394543" lon="-2.666675"/><trkpt lat="43.394618" lon="-2.66675"/><trkpt lat="43.394691" lon="-2.666903"/><trkpt lat="43.394761" lon="-2.667112"/><trkpt lat="43.394763" lon="-2.667172"/><trkpt lat="43.394744" lon="-2.667352"/><trkpt lat="43.394777" lon="-2.667612"/><trkpt lat="43.394847" lon="-2.667832"/><trkpt lat="43.39493" lon="-2.668022"/><trkpt lat="43.394976" lon="-2.6681"/><trkpt lat="43.395056" lon="-2.668203"/><trkpt lat="43.395206" lon="-2.668457"/><trkpt lat="43.395258" lon="-2.668492"/><trkpt lat="43.395336" lon="-2.668626"/><trkpt lat="43.395487" lon="-2.668715"/><trkpt lat="43.395609" lon="-2.66884"/><trkpt lat="43.395841" lon="-2.669117"/><trkpt lat="43.395898" lon="-2.669208"/><trkpt lat="43.395947" lon="-2.669342"/><trkpt lat="43.395952" lon="-2.669516"/><trkpt lat="43.395946" lon="-2.669614"/><trkpt lat="43.395954" lon="-2.669768"/><trkpt lat="43.395939" lon="-2.670023"/><trkpt lat="43.395912" lon="-2.670285"/><trkpt lat="43.395916" lon="-2.670437"/><trkpt lat="43.39594" lon="-2.670546"/><trkpt lat="43.395987" lon="-2.67061"/><trkpt lat="43.396003" lon="-2.670678"/><trkpt lat="43.395999" lon="-2.670765"/><trkpt lat="43.396014" lon="-2.670801"/><trkpt lat="43.396155" lon="-2.670835"/><trkpt lat="43.396247" lon="-2.670842"/><trkpt lat="43.396272" lon="-2.6709"/><trkpt lat="43.396303" lon="-2.671032"/><trkpt lat="43.396342" lon="-2.671103"/><trkpt lat="43.396354" lon="-2.671136"/><trkpt lat="43.396397" lon="-2.671197"/><trkpt lat="43.396445" lon="-2.671243"/><trkpt lat="43.396479" lon="-2.671253"/><trkpt lat="43.396537" lon="-2.671077"/><trkpt lat="43.396544" lon="-2.671042"/><trkpt lat="43.396537" lon="-2.671077"/><trkpt lat="43.396479" lon="-2.671253"/><trkpt lat="43.396445" lon="-2.671243"/><trkpt lat="43.396397" lon="-2.671197"/><trkpt lat="43.396354" lon="-2.671136"/><trkpt lat="43.396342" lon="-2.671103"/><trkpt lat="43.396303" lon="-2.671032"/><trkpt lat="43.396272" lon="-2.6709"/><trkpt lat="43.396247" lon="-2.670842"/><trkpt lat="43.396155" lon="-2.670835"/><trkpt lat="43.396014" lon="-2.670801"/><trkpt lat="43.395999" lon="-2.670765"/><trkpt lat="43.396003" lon="-2.670678"/><trkpt lat="43.395987" lon="-2.67061"/><trkpt lat="43.39594" lon="-2.670546"/><trkpt lat="43.395916" lon="-2.670437"/><trkpt lat="43.395912" lon="-2.670285"/><trkpt lat="43.395939" lon="-2.670023"/><trkpt lat="43.395954" lon="-2.669768"/><trkpt lat="43.395946" lon="-2.669614"/><trkpt lat="43.395952" lon="-2.669516"/><trkpt lat="43.395947" lon="-2.669342"/><trkpt lat="43.395898" lon="-2.669208"/><trkpt lat="43.395841" lon="-2.669117"/><trkpt lat="43.395609" lon="-2.66884"/><trkpt lat="43.395487" lon="-2.668715"/><trkpt lat="43.395336" lon="-2.668626"/><trkpt lat="43.395258" lon="-2.668492"/><trkpt lat="43.395206" lon="-2.668457"/><trkpt lat="43.395056" lon="-2.668203"/><trkpt lat="43.394976" lon="-2.6681"/><trkpt lat="43.39493" lon="-2.668022"/><trkpt lat="43.394847" lon="-2.667832"/><trkpt lat="43.394777" lon="-2.667612"/><trkpt lat="43.394744" lon="-2.667352"/><trkpt lat="43.394763" lon="-2.667172"/><trkpt lat="43.394761" lon="-2.667112"/><trkpt lat="43.394691" lon="-2.666903"/><trkpt lat="43.394618" lon="-2.66675"/><trkpt lat="43.394543" lon="-2.666675"/><trkpt lat="43.394473" lon="-2.666534"/><trkpt lat="43.394451" lon="-2.666352"/><trkpt lat="43.394414" lon="-2.666157"/><trkpt lat="43.394403" lon="-2.665968"/><trkpt lat="43.394446" lon="-2.665715"/><trkpt lat="43.39445" lon="-2.665517"/><trkpt lat="43.394292" lon="-2.665015"/><trkpt lat="43.39414" lon="-2.664611"/><trkpt lat="43.394117" lon="-2.664503"/><trkpt lat="43.394096" lon="-2.664553"/><trkpt lat="43.394034" lon="-2.664636"/><trkpt lat="43.393946" lon="-2.664671"/><trkpt lat="43.393874" lon="-2.66473"/><trkpt lat="43.39379" lon="-2.665146"/><trkpt lat="43.393761" lon="-2.665242"/><trkpt lat="43.393701" lon="-2.665328"/><trkpt lat="43.393618" lon="-2.665369"/><trkpt lat="43.3934" lon="-2.66555"/><trkpt lat="43.393332" lon="-2.665621"/><trkpt lat="43.393173" lon="-2.665825"/><trkpt lat="43.393047" lon="-2.666107"/><trkpt lat="43.392973" lon="-2.666206"/><trkpt lat="43.392915" lon="-2.666363"/><trkpt lat="43.392692" lon="-2.666638"/><trkpt lat="43.392567" lon="-2.666767"/><trkpt lat="43.392102" lon="-2.667512"/><trkpt lat="43.39197" lon="-2.667654"/><trkpt lat="43.391952" lon="-2.667687"/><trkpt lat="43.391932" lon="-2.667852"/><trkpt lat="43.391938" lon="-2.668139"/><trkpt lat="43.391874" lon="-2.668369"/><trkpt lat="43.39181" lon="-2.668507"/><trkpt lat="43.391773" lon="-2.668722"/><trkpt lat="43.391767" lon="-2.669053"/><trkpt lat="43.391745" lon="-2.669199"/><trkpt lat="43.391698" lon="-2.669366"/><trkpt lat="43.391523" lon="-2.669779"/><trkpt lat="43.391271" lon="-2.670195"/><trkpt lat="43.391185" lon="-2.67035"/><trkpt lat="43.391086" lon="-2.670595"/><trkpt lat="43.390783" lon="-2.671017"/><trkpt lat="43.39074" lon="-2.671117"/><trkpt lat="43.390658" lon="-2.671444"/><trkpt lat="43.390576" lon="-2.67164"/><trkpt lat="43.390529" lon="-2.671901"/><trkpt lat="43.390518" lon="-2.672124"/><trkpt lat="43.390566" lon="-2.672307"/><trkpt lat="43.39071" lon="-2.672756"/><trkpt lat="43.390763" lon="-2.672901"/><trkpt lat="43.390823" lon="-2.672981"/><trkpt lat="43.390887" lon="-2.673136"/><trkpt lat="43.390916" lon="-2.67331"/><trkpt lat="43.390923" lon="-2.673468"/><trkpt lat="43.390958" lon="-2.673864"/><trkpt lat="43.390962" lon="-2.674148"/><trkpt lat="43.390942" lon="-2.674356"/><trkpt lat="43.390842" lon="-2.674802"/><trkpt lat="43.390735" lon="-2.674993"/><trkpt lat="43.3903" lon="-2.675323"/><trkpt lat="43.390156" lon="-2.675425"/><trkpt lat="43.389918" lon="-2.675521"/><trkpt lat="43.389802" lon="-2.675559"/><trkpt lat="43.389758" lon="-2.6756"/><trkpt lat="43.38961" lon="-2.675816"/><trkpt lat="43.389573" lon="-2.675931"/><trkpt lat="43.389542" lon="-2.67606"/><trkpt lat="43.389404" lon="-2.676391"/><trkpt lat="43.389341" lon="-2.676481"/><trkpt lat="43.389166" lon="-2.676567"/><trkpt lat="43.388984" lon="-2.676669"/><trkpt lat="43.388868" lon="-2.676695"/><trkpt lat="43.388822" lon="-2.676677"/><trkpt lat="43.388788" lon="-2.676791"/><trkpt lat="43.388784" lon="-2.67709"/><trkpt lat="43.388793" lon="-2.677257"/><trkpt lat="43.388842" lon="-2.677414"/><trkpt lat="43.388841" lon="-2.677488"/><trkpt lat="43.388703" lon="-2.678006"/><trkpt lat="43.388673" lon="-2.678088"/><trkpt lat="43.388523" lon="-2.678289"/><trkpt lat="43.388388" lon="-2.678628"/><trkpt lat="43.388384" lon="-2.678767"/><trkpt lat="43.38842" lon="-2.678893"/><trkpt lat="43.388463" lon="-2.679001"/><trkpt lat="43.38848" lon="-2.679088"/><trkpt lat="43.388301" lon="-2.678979"/><trkpt lat="43.388185" lon="-2.678888"/><trkpt lat="43.387922" lon="-2.67871"/><trkpt lat="43.387556" lon="-2.678321"/><trkpt lat="43.387448" lon="-2.678216"/><trkpt lat="43.387394" lon="-2.678177"/><trkpt lat="43.387336" lon="-2.678142"/><trkpt lat="43.387289" lon="-2.678132"/><trkpt lat="43.387242" lon="-2.678137"/><trkpt lat="43.387199" lon="-2.678155"/><trkpt lat="43.387164" lon="-2.678187"/><trkpt lat="43.387122" lon="-2.678244"/><trkpt lat="43.387045" lon="-2.678328"/><trkpt lat="43.386943" lon="-2.678413"/><trkpt lat="43.38684" lon="-2.678475"/><trkpt lat="43.386647" lon="-2.678552"/><trkpt lat="43.386579" lon="-2.678596"/><trkpt lat="43.386539" lon="-2.67863"/><trkpt lat="43.386488" lon="-2.678704"/><trkpt lat="43.386471" lon="-2.678734"/><trkpt lat="43.386454" lon="-2.678787"/><trkpt lat="43.386415" lon="-2.678907"/><trkpt lat="43.38652" lon="-2.678985"/><trkpt lat="43.38667" lon="-2.679086"/><trkpt lat="43.387546" lon="-2.679748"/><trkpt lat="43.387984" lon="-2.680102"/><trkpt lat="43.38861" lon="-2.680589"/><trkpt lat="43.38889" lon="-2.680778"/><trkpt lat="43.389152" lon="-2.680924"/></trkseg></trk></gpx>