<?xml version="1.0" encoding="UTF-8"?><gpx version="1.1" creator="Basque Hikes Atlas" xmlns="http://www.topografix.com/GPX/1/1"><metadata><name>Urgull · крепость и панорама Сан-Себастьяна</name><desc>Планировочная реконструкция по OpenStreetMap, 14.09.2026. Не запись GPS и не проверенный навигационный трек. Высоты не экспортированы. Данные © OpenStreetMap contributors, ODbL. Автопереезды и канатки в пеший трек не включены.</desc><link href="https://www.openstreetmap.org/copyright"><text>OpenStreetMap contributors · ODbL</text></link></metadata><wpt lat="43.322679" lon="-1.982581"><name>Boulevard · подземная парковка</name></wpt><wpt lat="43.32452" lon="-1.98579"><name>San Telmo · музей у входа на холм</name></wpt><wpt lat="43.324958" lon="-1.988383"><name>La Mota · крепость на вершине</name></wpt><wpt lat="43.323958" lon="-1.99162"><name>Urgull · западная смотровая</name></wpt><trk><name>Urgull · крепость и панорама Сан-Себастьяна</name><desc>Планировочная реконструкция по OpenStreetMap, 14.09.2026. Не запись GPS и не проверенный навигационный трек. Высоты не экспортированы. Данные © OpenStreetMap contributors, ODbL. Автопереезды и канатки в пеший трек не включены.</desc><type>hiking</type><trkseg><trkpt lat="43.322679" lon="-1.982581"/><trkpt lat="43.32263" lon="-1.982722"/><trkpt lat="43.322686" lon="-1.982756"/><trkpt lat="43.322779" lon="-1.982816"/><trkpt lat="43.322815" lon="-1.982839"/><trkpt lat="43.322932" lon="-1.982887"/><trkpt lat="43.323087" lon="-1.982958"/><trkpt lat="43.323219" lon="-1.982996"/><trkpt lat="43.323246" lon="-1.983007"/><trkpt lat="43.323508" lon="-1.983105"/><trkpt lat="43.323592" lon="-1.983137"/><trkpt lat="43.323641" lon="-1.983138"/><trkpt lat="43.323973" lon="-1.983385"/><trkpt lat="43.324154" lon="-1.983516"/><trkpt lat="43.324449" lon="-1.983704"/><trkpt lat="43.324249" lon="-1.984408"/><trkpt lat="43.324534" lon="-1.984598"/><trkpt lat="43.324364" lon="-1.98497"/><trkpt lat="43.324268" lon="-1.985213"/><trkpt lat="43.324294" lon="-1.985233"/><trkpt lat="43.324509" lon="-1.985398"/><trkpt lat="43.32449" lon="-1.985444"/><trkpt lat="43.324356" lon="-1.985772"/><trkpt lat="43.324457" lon="-1.985891"/><trkpt lat="43.324356" lon="-1.985772"/><trkpt lat="43.32449" lon="-1.985444"/><trkpt lat="43.324509" lon="-1.985398"/><trkpt lat="43.324527" lon="-1.985352"/><trkpt lat="43.324692" lon="-1.984944"/><trkpt lat="43.324829" lon="-1.984628"/><trkpt lat="43.325185" lon="-1.984966"/><trkpt lat="43.32526" lon="-1.984854"/><trkpt lat="43.325272" lon="-1.984639"/><trkpt lat="43.325301" lon="-1.984625"/><trkpt lat="43.325338" lon="-1.984651"/><trkpt lat="43.325395" lon="-1.984689"/><trkpt lat="43.325484" lon="-1.984715"/><trkpt lat="43.32554" lon="-1.984629"/><trkpt lat="43.325594" lon="-1.984649"/><trkpt lat="43.32567" lon="-1.984679"/><trkpt lat="43.325703" lon="-1.984695"/><trkpt lat="43.325736" lon="-1.984595"/><trkpt lat="43.32589" lon="-1.984706"/><trkpt lat="43.326425" lon="-1.986579"/><trkpt lat="43.32589" lon="-1.984706"/><trkpt lat="43.325736" lon="-1.984595"/><trkpt lat="43.325703" lon="-1.984695"/><trkpt lat="43.32567" lon="-1.984679"/><trkpt lat="43.325594" lon="-1.984649"/><trkpt lat="43.32554" lon="-1.984629"/><trkpt lat="43.325484" lon="-1.984715"/><trkpt lat="43.325395" lon="-1.984689"/><trkpt lat="43.325534" lon="-1.984788"/><trkpt lat="43.325327" lon="-1.985206"/><trkpt lat="43.325181" lon="-1.985578"/><trkpt lat="43.324703" lon="-1.986471"/><trkpt lat="43.325427" lon="-1.985929"/><trkpt lat="43.325482" lon="-1.985894"/><trkpt lat="43.325533" lon="-1.985883"/><trkpt lat="43.32558" lon="-1.985895"/><trkpt lat="43.325628" lon="-1.98593"/><trkpt lat="43.325718" lon="-1.986036"/><trkpt lat="43.325736" lon="-1.98607"/><trkpt lat="43.325752" lon="-1.986119"/><trkpt lat="43.325802" lon="-1.986277"/><trkpt lat="43.325963" lon="-1.986781"/><trkpt lat="43.32607" lon="-1.987209"/><trkpt lat="43.326077" lon="-1.987421"/><trkpt lat="43.326038" lon="-1.987317"/><trkpt lat="43.325983" lon="-1.98723"/><trkpt lat="43.325916" lon="-1.98715"/><trkpt lat="43.325835" lon="-1.98708"/><trkpt lat="43.325761" lon="-1.987045"/><trkpt lat="43.325722" lon="-1.987046"/><trkpt lat="43.325597" lon="-1.986968"/><trkpt lat="43.325428" lon="-1.987355"/><trkpt lat="43.325263" lon="-1.98774"/><trkpt lat="43.325264" lon="-1.987764"/><trkpt lat="43.325227" lon="-1.987743"/><trkpt lat="43.325168" lon="-1.987826"/><trkpt lat="43.325104" lon="-1.987767"/><trkpt lat="43.325034" lon="-1.987866"/><trkpt lat="43.325021" lon="-1.987847"/><trkpt lat="43.325014" lon="-1.987863"/><trkpt lat="43.324965" lon="-1.988128"/><trkpt lat="43.32495" lon="-1.988174"/><trkpt lat="43.325054" lon="-1.988242"/><trkpt lat="43.325" lon="-1.98841"/><trkpt lat="43.325054" lon="-1.988242"/><trkpt lat="43.32495" lon="-1.988174"/><trkpt lat="43.324909" lon="-1.988303"/><trkpt lat="43.324734" lon="-1.988773"/><trkpt lat="43.324448" lon="-1.989507"/><trkpt lat="43.324407" lon="-1.989612"/><trkpt lat="43.324334" lon="-1.989852"/><trkpt lat="43.324319" lon="-1.9899"/><trkpt lat="43.324304" lon="-1.989949"/><trkpt lat="43.324293" lon="-1.989987"/><trkpt lat="43.324193" lon="-1.990532"/><trkpt lat="43.324164" lon="-1.990666"/><trkpt lat="43.324151" lon="-1.990727"/><trkpt lat="43.324115" lon="-1.990911"/><trkpt lat="43.324078" lon="-1.99109"/><trkpt lat="43.324031" lon="-1.991101"/><trkpt lat="43.324047" lon="-1.991159"/><trkpt lat="43.32404" lon="-1.991169"/><trkpt lat="43.32398" lon="-1.991259"/><trkpt lat="43.323929" lon="-1.991561"/><trkpt lat="43.32392" lon="-1.9916"/><trkpt lat="43.323946" lon="-1.991615"/><trkpt lat="43.32392" lon="-1.9916"/><trkpt lat="43.3239" lon="-1.991683"/><trkpt lat="43.324037" lon="-1.991751"/><trkpt lat="43.324028" lon="-1.991781"/><trkpt lat="43.323954" lon="-1.99174"/><trkpt lat="43.323949" lon="-1.991757"/><trkpt lat="43.323996" lon="-1.991781"/><trkpt lat="43.323992" lon="-1.991799"/><trkpt lat="43.323934" lon="-1.991771"/><trkpt lat="43.323914" lon="-1.99184"/><trkpt lat="43.323779" lon="-1.991717"/><trkpt lat="43.323764" lon="-1.991681"/><trkpt lat="43.323765" lon="-1.99165"/><trkpt lat="43.323777" lon="-1.991624"/><trkpt lat="43.32375" lon="-1.991563"/><trkpt lat="43.323728" lon="-1.991576"/><trkpt lat="43.323708" lon="-1.991553"/><trkpt lat="43.323686" lon="-1.991498"/><trkpt lat="43.323651" lon="-1.991281"/><trkpt lat="43.323635" lon="-1.991064"/><trkpt lat="43.323641" lon="-1.990806"/><trkpt lat="43.32368" lon="-1.990356"/><trkpt lat="43.323726" lon="-1.990096"/><trkpt lat="43.323836" lon="-1.989745"/><trkpt lat="43.323924" lon="-1.989407"/><trkpt lat="43.32402" lon="-1.989007"/><trkpt lat="43.323988" lon="-1.989085"/><trkpt lat="43.324043" lon="-1.988818"/><trkpt lat="43.323869" lon="-1.988985"/><trkpt lat="43.32392" lon="-1.988783"/><trkpt lat="43.32379" lon="-1.988918"/><trkpt lat="43.323809" lon="-1.988674"/><trkpt lat="43.323658" lon="-1.988886"/><trkpt lat="43.323659" lon="-1.988806"/><trkpt lat="43.323638" lon="-1.988744"/><trkpt lat="43.323737" lon="-1.988499"/><trkpt lat="43.323846" lon="-1.988137"/><trkpt lat="43.323856" lon="-1.987988"/><trkpt lat="43.323858" lon="-1.987952"/><trkpt lat="43.323587" lon="-1.987619"/><trkpt lat="43.323543" lon="-1.987588"/><trkpt lat="43.323547" lon="-1.987492"/><trkpt lat="43.323401" lon="-1.987369"/><trkpt lat="43.323098" lon="-1.987162"/><trkpt lat="43.323026" lon="-1.987348"/><trkpt lat="43.323399" lon="-1.987587"/><trkpt lat="43.323559" lon="-1.987724"/><trkpt lat="43.323609" lon="-1.987904"/><trkpt lat="43.323614" lon="-1.987958"/><trkpt lat="43.323554" lon="-1.988178"/><trkpt lat="43.323614" lon="-1.987958"/><trkpt lat="43.323609" lon="-1.987904"/><trkpt lat="43.323559" lon="-1.987724"/><trkpt lat="43.323399" lon="-1.987587"/><trkpt lat="43.323026" lon="-1.987348"/><trkpt lat="43.323098" lon="-1.987162"/><trkpt lat="43.32314" lon="-1.987012"/><trkpt lat="43.323348" lon="-1.986305"/><trkpt lat="43.322897" lon="-1.985959"/><trkpt lat="43.32253" lon="-1.985709"/><trkpt lat="43.322426" lon="-1.985638"/><trkpt lat="43.322117" lon="-1.98542"/><trkpt lat="43.322229" lon="-1.984979"/><trkpt lat="43.322492" lon="-1.983944"/><trkpt lat="43.322779" lon="-1.982816"/><trkpt lat="43.322686" lon="-1.982756"/><trkpt lat="43.32263" lon="-1.982722"/><trkpt lat="43.322679" lon="-1.982581"/></trkseg></trk></gpx>