<?xml version="1.0" encoding="UTF-8"?><kml xmlns="http://www.opengis.net/kml/2.2"><Document><name>Nervión · каньон со стороны Untza</name><description>Планировочная реконструкция по OpenStreetMap, 14.09.2026. Не запись GPS и не проверенный навигационный трек. Высоты не экспортированы. Данные © OpenStreetMap contributors, ODbL. Автопереезды и канатки в пеший трек не включены.</description><Style id="track"><LineStyle><color>ff296f62</color><width>4</width></LineStyle></Style><Placemark><name>Untza / Untzaga</name><Point><coordinates>-2.954773,42.97594</coordinates></Point></Placemark><Placemark><name>Каньон Nervión</name><Point><coordinates>-2.97,42.953</coordinates></Point></Placemark><Placemark><name>Nervión · восточная сторона</name><Point><coordinates>-2.9800659,42.9386405</coordinates></Point></Placemark><Placemark><name>Nervión · каньон со стороны Untza</name><description>Планировочная реконструкция по OpenStreetMap, 14.09.2026. Не запись GPS и не проверенный навигационный трек. Высоты не экспортированы. Данные © OpenStreetMap contributors, ODbL. Автопереезды и канатки в пеший трек не включены.</description><styleUrl>#track</styleUrl><LineString><tessellate>1</tessellate><altitudeMode>clampToGround</altitudeMode><coordinates>-2.954773,42.97594,0 -2.954942,42.975662,0 -2.955235,42.975181,0 -2.955528,42.974791,0 -2.955607,42.974623,0 -2.956237,42.973752,0 -2.956384,42.973598,0 -2.956527,42.973482,0 -2.956736,42.973373,0 -2.956934,42.973296,0 -2.957228,42.973201,0 -2.957812,42.972617,0 -2.958278,42.972141,0 -2.958436,42.972004,0 -2.958656,42.971775,0 -2.958828,42.971546,0 -2.95905,42.971223,0 -2.959154,42.970971,0 -2.959385,42.970424,0 -2.959754,42.969658,0 -2.960118,42.969039,0 -2.960189,42.968847,0 -2.960282,42.96869,0 -2.960443,42.968483,0 -2.960579,42.968374,0 -2.961485,42.967873,0 -2.96206,42.967606,0 -2.962456,42.967458,0 -2.962766,42.967354,0 -2.962871,42.967292,0 -2.963055,42.967126,0 -2.963416,42.966916,0 -2.963629,42.966775,0 -2.963776,42.96664,0 -2.963911,42.966563,0 -2.964012,42.966534,0 -2.964332,42.966465,0 -2.964823,42.966424,0 -2.965421,42.966186,0 -2.965517,42.966137,0 -2.965621,42.966083,0 -2.9658,42.965953,0 -2.965966,42.965731,0 -2.966053,42.965613,0 -2.966452,42.965207,0 -2.966726,42.965063,0 -2.9669,42.964913,0 -2.967144,42.964659,0 -2.96728,42.964406,0 -2.967679,42.963897,0 -2.968129,42.963258,0 -2.968397,42.962945,0 -2.96893,42.962117,0 -2.969083,42.961899,0 -2.969172,42.961719,0 -2.969271,42.961248,0 -2.969292,42.961098,0 -2.969271,42.960939,0 -2.969159,42.960655,0 -2.968873,42.960162,0 -2.968643,42.95987,0 -2.96859,42.959795,0 -2.968477,42.959567,0 -2.968373,42.959236,0 -2.968323,42.959004,0 -2.968379,42.958165,0 -2.968374,42.957696,0 -2.968461,42.957497,0 -2.968539,42.957363,0 -2.96868,42.957145,0 -2.968744,42.956862,0 -2.968703,42.956554,0 -2.968703,42.956193,0 -2.968691,42.956063,0 -2.96882,42.955882,0 -2.96909,42.955219,0 -2.969259,42.955003,0 -2.969326,42.954884,0 -2.969398,42.954699,0 -2.969623,42.954377,0 -2.969825,42.954063,0 -2.969995,42.953896,0 -2.970203,42.953747,0 -2.970593,42.953249,0 -2.970615,42.953221,0 -2.970756,42.953025,0 -2.970858,42.952648,0 -2.971019,42.952273,0 -2.971098,42.952035,0 -2.971115,42.951509,0 -2.971209,42.951307,0 -2.971206,42.951213,0 -2.971175,42.951102,0 -2.971169,42.950997,0 -2.971222,42.950761,0 -2.971244,42.950486,0 -2.971297,42.95029,0 -2.971255,42.950054,0 -2.971233,42.949795,0 -2.971319,42.949567,0 -2.971248,42.949421,0 -2.971176,42.949135,0 -2.971104,42.948627,0 -2.970994,42.948184,0 -2.971009,42.948012,0 -2.971007,42.947915,0 -2.9711,42.947729,0 -2.971124,42.947662,0 -2.971312,42.94748,0 -2.971328,42.947399,0 -2.971345,42.947219,0 -2.971382,42.947129,0 -2.971476,42.947052,0 -2.971585,42.946899,0 -2.971806,42.946748,0 -2.971878,42.946699,0 -2.972154,42.946422,0 -2.97223,42.946277,0 -2.972295,42.945985,0 -2.972352,42.94561,0 -2.972336,42.945348,0 -2.97233,42.944932,0 -2.97224,42.94479,0 -2.972253,42.944568,0 -2.972296,42.944373,0 -2.972316,42.94424,0 -2.972271,42.944066,0 -2.97222,42.94392,0 -2.972193,42.943818,0 -2.972194,42.943738,0 -2.972241,42.943621,0 -2.972261,42.943435,0 -2.972229,42.943244,0 -2.972151,42.94304,0 -2.971995,42.942896,0 -2.971775,42.942712,0 -2.971649,42.942557,0 -2.971621,42.942384,0 -2.971604,42.942277,0 -2.971777,42.942085,0 -2.97194,42.941941,0 -2.972005,42.941842,0 -2.972479,42.940796,0 -2.972577,42.940631,0 -2.973016,42.940143,0 -2.973247,42.939912,0 -2.973434,42.939697,0 -2.973785,42.939202,0 -2.973844,42.939118,0 -2.974322,42.93853,0 -2.974529,42.938224,0 -2.974593,42.938129,0 -2.974785,42.937946,0 -2.974959,42.937788,0 -2.975274,42.937435,0 -2.975416,42.93733,0 -2.975587,42.937255,0 -2.975881,42.93717,0 -2.976528,42.936914,0 -2.976766,42.936836,0 -2.976993,42.936799,0 -2.976989,42.936849,0 -2.977013,42.936965,0 -2.977186,42.936921,0 -2.977283,42.936909,0 -2.977376,42.936865,0 -2.977549,42.936854,0 -2.977654,42.936949,0 -2.977758,42.937019,0 -2.977903,42.937084,0 -2.978111,42.937188,0 -2.9783,42.937302,0 -2.97845,42.937331,0 -2.978557,42.937293,0 -2.978787,42.937225,0 -2.978936,42.937195,0 -2.979146,42.937178,0 -2.979349,42.937213,0 -2.979432,42.937241,0 -2.979649,42.937394,0 -2.979755,42.937409,0 -2.97997,42.937411,0 -2.980155,42.937485,0 -2.980254,42.937537,0 -2.980299,42.93758,0 -2.980533,42.93775,0 -2.980625,42.937876,0 -2.980723,42.938054,0 -2.980746,42.938268,0 -2.980723,42.938054,0 -2.980625,42.937876,0 -2.980533,42.93775,0 -2.980299,42.93758,0 -2.980254,42.937537,0 -2.980155,42.937485,0 -2.97997,42.937411,0 -2.979755,42.937409,0 -2.979649,42.937394,0 -2.979432,42.937241,0 -2.979349,42.937213,0 -2.979146,42.937178,0 -2.978936,42.937195,0 -2.978787,42.937225,0 -2.978557,42.937293,0 -2.97845,42.937331,0 -2.9783,42.937302,0 -2.978111,42.937188,0 -2.977903,42.937084,0 -2.977758,42.937019,0 -2.977654,42.936949,0 -2.977549,42.936854,0 -2.977376,42.936865,0 -2.977283,42.936909,0 -2.977186,42.936921,0 -2.977013,42.936965,0 -2.976989,42.936849,0 -2.976993,42.936799,0 -2.976766,42.936836,0 -2.976528,42.936914,0 -2.975881,42.93717,0 -2.975587,42.937255,0 -2.975416,42.93733,0 -2.975274,42.937435,0 -2.974959,42.937788,0 -2.974785,42.937946,0 -2.974593,42.938129,0 -2.974529,42.938224,0 -2.974322,42.93853,0 -2.973844,42.939118,0 -2.973785,42.939202,0 -2.973434,42.939697,0 -2.973247,42.939912,0 -2.973016,42.940143,0 -2.972577,42.940631,0 -2.972479,42.940796,0 -2.972005,42.941842,0 -2.97194,42.941941,0 -2.971777,42.942085,0 -2.971604,42.942277,0 -2.971621,42.942384,0 -2.971649,42.942557,0 -2.971775,42.942712,0 -2.971995,42.942896,0 -2.972151,42.94304,0 -2.972229,42.943244,0 -2.972261,42.943435,0 -2.972241,42.943621,0 -2.972194,42.943738,0 -2.972193,42.943818,0 -2.97222,42.94392,0 -2.972271,42.944066,0 -2.972316,42.94424,0 -2.972296,42.944373,0 -2.972253,42.944568,0 -2.97224,42.94479,0 -2.97233,42.944932,0 -2.972336,42.945348,0 -2.972352,42.94561,0 -2.972295,42.945985,0 -2.97223,42.946277,0 -2.972154,42.946422,0 -2.971878,42.946699,0 -2.971806,42.946748,0 -2.971585,42.946899,0 -2.971476,42.947052,0 -2.971382,42.947129,0 -2.971345,42.947219,0 -2.971328,42.947399,0 -2.971312,42.94748,0 -2.971124,42.947662,0 -2.9711,42.947729,0 -2.971007,42.947915,0 -2.971009,42.948012,0 -2.970994,42.948184,0 -2.971104,42.948627,0 -2.971176,42.949135,0 -2.971248,42.949421,0 -2.971319,42.949567,0 -2.971233,42.949795,0 -2.971255,42.950054,0 -2.971297,42.95029,0 -2.971244,42.950486,0 -2.971222,42.950761,0 -2.971169,42.950997,0 -2.971175,42.951102,0 -2.971206,42.951213,0 -2.971209,42.951307,0 -2.971115,42.951509,0 -2.971098,42.952035,0 -2.971019,42.952273,0 -2.970858,42.952648,0 -2.970756,42.953025,0 -2.970615,42.953221,0 -2.970593,42.953249,0 -2.970203,42.953747,0 -2.969995,42.953896,0 -2.969825,42.954063,0 -2.969623,42.954377,0 -2.969398,42.954699,0 -2.969326,42.954884,0 -2.969259,42.955003,0 -2.96909,42.955219,0 -2.96882,42.955882,0 -2.968691,42.956063,0 -2.968703,42.956193,0 -2.968703,42.956554,0 -2.968744,42.956862,0 -2.96868,42.957145,0 -2.968539,42.957363,0 -2.968461,42.957497,0 -2.968374,42.957696,0 -2.968379,42.958165,0 -2.968323,42.959004,0 -2.968373,42.959236,0 -2.968477,42.959567,0 -2.96859,42.959795,0 -2.968643,42.95987,0 -2.968873,42.960162,0 -2.969159,42.960655,0 -2.969271,42.960939,0 -2.969292,42.961098,0 -2.969271,42.961248,0 -2.969172,42.961719,0 -2.969083,42.961899,0 -2.96893,42.962117,0 -2.968397,42.962945,0 -2.968129,42.963258,0 -2.967679,42.963897,0 -2.96728,42.964406,0 -2.967144,42.964659,0 -2.9669,42.964913,0 -2.966726,42.965063,0 -2.966452,42.965207,0 -2.966053,42.965613,0 -2.965966,42.965731,0 -2.9658,42.965953,0 -2.965621,42.966083,0 -2.965517,42.966137,0 -2.965421,42.966186,0 -2.964823,42.966424,0 -2.964332,42.966465,0 -2.964012,42.966534,0 -2.963911,42.966563,0 -2.963776,42.96664,0 -2.963629,42.966775,0 -2.963416,42.966916,0 -2.963055,42.967126,0 -2.962871,42.967292,0 -2.962766,42.967354,0 -2.962456,42.967458,0 -2.96206,42.967606,0 -2.961485,42.967873,0 -2.960579,42.968374,0 -2.960443,42.968483,0 -2.960282,42.96869,0 -2.960189,42.968847,0 -2.960118,42.969039,0 -2.959754,42.969658,0 -2.959385,42.970424,0 -2.959154,42.970971,0 -2.95905,42.971223,0 -2.958828,42.971546,0 -2.958656,42.971775,0 -2.958436,42.972004,0 -2.958278,42.972141,0 -2.957812,42.972617,0 -2.957228,42.973201,0 -2.956934,42.973296,0 -2.956736,42.973373,0 -2.956527,42.973482,0 -2.956384,42.973598,0 -2.956237,42.973752,0 -2.955607,42.974623,0 -2.955528,42.974791,0 -2.955235,42.975181,0 -2.954942,42.975662,0 -2.954773,42.97594,0</coordinates></LineString></Placemark></Document></kml>