<?xml version="1.0" encoding="UTF-8"?><gpx version="1.1" creator="Basque Hikes Atlas" xmlns="http://www.topografix.com/GPX/1/1"><metadata><name>Valderejo · долина Purón и Ribera</name><desc>Планировочная реконструкция по OpenStreetMap, 14.09.2026. Не запись GPS и не проверенный навигационный трек. Высоты не экспортированы. Данные © OpenStreetMap contributors, ODbL. Автопереезды и канатки в пеший трек не включены.</desc><link href="https://www.openstreetmap.org/copyright"><text>OpenStreetMap contributors · ODbL</text></link></metadata><wpt lat="42.874663" lon="-3.231167"><name>Lalastra</name></wpt><wpt lat="42.843052" lon="-3.230843"><name>Purón · северная часть ущелья</name></wpt><trk><name>Valderejo · долина Purón и Ribera</name><desc>Планировочная реконструкция по OpenStreetMap, 14.09.2026. Не запись GPS и не проверенный навигационный трек. Высоты не экспортированы. Данные © OpenStreetMap contributors, ODbL. Автопереезды и канатки в пеший трек не включены.</desc><type>hiking</type><trkseg><trkpt lat="42.874663" lon="-3.231167"/><trkpt lat="42.87438" lon="-3.231257"/><trkpt lat="42.874286" lon="-3.23125"/><trkpt lat="42.874139" lon="-3.231195"/><trkpt lat="42.874048" lon="-3.231196"/><trkpt lat="42.87395" lon="-3.231271"/><trkpt lat="42.873711" lon="-3.231631"/><trkpt lat="42.87348" lon="-3.231958"/><trkpt lat="42.873327" lon="-3.232264"/><trkpt lat="42.873175" lon="-3.232746"/><trkpt lat="42.873122" lon="-3.232947"/><trkpt lat="42.873083" lon="-3.233195"/><trkpt lat="42.873023" lon="-3.233414"/><trkpt lat="42.872758" lon="-3.234134"/><trkpt lat="42.872723" lon="-3.234213"/><trkpt lat="42.872548" lon="-3.234382"/><trkpt lat="42.872345" lon="-3.234537"/><trkpt lat="42.872209" lon="-3.234615"/><trkpt lat="42.87209" lon="-3.234646"/><trkpt lat="42.871866" lon="-3.234608"/><trkpt lat="42.871606" lon="-3.234539"/><trkpt lat="42.871095" lon="-3.234312"/><trkpt lat="42.870793" lon="-3.234158"/><trkpt lat="42.86985" lon="-3.233763"/><trkpt lat="42.869706" lon="-3.233689"/><trkpt lat="42.869554" lon="-3.233572"/><trkpt lat="42.869418" lon="-3.233441"/><trkpt lat="42.869305" lon="-3.233298"/><trkpt lat="42.8692" lon="-3.233113"/><trkpt lat="42.869074" lon="-3.23285"/><trkpt lat="42.868496" lon="-3.231887"/><trkpt lat="42.868404" lon="-3.231751"/><trkpt lat="42.867995" lon="-3.231142"/><trkpt lat="42.867814" lon="-3.230903"/><trkpt lat="42.867705" lon="-3.230726"/><trkpt lat="42.867587" lon="-3.230471"/><trkpt lat="42.86745" lon="-3.230275"/><trkpt lat="42.866975" lon="-3.229696"/><trkpt lat="42.866928" lon="-3.229612"/><trkpt lat="42.866684" lon="-3.229117"/><trkpt lat="42.866383" lon="-3.228769"/><trkpt lat="42.865791" lon="-3.228434"/><trkpt lat="42.865687" lon="-3.228351"/><trkpt lat="42.865615" lon="-3.228304"/><trkpt lat="42.865489" lon="-3.228258"/><trkpt lat="42.86536" lon="-3.228239"/><trkpt lat="42.865013" lon="-3.228154"/><trkpt lat="42.864871" lon="-3.228083"/><trkpt lat="42.864636" lon="-3.228143"/><trkpt lat="42.864498" lon="-3.22825"/><trkpt lat="42.864393" lon="-3.228342"/><trkpt lat="42.864249" lon="-3.228491"/><trkpt lat="42.864038" lon="-3.22856"/><trkpt lat="42.863917" lon="-3.22856"/><trkpt lat="42.863734" lon="-3.228515"/><trkpt lat="42.863676" lon="-3.2285"/><trkpt lat="42.863432" lon="-3.228475"/><trkpt lat="42.863248" lon="-3.228376"/><trkpt lat="42.863105" lon="-3.22831"/><trkpt lat="42.862555" lon="-3.228074"/><trkpt lat="42.86218" lon="-3.227895"/><trkpt lat="42.861844" lon="-3.22776"/><trkpt lat="42.861767" lon="-3.227747"/><trkpt lat="42.861628" lon="-3.227763"/><trkpt lat="42.86135" lon="-3.227855"/><trkpt lat="42.860547" lon="-3.228874"/><trkpt lat="42.860474" lon="-3.229008"/><trkpt lat="42.860364" lon="-3.229174"/><trkpt lat="42.860217" lon="-3.229333"/><trkpt lat="42.860189" lon="-3.229387"/><trkpt lat="42.859844" lon="-3.230044"/><trkpt lat="42.859527" lon="-3.230561"/><trkpt lat="42.859395" lon="-3.230699"/><trkpt lat="42.859353" lon="-3.230742"/><trkpt lat="42.859328" lon="-3.230751"/><trkpt lat="42.859206" lon="-3.230758"/><trkpt lat="42.859056" lon="-3.230936"/><trkpt lat="42.858756" lon="-3.231571"/><trkpt lat="42.858684" lon="-3.231627"/><trkpt lat="42.858506" lon="-3.23168"/><trkpt lat="42.858269" lon="-3.231786"/><trkpt lat="42.858101" lon="-3.231879"/><trkpt lat="42.857999" lon="-3.23198"/><trkpt lat="42.857731" lon="-3.232078"/><trkpt lat="42.857655" lon="-3.232072"/><trkpt lat="42.857334" lon="-3.232011"/><trkpt lat="42.857269" lon="-3.231947"/><trkpt lat="42.857038" lon="-3.231929"/><trkpt lat="42.856955" lon="-3.231862"/><trkpt lat="42.856744" lon="-3.231733"/><trkpt lat="42.856457" lon="-3.231485"/><trkpt lat="42.856305" lon="-3.231396"/><trkpt lat="42.856273" lon="-3.231376"/><trkpt lat="42.856189" lon="-3.231362"/><trkpt lat="42.856004" lon="-3.231386"/><trkpt lat="42.855806" lon="-3.231389"/><trkpt lat="42.855752" lon="-3.231373"/><trkpt lat="42.855444" lon="-3.23081"/><trkpt lat="42.855273" lon="-3.230666"/><trkpt lat="42.855202" lon="-3.230658"/><trkpt lat="42.855104" lon="-3.230666"/><trkpt lat="42.855012" lon="-3.230745"/><trkpt lat="42.854902" lon="-3.230756"/><trkpt lat="42.854825" lon="-3.230713"/><trkpt lat="42.85475" lon="-3.23063"/><trkpt lat="42.854732" lon="-3.230524"/><trkpt lat="42.854737" lon="-3.230426"/><trkpt lat="42.854855" lon="-3.23022"/><trkpt lat="42.854904" lon="-3.230078"/><trkpt lat="42.854884" lon="-3.229884"/><trkpt lat="42.854819" lon="-3.229698"/><trkpt lat="42.854638" lon="-3.22954"/><trkpt lat="42.854368" lon="-3.229455"/><trkpt lat="42.854161" lon="-3.229331"/><trkpt lat="42.853792" lon="-3.229159"/><trkpt lat="42.853582" lon="-3.229082"/><trkpt lat="42.853419" lon="-3.229063"/><trkpt lat="42.853186" lon="-3.229056"/><trkpt lat="42.853036" lon="-3.228975"/><trkpt lat="42.852949" lon="-3.22896"/><trkpt lat="42.852594" lon="-3.229106"/><trkpt lat="42.852558" lon="-3.229121"/><trkpt lat="42.852305" lon="-3.229188"/><trkpt lat="42.852226" lon="-3.229182"/><trkpt lat="42.852029" lon="-3.229101"/><trkpt lat="42.851929" lon="-3.229052"/><trkpt lat="42.851832" lon="-3.229036"/><trkpt lat="42.851461" lon="-3.229205"/><trkpt lat="42.851257" lon="-3.229223"/><trkpt lat="42.851014" lon="-3.229223"/><trkpt lat="42.850871" lon="-3.229185"/><trkpt lat="42.850711" lon="-3.229127"/><trkpt lat="42.850588" lon="-3.229108"/><trkpt lat="42.85045" lon="-3.229145"/><trkpt lat="42.850342" lon="-3.229262"/><trkpt lat="42.850199" lon="-3.229536"/><trkpt lat="42.849996" lon="-3.229732"/><trkpt lat="42.849988" lon="-3.229758"/><trkpt lat="42.849989" lon="-3.229781"/><trkpt lat="42.849984" lon="-3.22985"/><trkpt lat="42.849982" lon="-3.229889"/><trkpt lat="42.849958" lon="-3.2301"/><trkpt lat="42.849927" lon="-3.23018"/><trkpt lat="42.849883" lon="-3.230235"/><trkpt lat="42.849833" lon="-3.23025"/><trkpt lat="42.849698" lon="-3.230199"/><trkpt lat="42.849611" lon="-3.230149"/><trkpt lat="42.849523" lon="-3.230123"/><trkpt lat="42.84941" lon="-3.230181"/><trkpt lat="42.849381" lon="-3.230184"/><trkpt lat="42.849168" lon="-3.230187"/><trkpt lat="42.848353" lon="-3.230266"/><trkpt lat="42.847906" lon="-3.230297"/><trkpt lat="42.847644" lon="-3.230314"/><trkpt lat="42.847387" lon="-3.230298"/><trkpt lat="42.84696" lon="-3.230338"/><trkpt lat="42.84636" lon="-3.230365"/><trkpt lat="42.845966" lon="-3.230366"/><trkpt lat="42.845374" lon="-3.230329"/><trkpt lat="42.844739" lon="-3.230346"/><trkpt lat="42.844489" lon="-3.23038"/><trkpt lat="42.84435" lon="-3.230412"/><trkpt lat="42.844234" lon="-3.230448"/><trkpt lat="42.844049" lon="-3.230536"/><trkpt lat="42.843964" lon="-3.230603"/><trkpt lat="42.843888" lon="-3.230644"/><trkpt lat="42.84385" lon="-3.230657"/><trkpt lat="42.843712" lon="-3.230769"/><trkpt lat="42.843607" lon="-3.23082"/><trkpt lat="42.843507" lon="-3.230842"/><trkpt lat="42.84336" lon="-3.230853"/><trkpt lat="42.843184" lon="-3.230855"/><trkpt lat="42.843052" lon="-3.230843"/><trkpt lat="42.843184" lon="-3.230855"/><trkpt lat="42.84336" lon="-3.230853"/><trkpt lat="42.843507" lon="-3.230842"/><trkpt lat="42.843607" lon="-3.23082"/><trkpt lat="42.843712" lon="-3.230769"/><trkpt lat="42.84385" lon="-3.230657"/><trkpt lat="42.843888" lon="-3.230644"/><trkpt lat="42.843964" lon="-3.230603"/><trkpt lat="42.844049" lon="-3.230536"/><trkpt lat="42.844234" lon="-3.230448"/><trkpt lat="42.84435" lon="-3.230412"/><trkpt lat="42.844489" lon="-3.23038"/><trkpt lat="42.844739" lon="-3.230346"/><trkpt lat="42.845374" lon="-3.230329"/><trkpt lat="42.845966" lon="-3.230366"/><trkpt lat="42.84636" lon="-3.230365"/><trkpt lat="42.84696" lon="-3.230338"/><trkpt lat="42.847387" lon="-3.230298"/><trkpt lat="42.847644" lon="-3.230314"/><trkpt lat="42.847906" lon="-3.230297"/><trkpt lat="42.848353" lon="-3.230266"/><trkpt lat="42.849168" lon="-3.230187"/><trkpt lat="42.849381" lon="-3.230184"/><trkpt lat="42.84941" lon="-3.230181"/><trkpt lat="42.849523" lon="-3.230123"/><trkpt lat="42.849611" lon="-3.230149"/><trkpt lat="42.849698" lon="-3.230199"/><trkpt lat="42.849833" lon="-3.23025"/><trkpt lat="42.849883" lon="-3.230235"/><trkpt lat="42.849927" lon="-3.23018"/><trkpt lat="42.849958" lon="-3.2301"/><trkpt lat="42.849982" lon="-3.229889"/><trkpt lat="42.849984" lon="-3.22985"/><trkpt lat="42.849989" lon="-3.229781"/><trkpt lat="42.849988" lon="-3.229758"/><trkpt lat="42.849996" lon="-3.229732"/><trkpt lat="42.850199" lon="-3.229536"/><trkpt lat="42.850342" lon="-3.229262"/><trkpt lat="42.85045" lon="-3.229145"/><trkpt lat="42.850588" lon="-3.229108"/><trkpt lat="42.850711" lon="-3.229127"/><trkpt lat="42.850871" lon="-3.229185"/><trkpt lat="42.851014" lon="-3.229223"/><trkpt lat="42.851257" lon="-3.229223"/><trkpt lat="42.851461" lon="-3.229205"/><trkpt lat="42.851832" lon="-3.229036"/><trkpt lat="42.851929" lon="-3.229052"/><trkpt lat="42.852029" lon="-3.229101"/><trkpt lat="42.852226" lon="-3.229182"/><trkpt lat="42.852305" lon="-3.229188"/><trkpt lat="42.852558" lon="-3.229121"/><trkpt lat="42.852594" lon="-3.229106"/><trkpt lat="42.852949" lon="-3.22896"/><trkpt lat="42.853036" lon="-3.228975"/><trkpt lat="42.853186" lon="-3.229056"/><trkpt lat="42.853419" lon="-3.229063"/><trkpt lat="42.853582" lon="-3.229082"/><trkpt lat="42.853792" lon="-3.229159"/><trkpt lat="42.854161" lon="-3.229331"/><trkpt lat="42.854368" lon="-3.229455"/><trkpt lat="42.854638" lon="-3.22954"/><trkpt lat="42.854819" lon="-3.229698"/><trkpt lat="42.854884" lon="-3.229884"/><trkpt lat="42.854904" lon="-3.230078"/><trkpt lat="42.854855" lon="-3.23022"/><trkpt lat="42.854737" lon="-3.230426"/><trkpt lat="42.854732" lon="-3.230524"/><trkpt lat="42.85475" lon="-3.23063"/><trkpt lat="42.854825" lon="-3.230713"/><trkpt lat="42.854902" lon="-3.230756"/><trkpt lat="42.855012" lon="-3.230745"/><trkpt lat="42.855104" lon="-3.230666"/><trkpt lat="42.855202" lon="-3.230658"/><trkpt lat="42.855273" lon="-3.230666"/><trkpt lat="42.855444" lon="-3.23081"/><trkpt lat="42.855752" lon="-3.231373"/><trkpt lat="42.855806" lon="-3.231389"/><trkpt lat="42.856004" lon="-3.231386"/><trkpt lat="42.856189" lon="-3.231362"/><trkpt lat="42.856273" lon="-3.231376"/><trkpt lat="42.856305" lon="-3.231396"/><trkpt lat="42.856457" lon="-3.231485"/><trkpt lat="42.856744" lon="-3.231733"/><trkpt lat="42.856955" lon="-3.231862"/><trkpt lat="42.857038" lon="-3.231929"/><trkpt lat="42.857269" lon="-3.231947"/><trkpt lat="42.857334" lon="-3.232011"/><trkpt lat="42.857655" lon="-3.232072"/><trkpt lat="42.857731" lon="-3.232078"/><trkpt lat="42.857999" lon="-3.23198"/><trkpt lat="42.858101" lon="-3.231879"/><trkpt lat="42.858269" lon="-3.231786"/><trkpt lat="42.858506" lon="-3.23168"/><trkpt lat="42.858684" lon="-3.231627"/><trkpt lat="42.858756" lon="-3.231571"/><trkpt lat="42.859056" lon="-3.230936"/><trkpt lat="42.859206" lon="-3.230758"/><trkpt lat="42.859328" lon="-3.230751"/><trkpt lat="42.859353" lon="-3.230742"/><trkpt lat="42.859395" lon="-3.230699"/><trkpt lat="42.859527" lon="-3.230561"/><trkpt lat="42.859844" lon="-3.230044"/><trkpt lat="42.860189" lon="-3.229387"/><trkpt lat="42.860217" lon="-3.229333"/><trkpt lat="42.860364" lon="-3.229174"/><trkpt lat="42.860474" lon="-3.229008"/><trkpt lat="42.860547" lon="-3.228874"/><trkpt lat="42.86135" lon="-3.227855"/><trkpt lat="42.861628" lon="-3.227763"/><trkpt lat="42.861767" lon="-3.227747"/><trkpt lat="42.861844" lon="-3.22776"/><trkpt lat="42.86218" lon="-3.227895"/><trkpt lat="42.862555" lon="-3.228074"/><trkpt lat="42.863105" lon="-3.22831"/><trkpt lat="42.863248" lon="-3.228376"/><trkpt lat="42.863432" lon="-3.228475"/><trkpt lat="42.863676" lon="-3.2285"/><trkpt lat="42.863734" lon="-3.228515"/><trkpt lat="42.863917" lon="-3.22856"/><trkpt lat="42.864038" lon="-3.22856"/><trkpt lat="42.864249" lon="-3.228491"/><trkpt lat="42.864393" lon="-3.228342"/><trkpt lat="42.864498" lon="-3.22825"/><trkpt lat="42.864636" lon="-3.228143"/><trkpt lat="42.864871" lon="-3.228083"/><trkpt lat="42.865013" lon="-3.228154"/><trkpt lat="42.86536" lon="-3.228239"/><trkpt lat="42.865489" lon="-3.228258"/><trkpt lat="42.865615" lon="-3.228304"/><trkpt lat="42.865687" lon="-3.228351"/><trkpt lat="42.865791" lon="-3.228434"/><trkpt lat="42.866383" lon="-3.228769"/><trkpt lat="42.866684" lon="-3.229117"/><trkpt lat="42.866928" lon="-3.229612"/><trkpt lat="42.866975" lon="-3.229696"/><trkpt lat="42.86745" lon="-3.230275"/><trkpt lat="42.867587" lon="-3.230471"/><trkpt lat="42.867705" lon="-3.230726"/><trkpt lat="42.867814" lon="-3.230903"/><trkpt lat="42.867995" lon="-3.231142"/><trkpt lat="42.868404" lon="-3.231751"/><trkpt lat="42.868496" lon="-3.231887"/><trkpt lat="42.869074" lon="-3.23285"/><trkpt lat="42.8692" lon="-3.233113"/><trkpt lat="42.869305" lon="-3.233298"/><trkpt lat="42.869418" lon="-3.233441"/><trkpt lat="42.869554" lon="-3.233572"/><trkpt lat="42.869706" lon="-3.233689"/><trkpt lat="42.86985" lon="-3.233763"/><trkpt lat="42.870793" lon="-3.234158"/><trkpt lat="42.871095" lon="-3.234312"/><trkpt lat="42.871606" lon="-3.234539"/><trkpt lat="42.871866" lon="-3.234608"/><trkpt lat="42.87209" lon="-3.234646"/><trkpt lat="42.872209" lon="-3.234615"/><trkpt lat="42.872345" lon="-3.234537"/><trkpt lat="42.872548" lon="-3.234382"/><trkpt lat="42.872723" lon="-3.234213"/><trkpt lat="42.872758" lon="-3.234134"/><trkpt lat="42.873023" lon="-3.233414"/><trkpt lat="42.873083" lon="-3.233195"/><trkpt lat="42.873122" lon="-3.232947"/><trkpt lat="42.873175" lon="-3.232746"/><trkpt lat="42.873327" lon="-3.232264"/><trkpt lat="42.87348" lon="-3.231958"/><trkpt lat="42.873711" lon="-3.231631"/><trkpt lat="42.87395" lon="-3.231271"/><trkpt lat="42.874048" lon="-3.231196"/><trkpt lat="42.874139" lon="-3.231195"/><trkpt lat="42.874286" lon="-3.23125"/><trkpt lat="42.87438" lon="-3.231257"/><trkpt lat="42.874663" lon="-3.231167"/></trkseg></trk></gpx>