<?xml version="1.0" encoding="UTF-8"?><kml xmlns="http://www.opengis.net/kml/2.2"><Document><name>Valderejo · долина Purón и Ribera</name><description>Планировочная реконструкция по OpenStreetMap, 14.09.2026. Не запись GPS и не проверенный навигационный трек. Высоты не экспортированы. Данные © OpenStreetMap contributors, ODbL. Автопереезды и канатки в пеший трек не включены.</description><Style id="track"><LineStyle><color>ff896f33</color><width>4</width></LineStyle></Style><Placemark><name>Lalastra</name><Point><coordinates>-3.231167,42.874663</coordinates></Point></Placemark><Placemark><name>Purón · северная часть ущелья</name><Point><coordinates>-3.230843,42.843052</coordinates></Point></Placemark><Placemark><name>Valderejo · долина Purón и Ribera</name><description>Планировочная реконструкция по OpenStreetMap, 14.09.2026. Не запись GPS и не проверенный навигационный трек. Высоты не экспортированы. Данные © OpenStreetMap contributors, ODbL. Автопереезды и канатки в пеший трек не включены.</description><styleUrl>#track</styleUrl><LineString><tessellate>1</tessellate><altitudeMode>clampToGround</altitudeMode><coordinates>-3.231167,42.874663,0 -3.231257,42.87438,0 -3.23125,42.874286,0 -3.231195,42.874139,0 -3.231196,42.874048,0 -3.231271,42.87395,0 -3.231631,42.873711,0 -3.231958,42.87348,0 -3.232264,42.873327,0 -3.232746,42.873175,0 -3.232947,42.873122,0 -3.233195,42.873083,0 -3.233414,42.873023,0 -3.234134,42.872758,0 -3.234213,42.872723,0 -3.234382,42.872548,0 -3.234537,42.872345,0 -3.234615,42.872209,0 -3.234646,42.87209,0 -3.234608,42.871866,0 -3.234539,42.871606,0 -3.234312,42.871095,0 -3.234158,42.870793,0 -3.233763,42.86985,0 -3.233689,42.869706,0 -3.233572,42.869554,0 -3.233441,42.869418,0 -3.233298,42.869305,0 -3.233113,42.8692,0 -3.23285,42.869074,0 -3.231887,42.868496,0 -3.231751,42.868404,0 -3.231142,42.867995,0 -3.230903,42.867814,0 -3.230726,42.867705,0 -3.230471,42.867587,0 -3.230275,42.86745,0 -3.229696,42.866975,0 -3.229612,42.866928,0 -3.229117,42.866684,0 -3.228769,42.866383,0 -3.228434,42.865791,0 -3.228351,42.865687,0 -3.228304,42.865615,0 -3.228258,42.865489,0 -3.228239,42.86536,0 -3.228154,42.865013,0 -3.228083,42.864871,0 -3.228143,42.864636,0 -3.22825,42.864498,0 -3.228342,42.864393,0 -3.228491,42.864249,0 -3.22856,42.864038,0 -3.22856,42.863917,0 -3.228515,42.863734,0 -3.2285,42.863676,0 -3.228475,42.863432,0 -3.228376,42.863248,0 -3.22831,42.863105,0 -3.228074,42.862555,0 -3.227895,42.86218,0 -3.22776,42.861844,0 -3.227747,42.861767,0 -3.227763,42.861628,0 -3.227855,42.86135,0 -3.228874,42.860547,0 -3.229008,42.860474,0 -3.229174,42.860364,0 -3.229333,42.860217,0 -3.229387,42.860189,0 -3.230044,42.859844,0 -3.230561,42.859527,0 -3.230699,42.859395,0 -3.230742,42.859353,0 -3.230751,42.859328,0 -3.230758,42.859206,0 -3.230936,42.859056,0 -3.231571,42.858756,0 -3.231627,42.858684,0 -3.23168,42.858506,0 -3.231786,42.858269,0 -3.231879,42.858101,0 -3.23198,42.857999,0 -3.232078,42.857731,0 -3.232072,42.857655,0 -3.232011,42.857334,0 -3.231947,42.857269,0 -3.231929,42.857038,0 -3.231862,42.856955,0 -3.231733,42.856744,0 -3.231485,42.856457,0 -3.231396,42.856305,0 -3.231376,42.856273,0 -3.231362,42.856189,0 -3.231386,42.856004,0 -3.231389,42.855806,0 -3.231373,42.855752,0 -3.23081,42.855444,0 -3.230666,42.855273,0 -3.230658,42.855202,0 -3.230666,42.855104,0 -3.230745,42.855012,0 -3.230756,42.854902,0 -3.230713,42.854825,0 -3.23063,42.85475,0 -3.230524,42.854732,0 -3.230426,42.854737,0 -3.23022,42.854855,0 -3.230078,42.854904,0 -3.229884,42.854884,0 -3.229698,42.854819,0 -3.22954,42.854638,0 -3.229455,42.854368,0 -3.229331,42.854161,0 -3.229159,42.853792,0 -3.229082,42.853582,0 -3.229063,42.853419,0 -3.229056,42.853186,0 -3.228975,42.853036,0 -3.22896,42.852949,0 -3.229106,42.852594,0 -3.229121,42.852558,0 -3.229188,42.852305,0 -3.229182,42.852226,0 -3.229101,42.852029,0 -3.229052,42.851929,0 -3.229036,42.851832,0 -3.229205,42.851461,0 -3.229223,42.851257,0 -3.229223,42.851014,0 -3.229185,42.850871,0 -3.229127,42.850711,0 -3.229108,42.850588,0 -3.229145,42.85045,0 -3.229262,42.850342,0 -3.229536,42.850199,0 -3.229732,42.849996,0 -3.229758,42.849988,0 -3.229781,42.849989,0 -3.22985,42.849984,0 -3.229889,42.849982,0 -3.2301,42.849958,0 -3.23018,42.849927,0 -3.230235,42.849883,0 -3.23025,42.849833,0 -3.230199,42.849698,0 -3.230149,42.849611,0 -3.230123,42.849523,0 -3.230181,42.84941,0 -3.230184,42.849381,0 -3.230187,42.849168,0 -3.230266,42.848353,0 -3.230297,42.847906,0 -3.230314,42.847644,0 -3.230298,42.847387,0 -3.230338,42.84696,0 -3.230365,42.84636,0 -3.230366,42.845966,0 -3.230329,42.845374,0 -3.230346,42.844739,0 -3.23038,42.844489,0 -3.230412,42.84435,0 -3.230448,42.844234,0 -3.230536,42.844049,0 -3.230603,42.843964,0 -3.230644,42.843888,0 -3.230657,42.84385,0 -3.230769,42.843712,0 -3.23082,42.843607,0 -3.230842,42.843507,0 -3.230853,42.84336,0 -3.230855,42.843184,0 -3.230843,42.843052,0 -3.230855,42.843184,0 -3.230853,42.84336,0 -3.230842,42.843507,0 -3.23082,42.843607,0 -3.230769,42.843712,0 -3.230657,42.84385,0 -3.230644,42.843888,0 -3.230603,42.843964,0 -3.230536,42.844049,0 -3.230448,42.844234,0 -3.230412,42.84435,0 -3.23038,42.844489,0 -3.230346,42.844739,0 -3.230329,42.845374,0 -3.230366,42.845966,0 -3.230365,42.84636,0 -3.230338,42.84696,0 -3.230298,42.847387,0 -3.230314,42.847644,0 -3.230297,42.847906,0 -3.230266,42.848353,0 -3.230187,42.849168,0 -3.230184,42.849381,0 -3.230181,42.84941,0 -3.230123,42.849523,0 -3.230149,42.849611,0 -3.230199,42.849698,0 -3.23025,42.849833,0 -3.230235,42.849883,0 -3.23018,42.849927,0 -3.2301,42.849958,0 -3.229889,42.849982,0 -3.22985,42.849984,0 -3.229781,42.849989,0 -3.229758,42.849988,0 -3.229732,42.849996,0 -3.229536,42.850199,0 -3.229262,42.850342,0 -3.229145,42.85045,0 -3.229108,42.850588,0 -3.229127,42.850711,0 -3.229185,42.850871,0 -3.229223,42.851014,0 -3.229223,42.851257,0 -3.229205,42.851461,0 -3.229036,42.851832,0 -3.229052,42.851929,0 -3.229101,42.852029,0 -3.229182,42.852226,0 -3.229188,42.852305,0 -3.229121,42.852558,0 -3.229106,42.852594,0 -3.22896,42.852949,0 -3.228975,42.853036,0 -3.229056,42.853186,0 -3.229063,42.853419,0 -3.229082,42.853582,0 -3.229159,42.853792,0 -3.229331,42.854161,0 -3.229455,42.854368,0 -3.22954,42.854638,0 -3.229698,42.854819,0 -3.229884,42.854884,0 -3.230078,42.854904,0 -3.23022,42.854855,0 -3.230426,42.854737,0 -3.230524,42.854732,0 -3.23063,42.85475,0 -3.230713,42.854825,0 -3.230756,42.854902,0 -3.230745,42.855012,0 -3.230666,42.855104,0 -3.230658,42.855202,0 -3.230666,42.855273,0 -3.23081,42.855444,0 -3.231373,42.855752,0 -3.231389,42.855806,0 -3.231386,42.856004,0 -3.231362,42.856189,0 -3.231376,42.856273,0 -3.231396,42.856305,0 -3.231485,42.856457,0 -3.231733,42.856744,0 -3.231862,42.856955,0 -3.231929,42.857038,0 -3.231947,42.857269,0 -3.232011,42.857334,0 -3.232072,42.857655,0 -3.232078,42.857731,0 -3.23198,42.857999,0 -3.231879,42.858101,0 -3.231786,42.858269,0 -3.23168,42.858506,0 -3.231627,42.858684,0 -3.231571,42.858756,0 -3.230936,42.859056,0 -3.230758,42.859206,0 -3.230751,42.859328,0 -3.230742,42.859353,0 -3.230699,42.859395,0 -3.230561,42.859527,0 -3.230044,42.859844,0 -3.229387,42.860189,0 -3.229333,42.860217,0 -3.229174,42.860364,0 -3.229008,42.860474,0 -3.228874,42.860547,0 -3.227855,42.86135,0 -3.227763,42.861628,0 -3.227747,42.861767,0 -3.22776,42.861844,0 -3.227895,42.86218,0 -3.228074,42.862555,0 -3.22831,42.863105,0 -3.228376,42.863248,0 -3.228475,42.863432,0 -3.2285,42.863676,0 -3.228515,42.863734,0 -3.22856,42.863917,0 -3.22856,42.864038,0 -3.228491,42.864249,0 -3.228342,42.864393,0 -3.22825,42.864498,0 -3.228143,42.864636,0 -3.228083,42.864871,0 -3.228154,42.865013,0 -3.228239,42.86536,0 -3.228258,42.865489,0 -3.228304,42.865615,0 -3.228351,42.865687,0 -3.228434,42.865791,0 -3.228769,42.866383,0 -3.229117,42.866684,0 -3.229612,42.866928,0 -3.229696,42.866975,0 -3.230275,42.86745,0 -3.230471,42.867587,0 -3.230726,42.867705,0 -3.230903,42.867814,0 -3.231142,42.867995,0 -3.231751,42.868404,0 -3.231887,42.868496,0 -3.23285,42.869074,0 -3.233113,42.8692,0 -3.233298,42.869305,0 -3.233441,42.869418,0 -3.233572,42.869554,0 -3.233689,42.869706,0 -3.233763,42.86985,0 -3.234158,42.870793,0 -3.234312,42.871095,0 -3.234539,42.871606,0 -3.234608,42.871866,0 -3.234646,42.87209,0 -3.234615,42.872209,0 -3.234537,42.872345,0 -3.234382,42.872548,0 -3.234213,42.872723,0 -3.234134,42.872758,0 -3.233414,42.873023,0 -3.233195,42.873083,0 -3.232947,42.873122,0 -3.232746,42.873175,0 -3.232264,42.873327,0 -3.231958,42.87348,0 -3.231631,42.873711,0 -3.231271,42.87395,0 -3.231196,42.874048,0 -3.231195,42.874139,0 -3.23125,42.874286,0 -3.231257,42.87438,0 -3.231167,42.874663,0</coordinates></LineString></Placemark></Document></kml>