<?xml version="1.0" encoding="UTF-8"?><kml xmlns="http://www.opengis.net/kml/2.2"><Document><name>Aizkorri · вершина и скальный тоннель San Adrián</name><description>Планировочная реконструкция по OpenStreetMap, 14.09.2026. Не запись GPS и не проверенный навигационный трек. Высоты не экспортированы. Данные © OpenStreetMap contributors, ODbL. Автопереезды и канатки в пеший трек не включены.</description><Style id="track"><LineStyle><color>ff924c91</color><width>4</width></LineStyle></Style><Placemark><name>Aldaola / Ubier · парковка</name><Point><coordinates>-2.303357,42.935057</coordinates></Point></Placemark><Placemark><name>San Adrián · вход в скальный тоннель</name><Point><coordinates>-2.313353,42.936079</coordinates></Point></Placemark><Placemark><name>San Adrián · старая дорога у выхода</name><Point><coordinates>-2.31569,42.93517</coordinates></Point></Placemark><Placemark><name>Aizkorri · вершина с часовней</name><Point><coordinates>-2.325235,42.951335</coordinates></Point></Placemark><Placemark><name>Aizkorri · вершина и скальный тоннель San Adrián</name><description>Планировочная реконструкция по OpenStreetMap, 14.09.2026. Не запись GPS и не проверенный навигационный трек. Высоты не экспортированы. Данные © OpenStreetMap contributors, ODbL. Автопереезды и канатки в пеший трек не включены.</description><styleUrl>#track</styleUrl><LineString><tessellate>1</tessellate><altitudeMode>clampToGround</altitudeMode><coordinates>-2.303366,42.935064,0 -2.303272,42.935112,0 -2.30335,42.935181,0 -2.303399,42.935197,0 -2.303457,42.935197,0 -2.303562,42.935183,0 -2.303718,42.935153,0 -2.303922,42.935077,0 -2.304017,42.93501,0 -2.30413,42.934955,0 -2.304217,42.934945,0 -2.304295,42.934954,0 -2.304368,42.934974,0 -2.304463,42.934994,0 -2.304551,42.935028,0 -2.304678,42.935065,0 -2.304689,42.935082,0 -2.304571,42.93516,0 -2.304572,42.935172,0 -2.304741,42.93522,0 -2.304748,42.935227,0 -2.304759,42.935236,0 -2.304954,42.935307,0 -2.305045,42.935347,0 -2.305317,42.935544,0 -2.305471,42.935684,0 -2.305721,42.935824,0 -2.305805,42.935882,0 -2.305785,42.935909,0 -2.305637,42.935943,0 -2.305601,42.93597,0 -2.305595,42.935993,0 -2.305768,42.936037,0 -2.305943,42.936092,0 -2.306112,42.936121,0 -2.306326,42.936172,0 -2.30642,42.936201,0 -2.306617,42.936304,0 -2.306681,42.936349,0 -2.306774,42.936447,0 -2.306845,42.936505,0 -2.306874,42.936543,0 -2.306917,42.936689,0 -2.306896,42.937005,0 -2.306902,42.937049,0 -2.306897,42.93713,0 -2.306917,42.937216,0 -2.307001,42.937297,0 -2.307129,42.9374,0 -2.307212,42.937412,0 -2.307368,42.937419,0 -2.307562,42.937439,0 -2.307963,42.937496,0 -2.30808,42.937501,0 -2.30818,42.937518,0 -2.308301,42.93752,0 -2.308602,42.937538,0 -2.308994,42.937545,0 -2.309069,42.937564,0 -2.309191,42.937557,0 -2.309285,42.937566,0 -2.309417,42.937559,0 -2.309521,42.937561,0 -2.309684,42.93755,0 -2.309792,42.937558,0 -2.310018,42.93757,0 -2.31063,42.937574,0 -2.310696,42.937556,0 -2.310847,42.937554,0 -2.310905,42.937518,0 -2.310966,42.937491,0 -2.311006,42.937444,0 -2.311027,42.937364,0 -2.311049,42.937316,0 -2.311246,42.937173,0 -2.311406,42.937088,0 -2.31152,42.937012,0 -2.311574,42.936996,0 -2.311816,42.936831,0 -2.311993,42.936729,0 -2.31212,42.936672,0 -2.31222,42.936656,0 -2.312299,42.936623,0 -2.312521,42.936498,0 -2.312621,42.936429,0 -2.312764,42.936358,0 -2.312957,42.936233,0 -2.313055,42.936197,0 -2.313138,42.93615,0 -2.3133,42.936083,0 -2.313334,42.936061,0 -2.313388,42.936025,0 -2.313439,42.935999,0 -2.313504,42.935984,0 -2.313595,42.935982,0 -2.313653,42.935971,0 -2.313821,42.935924,0 -2.31409,42.935873,0 -2.314454,42.93583,0 -2.31496,42.935668,0 -2.314983,42.935661,0 -2.315033,42.935615,0 -2.315147,42.935394,0 -2.315178,42.935385,0 -2.315242,42.935386,0 -2.315252,42.935378,0 -2.31527,42.935331,0 -2.315312,42.935304,0 -2.315691,42.935169,0 -2.316067,42.935036,0 -2.316105,42.935042,0 -2.31622,42.935126,0 -2.316562,42.935539,0 -2.316705,42.935694,0 -2.316877,42.935839,0 -2.317,42.93588,0 -2.317126,42.935928,0 -2.317345,42.936137,0 -2.317397,42.936166,0 -2.317464,42.936188,0 -2.317519,42.936195,0 -2.317612,42.93619,0 -2.317895,42.936153,0 -2.317986,42.936126,0 -2.318273,42.935979,0 -2.318417,42.935895,0 -2.318481,42.935852,0 -2.318548,42.935786,0 -2.318658,42.935764,0 -2.319062,42.935795,0 -2.319252,42.93582,0 -2.319353,42.93582,0 -2.319404,42.935819,0 -2.319503,42.935782,0 -2.319773,42.935629,0 -2.319901,42.935536,0 -2.320056,42.935336,0 -2.320141,42.935195,0 -2.320206,42.935053,0 -2.320259,42.934842,0 -2.320312,42.934765,0 -2.320449,42.934653,0 -2.320688,42.934533,0 -2.320931,42.934438,0 -2.321096,42.934412,0 -2.321237,42.934423,0 -2.321401,42.934448,0 -2.321538,42.93449,0 -2.321603,42.934501,0 -2.321691,42.934476,0 -2.322013,42.934297,0 -2.322142,42.934191,0 -2.322285,42.934052,0 -2.322468,42.933943,0 -2.322554,42.934053,0 -2.322609,42.934156,0 -2.322642,42.934301,0 -2.322714,42.934464,0 -2.322813,42.934721,0 -2.322847,42.934789,0 -2.322902,42.934872,0 -2.322942,42.935032,0 -2.323012,42.935235,0 -2.323054,42.935338,0 -2.323091,42.935402,0 -2.32312,42.93542,0 -2.323147,42.935423,0 -2.32318,42.935374,0 -2.323212,42.935344,0 -2.32326,42.935336,0 -2.323282,42.935356,0 -2.323348,42.935469,0 -2.323691,42.935852,0 -2.323718,42.935905,0 -2.323765,42.935956,0 -2.323857,42.936028,0 -2.323919,42.936158,0 -2.323989,42.936336,0 -2.324074,42.936474,0 -2.324113,42.93657,0 -2.324186,42.936686,0 -2.324272,42.936794,0 -2.324365,42.936864,0 -2.324406,42.936911,0 -2.32448,42.937041,0 -2.324544,42.937123,0 -2.324665,42.937235,0 -2.324749,42.937341,0 -2.324802,42.937359,0 -2.324915,42.937364,0 -2.325151,42.937454,0 -2.325346,42.937504,0 -2.325458,42.937543,0 -2.325544,42.937585,0 -2.325602,42.93765,0 -2.325662,42.937692,0 -2.325699,42.937747,0 -2.326018,42.937973,0 -2.326084,42.938054,0 -2.326104,42.938128,0 -2.326113,42.938249,0 -2.326155,42.938349,0 -2.326287,42.938585,0 -2.326377,42.938674,0 -2.326601,42.938942,0 -2.326805,42.939067,0 -2.326948,42.939189,0 -2.327019,42.939337,0 -2.327029,42.939417,0 -2.327159,42.939643,0 -2.327213,42.939805,0 -2.327226,42.939926,0 -2.327167,42.940059,0 -2.327086,42.940299,0 -2.326971,42.94041,0 -2.326869,42.940496,0 -2.326791,42.94053,0 -2.326704,42.940544,0 -2.326025,42.940406,0 -2.325935,42.940405,0 -2.325912,42.940469,0 -2.325917,42.940572,0 -2.325905,42.940613,0 -2.32586,42.940718,0 -2.325888,42.940808,0 -2.325899,42.940879,0 -2.325891,42.941144,0 -2.32592,42.941307,0 -2.325917,42.941468,0 -2.325902,42.941646,0 -2.32593,42.941785,0 -2.325975,42.942179,0 -2.326039,42.942354,0 -2.326051,42.942488,0 -2.326092,42.942672,0 -2.326142,42.942812,0 -2.326185,42.942999,0 -2.326168,42.943041,0 -2.326121,42.943095,0 -2.326033,42.943167,0 -2.326007,42.94323,0 -2.326026,42.943319,0 -2.326061,42.943357,0 -2.326219,42.943444,0 -2.326436,42.943577,0 -2.326677,42.943672,0 -2.326752,42.943723,0 -2.326927,42.943768,0 -2.32704,42.943861,0 -2.327146,42.943932,0 -2.327288,42.944001,0 -2.327345,42.944054,0 -2.327428,42.944162,0 -2.327494,42.944307,0 -2.327504,42.944356,0 -2.327488,42.944501,0 -2.327473,42.944551,0 -2.32728,42.94481,0 -2.32727,42.944832,0 -2.327285,42.944991,0 -2.327309,42.945033,0 -2.327349,42.945166,0 -2.32746,42.945247,0 -2.327673,42.945334,0 -2.327704,42.945401,0 -2.327764,42.94566,0 -2.327789,42.945682,0 -2.327938,42.945801,0 -2.327945,42.945826,0 -2.327918,42.945853,0 -2.327865,42.945871,0 -2.32785,42.945887,0 -2.327885,42.945999,0 -2.327906,42.946029,0 -2.327942,42.946062,0 -2.327948,42.946168,0 -2.327947,42.946193,0 -2.327912,42.94625,0 -2.327929,42.94633,0 -2.327914,42.946359,0 -2.32787,42.946412,0 -2.327849,42.946482,0 -2.327859,42.946603,0 -2.327893,42.946716,0 -2.327947,42.946843,0 -2.32795,42.946925,0 -2.327913,42.947007,0 -2.327773,42.947207,0 -2.32769,42.94731,0 -2.3275,42.9475,0 -2.327394,42.947529,0 -2.327201,42.947559,0 -2.327139,42.947575,0 -2.327087,42.947658,0 -2.327034,42.947686,0 -2.32699,42.947699,0 -2.32693,42.947699,0 -2.326784,42.947643,0 -2.326672,42.94763,0 -2.326623,42.947639,0 -2.326549,42.947669,0 -2.326295,42.947727,0 -2.326201,42.947785,0 -2.326043,42.947828,0 -2.325911,42.947876,0 -2.325867,42.947934,0 -2.325852,42.947981,0 -2.325822,42.94803,0 -2.325839,42.94815,0 -2.325791,42.948249,0 -2.32576,42.948269,0 -2.325735,42.948311,0 -2.32575,42.948378,0 -2.325723,42.94845,0 -2.325716,42.948537,0 -2.325687,42.948657,0 -2.325652,42.948687,0 -2.32566,42.948774,0 -2.325588,42.94889,0 -2.325565,42.948898,0 -2.325523,42.94887,0 -2.325504,42.948872,0 -2.325486,42.948894,0 -2.325467,42.948953,0 -2.325415,42.948969,0 -2.325388,42.949003,0 -2.325344,42.949024,0 -2.325326,42.949076,0 -2.325267,42.949119,0 -2.325202,42.94915,0 -2.32517,42.949145,0 -2.325108,42.949112,0 -2.324956,42.949049,0 -2.324892,42.94897,0 -2.324862,42.948967,0 -2.324802,42.949002,0 -2.324782,42.949029,0 -2.324749,42.94905,0 -2.324764,42.949114,0 -2.324711,42.94916,0 -2.324673,42.949216,0 -2.324645,42.949235,0 -2.324535,42.949266,0 -2.324488,42.949258,0 -2.324456,42.949241,0 -2.324422,42.949239,0 -2.324396,42.949262,0 -2.324388,42.949311,0 -2.324409,42.949369,0 -2.324445,42.94941,0 -2.324462,42.949454,0 -2.324532,42.949561,0 -2.324527,42.949581,0 -2.324484,42.949645,0 -2.324479,42.949713,0 -2.324496,42.949769,0 -2.324543,42.94981,0 -2.324546,42.949845,0 -2.324599,42.949969,0 -2.324603,42.950004,0 -2.324595,42.950082,0 -2.324641,42.950171,0 -2.324617,42.950223,0 -2.324565,42.950248,0 -2.324482,42.950312,0 -2.32447,42.950332,0 -2.324464,42.950365,0 -2.324522,42.950473,0 -2.324529,42.950529,0 -2.324559,42.950555,0 -2.324569,42.950629,0 -2.324584,42.950664,0 -2.324656,42.950712,0 -2.32473,42.950969,0 -2.324749,42.951013,0 -2.324781,42.951054,0 -2.324841,42.951092,0 -2.324901,42.951114,0 -2.324987,42.951119,0 -2.324968,42.951147,0 -2.324974,42.951168,0 -2.325055,42.951222,0 -2.325115,42.951231,0 -2.32515,42.951246,0 -2.325189,42.951279,0 -2.325238,42.951333,0 -2.325189,42.951279,0 -2.32515,42.951246,0 -2.325115,42.951231,0 -2.325055,42.951222,0 -2.324974,42.951168,0 -2.324968,42.951147,0 -2.324987,42.951119,0 -2.324901,42.951114,0 -2.324841,42.951092,0 -2.324781,42.951054,0 -2.324749,42.951013,0 -2.32473,42.950969,0 -2.324656,42.950712,0 -2.324584,42.950664,0 -2.324569,42.950629,0 -2.324559,42.950555,0 -2.324529,42.950529,0 -2.324522,42.950473,0 -2.324464,42.950365,0 -2.32447,42.950332,0 -2.324482,42.950312,0 -2.324565,42.950248,0 -2.324617,42.950223,0 -2.324641,42.950171,0 -2.324595,42.950082,0 -2.324603,42.950004,0 -2.324599,42.949969,0 -2.324546,42.949845,0 -2.324543,42.94981,0 -2.324496,42.949769,0 -2.324479,42.949713,0 -2.324484,42.949645,0 -2.324527,42.949581,0 -2.324532,42.949561,0 -2.324462,42.949454,0 -2.324445,42.94941,0 -2.324409,42.949369,0 -2.324388,42.949311,0 -2.324396,42.949262,0 -2.324422,42.949239,0 -2.324456,42.949241,0 -2.324488,42.949258,0 -2.324535,42.949266,0 -2.324645,42.949235,0 -2.324673,42.949216,0 -2.324711,42.94916,0 -2.324764,42.949114,0 -2.324749,42.94905,0 -2.324782,42.949029,0 -2.324802,42.949002,0 -2.324862,42.948967,0 -2.324892,42.94897,0 -2.324956,42.949049,0 -2.325108,42.949112,0 -2.32517,42.949145,0 -2.325202,42.94915,0 -2.325267,42.949119,0 -2.325326,42.949076,0 -2.325344,42.949024,0 -2.325388,42.949003,0 -2.325415,42.948969,0 -2.325467,42.948953,0 -2.325486,42.948894,0 -2.325504,42.948872,0 -2.325523,42.94887,0 -2.325565,42.948898,0 -2.325588,42.94889,0 -2.32566,42.948774,0 -2.325652,42.948687,0 -2.325687,42.948657,0 -2.325716,42.948537,0 -2.325723,42.94845,0 -2.32575,42.948378,0 -2.325735,42.948311,0 -2.32576,42.948269,0 -2.325791,42.948249,0 -2.325839,42.94815,0 -2.325822,42.94803,0 -2.325852,42.947981,0 -2.325867,42.947934,0 -2.325911,42.947876,0 -2.326043,42.947828,0 -2.326201,42.947785,0 -2.326295,42.947727,0 -2.326549,42.947669,0 -2.326623,42.947639,0 -2.326672,42.94763,0 -2.326784,42.947643,0 -2.32693,42.947699,0 -2.32699,42.947699,0 -2.327034,42.947686,0 -2.327087,42.947658,0 -2.327139,42.947575,0 -2.327201,42.947559,0 -2.327394,42.947529,0 -2.3275,42.9475,0 -2.32769,42.94731,0 -2.327773,42.947207,0 -2.327913,42.947007,0 -2.32795,42.946925,0 -2.327947,42.946843,0 -2.327893,42.946716,0 -2.327859,42.946603,0 -2.327849,42.946482,0 -2.32787,42.946412,0 -2.327914,42.946359,0 -2.327929,42.94633,0 -2.327912,42.94625,0 -2.327947,42.946193,0 -2.327948,42.946168,0 -2.327942,42.946062,0 -2.327906,42.946029,0 -2.327885,42.945999,0 -2.32785,42.945887,0 -2.327865,42.945871,0 -2.327918,42.945853,0 -2.327945,42.945826,0 -2.327938,42.945801,0 -2.327789,42.945682,0 -2.327764,42.94566,0 -2.327704,42.945401,0 -2.327673,42.945334,0 -2.32746,42.945247,0 -2.327349,42.945166,0 -2.327309,42.945033,0 -2.327285,42.944991,0 -2.32727,42.944832,0 -2.32728,42.94481,0 -2.327473,42.944551,0 -2.327488,42.944501,0 -2.327504,42.944356,0 -2.327494,42.944307,0 -2.327428,42.944162,0 -2.327345,42.944054,0 -2.327288,42.944001,0 -2.327146,42.943932,0 -2.32704,42.943861,0 -2.326927,42.943768,0 -2.326752,42.943723,0 -2.326677,42.943672,0 -2.326436,42.943577,0 -2.326219,42.943444,0 -2.326061,42.943357,0 -2.326026,42.943319,0 -2.326007,42.94323,0 -2.326033,42.943167,0 -2.326121,42.943095,0 -2.326168,42.943041,0 -2.326185,42.942999,0 -2.326142,42.942812,0 -2.326092,42.942672,0 -2.326051,42.942488,0 -2.326039,42.942354,0 -2.325975,42.942179,0 -2.32593,42.941785,0 -2.325902,42.941646,0 -2.325917,42.941468,0 -2.32592,42.941307,0 -2.325891,42.941144,0 -2.325899,42.940879,0 -2.325888,42.940808,0 -2.32586,42.940718,0 -2.325905,42.940613,0 -2.325917,42.940572,0 -2.325912,42.940469,0 -2.325935,42.940405,0 -2.326025,42.940406,0 -2.326704,42.940544,0 -2.326791,42.94053,0 -2.326869,42.940496,0 -2.326971,42.94041,0 -2.327086,42.940299,0 -2.327076,42.940346,0 -2.327083,42.940387,0 -2.327101,42.940431,0 -2.327104,42.94047,0 -2.327244,42.940526,0 -2.327309,42.940575,0 -2.32736,42.94062,0 -2.327423,42.940753,0 -2.327479,42.940818,0 -2.327719,42.941013,0 -2.327893,42.941134,0 -2.327905,42.941154,0 -2.327896,42.941177,0 -2.327677,42.941304,0 -2.327455,42.941447,0 -2.3274,42.941493,0 -2.327371,42.941536,0 -2.327348,42.9416,0 -2.327352,42.941647,0 -2.327378,42.941699,0 -2.327408,42.941721,0 -2.327668,42.941737,0 -2.327762,42.941751,0 -2.328073,42.941861,0 -2.328307,42.941931,0 -2.328554,42.941963,0 -2.328636,42.941986,0 -2.328793,42.942074,0 -2.328893,42.942113,0 -2.329172,42.942174,0 -2.329307,42.942193,0 -2.329467,42.942204,0 -2.329612,42.942221,0 -2.329703,42.942247,0 -2.329769,42.942273,0 -2.329846,42.94232,0 -2.32994,42.942362,0 -2.330121,42.942427,0 -2.330202,42.942467,0 -2.330241,42.942498,0 -2.330282,42.942593,0 -2.330392,42.942701,0 -2.33043,42.9427,0 -2.330458,42.942684,0 -2.330524,42.942601,0 -2.330573,42.942572,0 -2.330641,42.942561,0 -2.330712,42.942568,0 -2.330791,42.942601,0 -2.331031,42.942682,0 -2.331236,42.942772,0 -2.331314,42.942786,0 -2.331395,42.942779,0 -2.331452,42.942766,0 -2.331524,42.942735,0 -2.331615,42.942716,0 -2.33169,42.942726,0 -2.331767,42.942776,0 -2.331915,42.942891,0 -2.332165,42.94303,0 -2.332253,42.943071,0 -2.332165,42.94303,0 -2.331915,42.942891,0 -2.331767,42.942776,0 -2.33169,42.942726,0 -2.331615,42.942716,0 -2.331524,42.942735,0 -2.331452,42.942766,0 -2.331395,42.942779,0 -2.331314,42.942786,0 -2.331236,42.942772,0 -2.331031,42.942682,0 -2.330791,42.942601,0 -2.330712,42.942568,0 -2.330641,42.942561,0 -2.330573,42.942572,0 -2.330524,42.942601,0 -2.330458,42.942684,0 -2.33043,42.9427,0 -2.330392,42.942701,0 -2.330282,42.942593,0 -2.330241,42.942498,0 -2.330202,42.942467,0 -2.330121,42.942427,0 -2.32994,42.942362,0 -2.329846,42.94232,0 -2.329769,42.942273,0 -2.329703,42.942247,0 -2.329612,42.942221,0 -2.329467,42.942204,0 -2.329307,42.942193,0 -2.329172,42.942174,0 -2.328893,42.942113,0 -2.328793,42.942074,0 -2.328636,42.941986,0 -2.328554,42.941963,0 -2.328307,42.941931,0 -2.328073,42.941861,0 -2.327762,42.941751,0 -2.327668,42.941737,0 -2.327408,42.941721,0 -2.327378,42.941699,0 -2.327352,42.941647,0 -2.327348,42.9416,0 -2.327371,42.941536,0 -2.3274,42.941493,0 -2.327455,42.941447,0 -2.327677,42.941304,0 -2.327896,42.941177,0 -2.327905,42.941154,0 -2.327893,42.941134,0 -2.327719,42.941013,0 -2.327479,42.940818,0 -2.327423,42.940753,0 -2.32736,42.94062,0 -2.327309,42.940575,0 -2.327244,42.940526,0 -2.327104,42.94047,0 -2.327101,42.940431,0 -2.327083,42.940387,0 -2.327076,42.940346,0 -2.327086,42.940299,0 -2.327167,42.940059,0 -2.327226,42.939926,0 -2.327213,42.939805,0 -2.327159,42.939643,0 -2.327029,42.939417,0 -2.327019,42.939337,0 -2.326948,42.939189,0 -2.326805,42.939067,0 -2.326601,42.938942,0 -2.326377,42.938674,0 -2.326287,42.938585,0 -2.326155,42.938349,0 -2.326113,42.938249,0 -2.326104,42.938128,0 -2.326084,42.938054,0 -2.326018,42.937973,0 -2.325699,42.937747,0 -2.325662,42.937692,0 -2.325602,42.93765,0 -2.325544,42.937585,0 -2.325458,42.937543,0 -2.325346,42.937504,0 -2.325151,42.937454,0 -2.324915,42.937364,0 -2.324802,42.937359,0 -2.324749,42.937341,0 -2.324665,42.937235,0 -2.324544,42.937123,0 -2.32448,42.937041,0 -2.324406,42.936911,0 -2.324365,42.936864,0 -2.324272,42.936794,0 -2.324186,42.936686,0 -2.324113,42.93657,0 -2.324074,42.936474,0 -2.323989,42.936336,0 -2.323919,42.936158,0 -2.323857,42.936028,0 -2.323765,42.935956,0 -2.323718,42.935905,0 -2.323691,42.935852,0 -2.323348,42.935469,0 -2.323282,42.935356,0 -2.32326,42.935336,0 -2.323212,42.935344,0 -2.32318,42.935374,0 -2.323147,42.935423,0 -2.32312,42.93542,0 -2.323091,42.935402,0 -2.323054,42.935338,0 -2.323012,42.935235,0 -2.322942,42.935032,0 -2.322902,42.934872,0 -2.322847,42.934789,0 -2.322813,42.934721,0 -2.322714,42.934464,0 -2.322642,42.934301,0 -2.322609,42.934156,0 -2.322554,42.934053,0 -2.322468,42.933943,0 -2.322285,42.934052,0 -2.322142,42.934191,0 -2.322013,42.934297,0 -2.321691,42.934476,0 -2.321603,42.934501,0 -2.321538,42.93449,0 -2.321401,42.934448,0 -2.321237,42.934423,0 -2.321096,42.934412,0 -2.320931,42.934438,0 -2.320688,42.934533,0 -2.320449,42.934653,0 -2.320312,42.934765,0 -2.320259,42.934842,0 -2.320206,42.935053,0 -2.320141,42.935195,0 -2.320056,42.935336,0 -2.319901,42.935536,0 -2.319773,42.935629,0 -2.319503,42.935782,0 -2.319404,42.935819,0 -2.319353,42.93582,0 -2.319252,42.93582,0 -2.319062,42.935795,0 -2.318658,42.935764,0 -2.318548,42.935786,0 -2.318481,42.935852,0 -2.318417,42.935895,0 -2.318273,42.935979,0 -2.317986,42.936126,0 -2.317895,42.936153,0 -2.317612,42.93619,0 -2.317519,42.936195,0 -2.317464,42.936188,0 -2.317397,42.936166,0 -2.317345,42.936137,0 -2.317126,42.935928,0 -2.317,42.93588,0 -2.316877,42.935839,0 -2.316705,42.935694,0 -2.316562,42.935539,0 -2.31622,42.935126,0 -2.316105,42.935042,0 -2.316067,42.935036,0 -2.315691,42.935169,0 -2.315312,42.935304,0 -2.31527,42.935331,0 -2.315252,42.935378,0 -2.315242,42.935386,0 -2.315178,42.935385,0 -2.315147,42.935394,0 -2.315033,42.935615,0 -2.314983,42.935661,0 -2.31496,42.935668,0 -2.314454,42.93583,0 -2.31409,42.935873,0 -2.313821,42.935924,0 -2.313653,42.935971,0 -2.313595,42.935982,0 -2.313504,42.935984,0 -2.313439,42.935999,0 -2.313388,42.936025,0 -2.3133,42.936083,0 -2.313138,42.93615,0 -2.313055,42.936197,0 -2.312957,42.936233,0 -2.312764,42.936358,0 -2.312621,42.936429,0 -2.312521,42.936498,0 -2.312299,42.936623,0 -2.31222,42.936656,0 -2.31212,42.936672,0 -2.311993,42.936729,0 -2.311816,42.936831,0 -2.311574,42.936996,0 -2.31152,42.937012,0 -2.311406,42.937088,0 -2.311246,42.937173,0 -2.311049,42.937316,0 -2.311027,42.937364,0 -2.311006,42.937444,0 -2.310966,42.937491,0 -2.310905,42.937518,0 -2.310847,42.937554,0 -2.310696,42.937556,0 -2.31063,42.937574,0 -2.310018,42.93757,0 -2.309792,42.937558,0 -2.309684,42.93755,0 -2.309521,42.937561,0 -2.309417,42.937559,0 -2.309285,42.937566,0 -2.309191,42.937557,0 -2.309069,42.937564,0 -2.308994,42.937545,0 -2.308602,42.937538,0 -2.308301,42.93752,0 -2.30818,42.937518,0 -2.30808,42.937501,0 -2.307963,42.937496,0 -2.307562,42.937439,0 -2.307368,42.937419,0 -2.307212,42.937412,0 -2.307129,42.9374,0 -2.307001,42.937297,0 -2.306917,42.937216,0 -2.306897,42.93713,0 -2.306902,42.937049,0 -2.306896,42.937005,0 -2.306917,42.936689,0 -2.306874,42.936543,0 -2.306845,42.936505,0 -2.306774,42.936447,0 -2.306681,42.936349,0 -2.306617,42.936304,0 -2.30642,42.936201,0 -2.306326,42.936172,0 -2.306112,42.936121,0 -2.305943,42.936092,0 -2.305768,42.936037,0 -2.305595,42.935993,0 -2.305601,42.93597,0 -2.305637,42.935943,0 -2.305785,42.935909,0 -2.305805,42.935882,0 -2.305721,42.935824,0 -2.305471,42.935684,0 -2.305317,42.935544,0 -2.305045,42.935347,0 -2.304954,42.935307,0 -2.304759,42.935236,0 -2.304748,42.935227,0 -2.304741,42.93522,0 -2.304572,42.935172,0 -2.304571,42.93516,0 -2.304689,42.935082,0 -2.304678,42.935065,0 -2.304551,42.935028,0 -2.304463,42.934994,0 -2.304368,42.934974,0 -2.304295,42.934954,0 -2.304217,42.934945,0 -2.30413,42.934955,0 -2.304017,42.93501,0 -2.303922,42.935077,0 -2.303718,42.935153,0 -2.303562,42.935183,0 -2.303457,42.935197,0 -2.303399,42.935197,0 -2.30335,42.935181,0 -2.303272,42.935112,0 -2.303366,42.935064,0</coordinates></LineString></Placemark></Document></kml>