<?xml version="1.0" encoding="UTF-8"?><gpx version="1.1" creator="Basque Hikes Atlas" xmlns="http://www.topografix.com/GPX/1/1"><metadata><name>Aizkorri · вершина и скальный тоннель San Adrián</name><desc>Планировочная реконструкция по OpenStreetMap, 14.09.2026. Не запись GPS и не проверенный навигационный трек. Высоты не экспортированы. Данные © OpenStreetMap contributors, ODbL. Автопереезды и канатки в пеший трек не включены.</desc><link href="https://www.openstreetmap.org/copyright"><text>OpenStreetMap contributors · ODbL</text></link></metadata><wpt lat="42.935057" lon="-2.303357"><name>Aldaola / Ubier · парковка</name></wpt><wpt lat="42.936079" lon="-2.313353"><name>San Adrián · вход в скальный тоннель</name></wpt><wpt lat="42.93517" lon="-2.31569"><name>San Adrián · старая дорога у выхода</name></wpt><wpt lat="42.951335" lon="-2.325235"><name>Aizkorri · вершина с часовней</name></wpt><trk><name>Aizkorri · вершина и скальный тоннель San Adrián</name><desc>Планировочная реконструкция по OpenStreetMap, 14.09.2026. Не запись GPS и не проверенный навигационный трек. Высоты не экспортированы. Данные © OpenStreetMap contributors, ODbL. Автопереезды и канатки в пеший трек не включены.</desc><type>hiking</type><trkseg><trkpt lat="42.935064" lon="-2.303366"/><trkpt lat="42.935112" lon="-2.303272"/><trkpt lat="42.935181" lon="-2.30335"/><trkpt lat="42.935197" lon="-2.303399"/><trkpt lat="42.935197" lon="-2.303457"/><trkpt lat="42.935183" lon="-2.303562"/><trkpt lat="42.935153" lon="-2.303718"/><trkpt lat="42.935077" lon="-2.303922"/><trkpt lat="42.93501" lon="-2.304017"/><trkpt lat="42.934955" lon="-2.30413"/><trkpt lat="42.934945" lon="-2.304217"/><trkpt lat="42.934954" lon="-2.304295"/><trkpt lat="42.934974" lon="-2.304368"/><trkpt lat="42.934994" lon="-2.304463"/><trkpt lat="42.935028" lon="-2.304551"/><trkpt lat="42.935065" lon="-2.304678"/><trkpt lat="42.935082" lon="-2.304689"/><trkpt lat="42.93516" lon="-2.304571"/><trkpt lat="42.935172" lon="-2.304572"/><trkpt lat="42.93522" lon="-2.304741"/><trkpt lat="42.935227" lon="-2.304748"/><trkpt lat="42.935236" lon="-2.304759"/><trkpt lat="42.935307" lon="-2.304954"/><trkpt lat="42.935347" lon="-2.305045"/><trkpt lat="42.935544" lon="-2.305317"/><trkpt lat="42.935684" lon="-2.305471"/><trkpt lat="42.935824" lon="-2.305721"/><trkpt lat="42.935882" lon="-2.305805"/><trkpt lat="42.935909" lon="-2.305785"/><trkpt lat="42.935943" lon="-2.305637"/><trkpt lat="42.93597" lon="-2.305601"/><trkpt lat="42.935993" lon="-2.305595"/><trkpt lat="42.936037" lon="-2.305768"/><trkpt lat="42.936092" lon="-2.305943"/><trkpt lat="42.936121" lon="-2.306112"/><trkpt lat="42.936172" lon="-2.306326"/><trkpt lat="42.936201" lon="-2.30642"/><trkpt lat="42.936304" lon="-2.306617"/><trkpt lat="42.936349" lon="-2.306681"/><trkpt lat="42.936447" lon="-2.306774"/><trkpt lat="42.936505" lon="-2.306845"/><trkpt lat="42.936543" lon="-2.306874"/><trkpt lat="42.936689" lon="-2.306917"/><trkpt lat="42.937005" lon="-2.306896"/><trkpt lat="42.937049" lon="-2.306902"/><trkpt lat="42.93713" lon="-2.306897"/><trkpt lat="42.937216" lon="-2.306917"/><trkpt lat="42.937297" lon="-2.307001"/><trkpt lat="42.9374" lon="-2.307129"/><trkpt lat="42.937412" lon="-2.307212"/><trkpt lat="42.937419" lon="-2.307368"/><trkpt lat="42.937439" lon="-2.307562"/><trkpt lat="42.937496" lon="-2.307963"/><trkpt lat="42.937501" lon="-2.30808"/><trkpt lat="42.937518" lon="-2.30818"/><trkpt lat="42.93752" lon="-2.308301"/><trkpt lat="42.937538" lon="-2.308602"/><trkpt lat="42.937545" lon="-2.308994"/><trkpt lat="42.937564" lon="-2.309069"/><trkpt lat="42.937557" lon="-2.309191"/><trkpt lat="42.937566" lon="-2.309285"/><trkpt lat="42.937559" lon="-2.309417"/><trkpt lat="42.937561" lon="-2.309521"/><trkpt lat="42.93755" lon="-2.309684"/><trkpt lat="42.937558" lon="-2.309792"/><trkpt lat="42.93757" lon="-2.310018"/><trkpt lat="42.937574" lon="-2.31063"/><trkpt lat="42.937556" lon="-2.310696"/><trkpt lat="42.937554" lon="-2.310847"/><trkpt lat="42.937518" lon="-2.310905"/><trkpt lat="42.937491" lon="-2.310966"/><trkpt lat="42.937444" lon="-2.311006"/><trkpt lat="42.937364" lon="-2.311027"/><trkpt lat="42.937316" lon="-2.311049"/><trkpt lat="42.937173" lon="-2.311246"/><trkpt lat="42.937088" lon="-2.311406"/><trkpt lat="42.937012" lon="-2.31152"/><trkpt lat="42.936996" lon="-2.311574"/><trkpt lat="42.936831" lon="-2.311816"/><trkpt lat="42.936729" lon="-2.311993"/><trkpt lat="42.936672" lon="-2.31212"/><trkpt lat="42.936656" lon="-2.31222"/><trkpt lat="42.936623" lon="-2.312299"/><trkpt lat="42.936498" lon="-2.312521"/><trkpt lat="42.936429" lon="-2.312621"/><trkpt lat="42.936358" lon="-2.312764"/><trkpt lat="42.936233" lon="-2.312957"/><trkpt lat="42.936197" lon="-2.313055"/><trkpt lat="42.93615" lon="-2.313138"/><trkpt lat="42.936083" lon="-2.3133"/><trkpt lat="42.936061" lon="-2.313334"/><trkpt lat="42.936025" lon="-2.313388"/><trkpt lat="42.935999" lon="-2.313439"/><trkpt lat="42.935984" lon="-2.313504"/><trkpt lat="42.935982" lon="-2.313595"/><trkpt lat="42.935971" lon="-2.313653"/><trkpt lat="42.935924" lon="-2.313821"/><trkpt lat="42.935873" lon="-2.31409"/><trkpt lat="42.93583" lon="-2.314454"/><trkpt lat="42.935668" lon="-2.31496"/><trkpt lat="42.935661" lon="-2.314983"/><trkpt lat="42.935615" lon="-2.315033"/><trkpt lat="42.935394" lon="-2.315147"/><trkpt lat="42.935385" lon="-2.315178"/><trkpt lat="42.935386" lon="-2.315242"/><trkpt lat="42.935378" lon="-2.315252"/><trkpt lat="42.935331" lon="-2.31527"/><trkpt lat="42.935304" lon="-2.315312"/><trkpt lat="42.935169" lon="-2.315691"/><trkpt lat="42.935036" lon="-2.316067"/><trkpt lat="42.935042" lon="-2.316105"/><trkpt lat="42.935126" lon="-2.31622"/><trkpt lat="42.935539" lon="-2.316562"/><trkpt lat="42.935694" lon="-2.316705"/><trkpt lat="42.935839" lon="-2.316877"/><trkpt lat="42.93588" lon="-2.317"/><trkpt lat="42.935928" lon="-2.317126"/><trkpt lat="42.936137" lon="-2.317345"/><trkpt lat="42.936166" lon="-2.317397"/><trkpt lat="42.936188" lon="-2.317464"/><trkpt lat="42.936195" lon="-2.317519"/><trkpt lat="42.93619" lon="-2.317612"/><trkpt lat="42.936153" lon="-2.317895"/><trkpt lat="42.936126" lon="-2.317986"/><trkpt lat="42.935979" lon="-2.318273"/><trkpt lat="42.935895" lon="-2.318417"/><trkpt lat="42.935852" lon="-2.318481"/><trkpt lat="42.935786" lon="-2.318548"/><trkpt lat="42.935764" lon="-2.318658"/><trkpt lat="42.935795" lon="-2.319062"/><trkpt lat="42.93582" lon="-2.319252"/><trkpt lat="42.93582" lon="-2.319353"/><trkpt lat="42.935819" lon="-2.319404"/><trkpt lat="42.935782" lon="-2.319503"/><trkpt lat="42.935629" lon="-2.319773"/><trkpt lat="42.935536" lon="-2.319901"/><trkpt lat="42.935336" lon="-2.320056"/><trkpt lat="42.935195" lon="-2.320141"/><trkpt lat="42.935053" lon="-2.320206"/><trkpt lat="42.934842" lon="-2.320259"/><trkpt lat="42.934765" lon="-2.320312"/><trkpt lat="42.934653" lon="-2.320449"/><trkpt lat="42.934533" lon="-2.320688"/><trkpt lat="42.934438" lon="-2.320931"/><trkpt lat="42.934412" lon="-2.321096"/><trkpt lat="42.934423" lon="-2.321237"/><trkpt lat="42.934448" lon="-2.321401"/><trkpt lat="42.93449" lon="-2.321538"/><trkpt lat="42.934501" lon="-2.321603"/><trkpt lat="42.934476" lon="-2.321691"/><trkpt lat="42.934297" lon="-2.322013"/><trkpt lat="42.934191" lon="-2.322142"/><trkpt lat="42.934052" lon="-2.322285"/><trkpt lat="42.933943" lon="-2.322468"/><trkpt lat="42.934053" lon="-2.322554"/><trkpt lat="42.934156" lon="-2.322609"/><trkpt lat="42.934301" lon="-2.322642"/><trkpt lat="42.934464" lon="-2.322714"/><trkpt lat="42.934721" lon="-2.322813"/><trkpt lat="42.934789" lon="-2.322847"/><trkpt lat="42.934872" lon="-2.322902"/><trkpt lat="42.935032" lon="-2.322942"/><trkpt lat="42.935235" lon="-2.323012"/><trkpt lat="42.935338" lon="-2.323054"/><trkpt lat="42.935402" lon="-2.323091"/><trkpt lat="42.93542" lon="-2.32312"/><trkpt lat="42.935423" lon="-2.323147"/><trkpt lat="42.935374" lon="-2.32318"/><trkpt lat="42.935344" lon="-2.323212"/><trkpt lat="42.935336" lon="-2.32326"/><trkpt lat="42.935356" lon="-2.323282"/><trkpt lat="42.935469" lon="-2.323348"/><trkpt lat="42.935852" lon="-2.323691"/><trkpt lat="42.935905" lon="-2.323718"/><trkpt lat="42.935956" lon="-2.323765"/><trkpt lat="42.936028" lon="-2.323857"/><trkpt lat="42.936158" lon="-2.323919"/><trkpt lat="42.936336" lon="-2.323989"/><trkpt lat="42.936474" lon="-2.324074"/><trkpt lat="42.93657" lon="-2.324113"/><trkpt lat="42.936686" lon="-2.324186"/><trkpt lat="42.936794" lon="-2.324272"/><trkpt lat="42.936864" lon="-2.324365"/><trkpt lat="42.936911" lon="-2.324406"/><trkpt lat="42.937041" lon="-2.32448"/><trkpt lat="42.937123" lon="-2.324544"/><trkpt lat="42.937235" lon="-2.324665"/><trkpt lat="42.937341" lon="-2.324749"/><trkpt lat="42.937359" lon="-2.324802"/><trkpt lat="42.937364" lon="-2.324915"/><trkpt lat="42.937454" lon="-2.325151"/><trkpt lat="42.937504" lon="-2.325346"/><trkpt lat="42.937543" lon="-2.325458"/><trkpt lat="42.937585" lon="-2.325544"/><trkpt lat="42.93765" lon="-2.325602"/><trkpt lat="42.937692" lon="-2.325662"/><trkpt lat="42.937747" lon="-2.325699"/><trkpt lat="42.937973" lon="-2.326018"/><trkpt lat="42.938054" lon="-2.326084"/><trkpt lat="42.938128" lon="-2.326104"/><trkpt lat="42.938249" lon="-2.326113"/><trkpt lat="42.938349" lon="-2.326155"/><trkpt lat="42.938585" lon="-2.326287"/><trkpt lat="42.938674" lon="-2.326377"/><trkpt lat="42.938942" lon="-2.326601"/><trkpt lat="42.939067" lon="-2.326805"/><trkpt lat="42.939189" lon="-2.326948"/><trkpt lat="42.939337" lon="-2.327019"/><trkpt lat="42.939417" lon="-2.327029"/><trkpt lat="42.939643" lon="-2.327159"/><trkpt lat="42.939805" lon="-2.327213"/><trkpt lat="42.939926" lon="-2.327226"/><trkpt lat="42.940059" lon="-2.327167"/><trkpt lat="42.940299" lon="-2.327086"/><trkpt lat="42.94041" lon="-2.326971"/><trkpt lat="42.940496" lon="-2.326869"/><trkpt lat="42.94053" lon="-2.326791"/><trkpt lat="42.940544" lon="-2.326704"/><trkpt lat="42.940406" lon="-2.326025"/><trkpt lat="42.940405" lon="-2.325935"/><trkpt lat="42.940469" lon="-2.325912"/><trkpt lat="42.940572" lon="-2.325917"/><trkpt lat="42.940613" lon="-2.325905"/><trkpt lat="42.940718" lon="-2.32586"/><trkpt lat="42.940808" lon="-2.325888"/><trkpt lat="42.940879" lon="-2.325899"/><trkpt lat="42.941144" lon="-2.325891"/><trkpt lat="42.941307" lon="-2.32592"/><trkpt lat="42.941468" lon="-2.325917"/><trkpt lat="42.941646" lon="-2.325902"/><trkpt lat="42.941785" lon="-2.32593"/><trkpt lat="42.942179" lon="-2.325975"/><trkpt lat="42.942354" lon="-2.326039"/><trkpt lat="42.942488" lon="-2.326051"/><trkpt lat="42.942672" lon="-2.326092"/><trkpt lat="42.942812" lon="-2.326142"/><trkpt lat="42.942999" lon="-2.326185"/><trkpt lat="42.943041" lon="-2.326168"/><trkpt lat="42.943095" lon="-2.326121"/><trkpt lat="42.943167" lon="-2.326033"/><trkpt lat="42.94323" lon="-2.326007"/><trkpt lat="42.943319" lon="-2.326026"/><trkpt lat="42.943357" lon="-2.326061"/><trkpt lat="42.943444" lon="-2.326219"/><trkpt lat="42.943577" lon="-2.326436"/><trkpt lat="42.943672" lon="-2.326677"/><trkpt lat="42.943723" lon="-2.326752"/><trkpt lat="42.943768" lon="-2.326927"/><trkpt lat="42.943861" lon="-2.32704"/><trkpt lat="42.943932" lon="-2.327146"/><trkpt lat="42.944001" lon="-2.327288"/><trkpt lat="42.944054" lon="-2.327345"/><trkpt lat="42.944162" lon="-2.327428"/><trkpt lat="42.944307" lon="-2.327494"/><trkpt lat="42.944356" lon="-2.327504"/><trkpt lat="42.944501" lon="-2.327488"/><trkpt lat="42.944551" lon="-2.327473"/><trkpt lat="42.94481" lon="-2.32728"/><trkpt lat="42.944832" lon="-2.32727"/><trkpt lat="42.944991" lon="-2.327285"/><trkpt lat="42.945033" lon="-2.327309"/><trkpt lat="42.945166" lon="-2.327349"/><trkpt lat="42.945247" lon="-2.32746"/><trkpt lat="42.945334" lon="-2.327673"/><trkpt lat="42.945401" lon="-2.327704"/><trkpt lat="42.94566" lon="-2.327764"/><trkpt lat="42.945682" lon="-2.327789"/><trkpt lat="42.945801" lon="-2.327938"/><trkpt lat="42.945826" lon="-2.327945"/><trkpt lat="42.945853" lon="-2.327918"/><trkpt lat="42.945871" lon="-2.327865"/><trkpt lat="42.945887" lon="-2.32785"/><trkpt lat="42.945999" lon="-2.327885"/><trkpt lat="42.946029" lon="-2.327906"/><trkpt lat="42.946062" lon="-2.327942"/><trkpt lat="42.946168" lon="-2.327948"/><trkpt lat="42.946193" lon="-2.327947"/><trkpt lat="42.94625" lon="-2.327912"/><trkpt lat="42.94633" lon="-2.327929"/><trkpt lat="42.946359" lon="-2.327914"/><trkpt lat="42.946412" lon="-2.32787"/><trkpt lat="42.946482" lon="-2.327849"/><trkpt lat="42.946603" lon="-2.327859"/><trkpt lat="42.946716" lon="-2.327893"/><trkpt lat="42.946843" lon="-2.327947"/><trkpt lat="42.946925" lon="-2.32795"/><trkpt lat="42.947007" lon="-2.327913"/><trkpt lat="42.947207" lon="-2.327773"/><trkpt lat="42.94731" lon="-2.32769"/><trkpt lat="42.9475" lon="-2.3275"/><trkpt lat="42.947529" lon="-2.327394"/><trkpt lat="42.947559" lon="-2.327201"/><trkpt lat="42.947575" lon="-2.327139"/><trkpt lat="42.947658" lon="-2.327087"/><trkpt lat="42.947686" lon="-2.327034"/><trkpt lat="42.947699" lon="-2.32699"/><trkpt lat="42.947699" lon="-2.32693"/><trkpt lat="42.947643" lon="-2.326784"/><trkpt lat="42.94763" lon="-2.326672"/><trkpt lat="42.947639" lon="-2.326623"/><trkpt lat="42.947669" lon="-2.326549"/><trkpt lat="42.947727" lon="-2.326295"/><trkpt lat="42.947785" lon="-2.326201"/><trkpt lat="42.947828" lon="-2.326043"/><trkpt lat="42.947876" lon="-2.325911"/><trkpt lat="42.947934" lon="-2.325867"/><trkpt lat="42.947981" lon="-2.325852"/><trkpt lat="42.94803" lon="-2.325822"/><trkpt lat="42.94815" lon="-2.325839"/><trkpt lat="42.948249" lon="-2.325791"/><trkpt lat="42.948269" lon="-2.32576"/><trkpt lat="42.948311" lon="-2.325735"/><trkpt lat="42.948378" lon="-2.32575"/><trkpt lat="42.94845" lon="-2.325723"/><trkpt lat="42.948537" lon="-2.325716"/><trkpt lat="42.948657" lon="-2.325687"/><trkpt lat="42.948687" lon="-2.325652"/><trkpt lat="42.948774" lon="-2.32566"/><trkpt lat="42.94889" lon="-2.325588"/><trkpt lat="42.948898" lon="-2.325565"/><trkpt lat="42.94887" lon="-2.325523"/><trkpt lat="42.948872" lon="-2.325504"/><trkpt lat="42.948894" lon="-2.325486"/><trkpt lat="42.948953" lon="-2.325467"/><trkpt lat="42.948969" lon="-2.325415"/><trkpt lat="42.949003" lon="-2.325388"/><trkpt lat="42.949024" lon="-2.325344"/><trkpt lat="42.949076" lon="-2.325326"/><trkpt lat="42.949119" lon="-2.325267"/><trkpt lat="42.94915" lon="-2.325202"/><trkpt lat="42.949145" lon="-2.32517"/><trkpt lat="42.949112" lon="-2.325108"/><trkpt lat="42.949049" lon="-2.324956"/><trkpt lat="42.94897" lon="-2.324892"/><trkpt lat="42.948967" lon="-2.324862"/><trkpt lat="42.949002" lon="-2.324802"/><trkpt lat="42.949029" lon="-2.324782"/><trkpt lat="42.94905" lon="-2.324749"/><trkpt lat="42.949114" lon="-2.324764"/><trkpt lat="42.94916" lon="-2.324711"/><trkpt lat="42.949216" lon="-2.324673"/><trkpt lat="42.949235" lon="-2.324645"/><trkpt lat="42.949266" lon="-2.324535"/><trkpt lat="42.949258" lon="-2.324488"/><trkpt lat="42.949241" lon="-2.324456"/><trkpt lat="42.949239" lon="-2.324422"/><trkpt lat="42.949262" lon="-2.324396"/><trkpt lat="42.949311" lon="-2.324388"/><trkpt lat="42.949369" lon="-2.324409"/><trkpt lat="42.94941" lon="-2.324445"/><trkpt lat="42.949454" lon="-2.324462"/><trkpt lat="42.949561" lon="-2.324532"/><trkpt lat="42.949581" lon="-2.324527"/><trkpt lat="42.949645" lon="-2.324484"/><trkpt lat="42.949713" lon="-2.324479"/><trkpt lat="42.949769" lon="-2.324496"/><trkpt lat="42.94981" lon="-2.324543"/><trkpt lat="42.949845" lon="-2.324546"/><trkpt lat="42.949969" lon="-2.324599"/><trkpt lat="42.950004" lon="-2.324603"/><trkpt lat="42.950082" lon="-2.324595"/><trkpt lat="42.950171" lon="-2.324641"/><trkpt lat="42.950223" lon="-2.324617"/><trkpt lat="42.950248" lon="-2.324565"/><trkpt lat="42.950312" lon="-2.324482"/><trkpt lat="42.950332" lon="-2.32447"/><trkpt lat="42.950365" lon="-2.324464"/><trkpt lat="42.950473" lon="-2.324522"/><trkpt lat="42.950529" lon="-2.324529"/><trkpt lat="42.950555" lon="-2.324559"/><trkpt lat="42.950629" lon="-2.324569"/><trkpt lat="42.950664" lon="-2.324584"/><trkpt lat="42.950712" lon="-2.324656"/><trkpt lat="42.950969" lon="-2.32473"/><trkpt lat="42.951013" lon="-2.324749"/><trkpt lat="42.951054" lon="-2.324781"/><trkpt lat="42.951092" lon="-2.324841"/><trkpt lat="42.951114" lon="-2.324901"/><trkpt lat="42.951119" lon="-2.324987"/><trkpt lat="42.951147" lon="-2.324968"/><trkpt lat="42.951168" lon="-2.324974"/><trkpt lat="42.951222" lon="-2.325055"/><trkpt lat="42.951231" lon="-2.325115"/><trkpt lat="42.951246" lon="-2.32515"/><trkpt lat="42.951279" lon="-2.325189"/><trkpt lat="42.951333" lon="-2.325238"/><trkpt lat="42.951279" lon="-2.325189"/><trkpt lat="42.951246" lon="-2.32515"/><trkpt lat="42.951231" lon="-2.325115"/><trkpt lat="42.951222" lon="-2.325055"/><trkpt lat="42.951168" lon="-2.324974"/><trkpt lat="42.951147" lon="-2.324968"/><trkpt lat="42.951119" lon="-2.324987"/><trkpt lat="42.951114" lon="-2.324901"/><trkpt lat="42.951092" lon="-2.324841"/><trkpt lat="42.951054" lon="-2.324781"/><trkpt lat="42.951013" lon="-2.324749"/><trkpt lat="42.950969" lon="-2.32473"/><trkpt lat="42.950712" lon="-2.324656"/><trkpt lat="42.950664" lon="-2.324584"/><trkpt lat="42.950629" lon="-2.324569"/><trkpt lat="42.950555" lon="-2.324559"/><trkpt lat="42.950529" lon="-2.324529"/><trkpt lat="42.950473" lon="-2.324522"/><trkpt lat="42.950365" lon="-2.324464"/><trkpt lat="42.950332" lon="-2.32447"/><trkpt lat="42.950312" lon="-2.324482"/><trkpt lat="42.950248" lon="-2.324565"/><trkpt lat="42.950223" lon="-2.324617"/><trkpt lat="42.950171" lon="-2.324641"/><trkpt lat="42.950082" lon="-2.324595"/><trkpt lat="42.950004" lon="-2.324603"/><trkpt lat="42.949969" lon="-2.324599"/><trkpt lat="42.949845" lon="-2.324546"/><trkpt lat="42.94981" lon="-2.324543"/><trkpt lat="42.949769" lon="-2.324496"/><trkpt lat="42.949713" lon="-2.324479"/><trkpt lat="42.949645" lon="-2.324484"/><trkpt lat="42.949581" lon="-2.324527"/><trkpt lat="42.949561" lon="-2.324532"/><trkpt lat="42.949454" lon="-2.324462"/><trkpt lat="42.94941" lon="-2.324445"/><trkpt lat="42.949369" lon="-2.324409"/><trkpt lat="42.949311" lon="-2.324388"/><trkpt lat="42.949262" lon="-2.324396"/><trkpt lat="42.949239" lon="-2.324422"/><trkpt lat="42.949241" lon="-2.324456"/><trkpt lat="42.949258" lon="-2.324488"/><trkpt lat="42.949266" lon="-2.324535"/><trkpt lat="42.949235" lon="-2.324645"/><trkpt lat="42.949216" lon="-2.324673"/><trkpt lat="42.94916" lon="-2.324711"/><trkpt lat="42.949114" lon="-2.324764"/><trkpt lat="42.94905" lon="-2.324749"/><trkpt lat="42.949029" lon="-2.324782"/><trkpt lat="42.949002" lon="-2.324802"/><trkpt lat="42.948967" lon="-2.324862"/><trkpt lat="42.94897" lon="-2.324892"/><trkpt lat="42.949049" lon="-2.324956"/><trkpt lat="42.949112" lon="-2.325108"/><trkpt lat="42.949145" lon="-2.32517"/><trkpt lat="42.94915" lon="-2.325202"/><trkpt lat="42.949119" lon="-2.325267"/><trkpt lat="42.949076" lon="-2.325326"/><trkpt lat="42.949024" lon="-2.325344"/><trkpt lat="42.949003" lon="-2.325388"/><trkpt lat="42.948969" lon="-2.325415"/><trkpt lat="42.948953" lon="-2.325467"/><trkpt lat="42.948894" lon="-2.325486"/><trkpt lat="42.948872" lon="-2.325504"/><trkpt lat="42.94887" lon="-2.325523"/><trkpt lat="42.948898" lon="-2.325565"/><trkpt lat="42.94889" lon="-2.325588"/><trkpt lat="42.948774" lon="-2.32566"/><trkpt lat="42.948687" lon="-2.325652"/><trkpt lat="42.948657" lon="-2.325687"/><trkpt lat="42.948537" lon="-2.325716"/><trkpt lat="42.94845" lon="-2.325723"/><trkpt lat="42.948378" lon="-2.32575"/><trkpt lat="42.948311" lon="-2.325735"/><trkpt lat="42.948269" lon="-2.32576"/><trkpt lat="42.948249" lon="-2.325791"/><trkpt lat="42.94815" lon="-2.325839"/><trkpt lat="42.94803" lon="-2.325822"/><trkpt lat="42.947981" lon="-2.325852"/><trkpt lat="42.947934" lon="-2.325867"/><trkpt lat="42.947876" lon="-2.325911"/><trkpt lat="42.947828" lon="-2.326043"/><trkpt lat="42.947785" lon="-2.326201"/><trkpt lat="42.947727" lon="-2.326295"/><trkpt lat="42.947669" lon="-2.326549"/><trkpt lat="42.947639" lon="-2.326623"/><trkpt lat="42.94763" lon="-2.326672"/><trkpt lat="42.947643" lon="-2.326784"/><trkpt lat="42.947699" lon="-2.32693"/><trkpt lat="42.947699" lon="-2.32699"/><trkpt lat="42.947686" lon="-2.327034"/><trkpt lat="42.947658" lon="-2.327087"/><trkpt lat="42.947575" lon="-2.327139"/><trkpt lat="42.947559" lon="-2.327201"/><trkpt lat="42.947529" lon="-2.327394"/><trkpt lat="42.9475" lon="-2.3275"/><trkpt lat="42.94731" lon="-2.32769"/><trkpt lat="42.947207" lon="-2.327773"/><trkpt lat="42.947007" lon="-2.327913"/><trkpt lat="42.946925" lon="-2.32795"/><trkpt lat="42.946843" lon="-2.327947"/><trkpt lat="42.946716" lon="-2.327893"/><trkpt lat="42.946603" lon="-2.327859"/><trkpt lat="42.946482" lon="-2.327849"/><trkpt lat="42.946412" lon="-2.32787"/><trkpt lat="42.946359" lon="-2.327914"/><trkpt lat="42.94633" lon="-2.327929"/><trkpt lat="42.94625" lon="-2.327912"/><trkpt lat="42.946193" lon="-2.327947"/><trkpt lat="42.946168" lon="-2.327948"/><trkpt lat="42.946062" lon="-2.327942"/><trkpt lat="42.946029" lon="-2.327906"/><trkpt lat="42.945999" lon="-2.327885"/><trkpt lat="42.945887" lon="-2.32785"/><trkpt lat="42.945871" lon="-2.327865"/><trkpt lat="42.945853" lon="-2.327918"/><trkpt lat="42.945826" lon="-2.327945"/><trkpt lat="42.945801" lon="-2.327938"/><trkpt lat="42.945682" lon="-2.327789"/><trkpt lat="42.94566" lon="-2.327764"/><trkpt lat="42.945401" lon="-2.327704"/><trkpt lat="42.945334" lon="-2.327673"/><trkpt lat="42.945247" lon="-2.32746"/><trkpt lat="42.945166" lon="-2.327349"/><trkpt lat="42.945033" lon="-2.327309"/><trkpt lat="42.944991" lon="-2.327285"/><trkpt lat="42.944832" lon="-2.32727"/><trkpt lat="42.94481" lon="-2.32728"/><trkpt lat="42.944551" lon="-2.327473"/><trkpt lat="42.944501" lon="-2.327488"/><trkpt lat="42.944356" lon="-2.327504"/><trkpt lat="42.944307" lon="-2.327494"/><trkpt lat="42.944162" lon="-2.327428"/><trkpt lat="42.944054" lon="-2.327345"/><trkpt lat="42.944001" lon="-2.327288"/><trkpt lat="42.943932" lon="-2.327146"/><trkpt lat="42.943861" lon="-2.32704"/><trkpt lat="42.943768" lon="-2.326927"/><trkpt lat="42.943723" lon="-2.326752"/><trkpt lat="42.943672" lon="-2.326677"/><trkpt lat="42.943577" lon="-2.326436"/><trkpt lat="42.943444" lon="-2.326219"/><trkpt lat="42.943357" lon="-2.326061"/><trkpt lat="42.943319" lon="-2.326026"/><trkpt lat="42.94323" lon="-2.326007"/><trkpt lat="42.943167" lon="-2.326033"/><trkpt lat="42.943095" lon="-2.326121"/><trkpt lat="42.943041" lon="-2.326168"/><trkpt lat="42.942999" lon="-2.326185"/><trkpt lat="42.942812" lon="-2.326142"/><trkpt lat="42.942672" lon="-2.326092"/><trkpt lat="42.942488" lon="-2.326051"/><trkpt lat="42.942354" lon="-2.326039"/><trkpt lat="42.942179" lon="-2.325975"/><trkpt lat="42.941785" lon="-2.32593"/><trkpt lat="42.941646" lon="-2.325902"/><trkpt lat="42.941468" lon="-2.325917"/><trkpt lat="42.941307" lon="-2.32592"/><trkpt lat="42.941144" lon="-2.325891"/><trkpt lat="42.940879" lon="-2.325899"/><trkpt lat="42.940808" lon="-2.325888"/><trkpt lat="42.940718" lon="-2.32586"/><trkpt lat="42.940613" lon="-2.325905"/><trkpt lat="42.940572" lon="-2.325917"/><trkpt lat="42.940469" lon="-2.325912"/><trkpt lat="42.940405" lon="-2.325935"/><trkpt lat="42.940406" lon="-2.326025"/><trkpt lat="42.940544" lon="-2.326704"/><trkpt lat="42.94053" lon="-2.326791"/><trkpt lat="42.940496" lon="-2.326869"/><trkpt lat="42.94041" lon="-2.326971"/><trkpt lat="42.940299" lon="-2.327086"/><trkpt lat="42.940346" lon="-2.327076"/><trkpt lat="42.940387" lon="-2.327083"/><trkpt lat="42.940431" lon="-2.327101"/><trkpt lat="42.94047" lon="-2.327104"/><trkpt lat="42.940526" lon="-2.327244"/><trkpt lat="42.940575" lon="-2.327309"/><trkpt lat="42.94062" lon="-2.32736"/><trkpt lat="42.940753" lon="-2.327423"/><trkpt lat="42.940818" lon="-2.327479"/><trkpt lat="42.941013" lon="-2.327719"/><trkpt lat="42.941134" lon="-2.327893"/><trkpt lat="42.941154" lon="-2.327905"/><trkpt lat="42.941177" lon="-2.327896"/><trkpt lat="42.941304" lon="-2.327677"/><trkpt lat="42.941447" lon="-2.327455"/><trkpt lat="42.941493" lon="-2.3274"/><trkpt lat="42.941536" lon="-2.327371"/><trkpt lat="42.9416" lon="-2.327348"/><trkpt lat="42.941647" lon="-2.327352"/><trkpt lat="42.941699" lon="-2.327378"/><trkpt lat="42.941721" lon="-2.327408"/><trkpt lat="42.941737" lon="-2.327668"/><trkpt lat="42.941751" lon="-2.327762"/><trkpt lat="42.941861" lon="-2.328073"/><trkpt lat="42.941931" lon="-2.328307"/><trkpt lat="42.941963" lon="-2.328554"/><trkpt lat="42.941986" lon="-2.328636"/><trkpt lat="42.942074" lon="-2.328793"/><trkpt lat="42.942113" lon="-2.328893"/><trkpt lat="42.942174" lon="-2.329172"/><trkpt lat="42.942193" lon="-2.329307"/><trkpt lat="42.942204" lon="-2.329467"/><trkpt lat="42.942221" lon="-2.329612"/><trkpt lat="42.942247" lon="-2.329703"/><trkpt lat="42.942273" lon="-2.329769"/><trkpt lat="42.94232" lon="-2.329846"/><trkpt lat="42.942362" lon="-2.32994"/><trkpt lat="42.942427" lon="-2.330121"/><trkpt lat="42.942467" lon="-2.330202"/><trkpt lat="42.942498" lon="-2.330241"/><trkpt lat="42.942593" lon="-2.330282"/><trkpt lat="42.942701" lon="-2.330392"/><trkpt lat="42.9427" lon="-2.33043"/><trkpt lat="42.942684" lon="-2.330458"/><trkpt lat="42.942601" lon="-2.330524"/><trkpt lat="42.942572" lon="-2.330573"/><trkpt lat="42.942561" lon="-2.330641"/><trkpt lat="42.942568" lon="-2.330712"/><trkpt lat="42.942601" lon="-2.330791"/><trkpt lat="42.942682" lon="-2.331031"/><trkpt lat="42.942772" lon="-2.331236"/><trkpt lat="42.942786" lon="-2.331314"/><trkpt lat="42.942779" lon="-2.331395"/><trkpt lat="42.942766" lon="-2.331452"/><trkpt lat="42.942735" lon="-2.331524"/><trkpt lat="42.942716" lon="-2.331615"/><trkpt lat="42.942726" lon="-2.33169"/><trkpt lat="42.942776" lon="-2.331767"/><trkpt lat="42.942891" lon="-2.331915"/><trkpt lat="42.94303" lon="-2.332165"/><trkpt lat="42.943071" lon="-2.332253"/><trkpt lat="42.94303" lon="-2.332165"/><trkpt lat="42.942891" lon="-2.331915"/><trkpt lat="42.942776" lon="-2.331767"/><trkpt lat="42.942726" lon="-2.33169"/><trkpt lat="42.942716" lon="-2.331615"/><trkpt lat="42.942735" lon="-2.331524"/><trkpt lat="42.942766" lon="-2.331452"/><trkpt lat="42.942779" lon="-2.331395"/><trkpt lat="42.942786" lon="-2.331314"/><trkpt lat="42.942772" lon="-2.331236"/><trkpt lat="42.942682" lon="-2.331031"/><trkpt lat="42.942601" lon="-2.330791"/><trkpt lat="42.942568" lon="-2.330712"/><trkpt lat="42.942561" lon="-2.330641"/><trkpt lat="42.942572" lon="-2.330573"/><trkpt lat="42.942601" lon="-2.330524"/><trkpt lat="42.942684" lon="-2.330458"/><trkpt lat="42.9427" lon="-2.33043"/><trkpt lat="42.942701" lon="-2.330392"/><trkpt lat="42.942593" lon="-2.330282"/><trkpt lat="42.942498" lon="-2.330241"/><trkpt lat="42.942467" lon="-2.330202"/><trkpt lat="42.942427" lon="-2.330121"/><trkpt lat="42.942362" lon="-2.32994"/><trkpt lat="42.94232" lon="-2.329846"/><trkpt lat="42.942273" lon="-2.329769"/><trkpt lat="42.942247" lon="-2.329703"/><trkpt lat="42.942221" lon="-2.329612"/><trkpt lat="42.942204" lon="-2.329467"/><trkpt lat="42.942193" lon="-2.329307"/><trkpt lat="42.942174" lon="-2.329172"/><trkpt lat="42.942113" lon="-2.328893"/><trkpt lat="42.942074" lon="-2.328793"/><trkpt lat="42.941986" lon="-2.328636"/><trkpt lat="42.941963" lon="-2.328554"/><trkpt lat="42.941931" lon="-2.328307"/><trkpt lat="42.941861" lon="-2.328073"/><trkpt lat="42.941751" lon="-2.327762"/><trkpt lat="42.941737" lon="-2.327668"/><trkpt lat="42.941721" lon="-2.327408"/><trkpt lat="42.941699" lon="-2.327378"/><trkpt lat="42.941647" lon="-2.327352"/><trkpt lat="42.9416" lon="-2.327348"/><trkpt lat="42.941536" lon="-2.327371"/><trkpt lat="42.941493" lon="-2.3274"/><trkpt lat="42.941447" lon="-2.327455"/><trkpt lat="42.941304" lon="-2.327677"/><trkpt lat="42.941177" lon="-2.327896"/><trkpt lat="42.941154" lon="-2.327905"/><trkpt lat="42.941134" lon="-2.327893"/><trkpt lat="42.941013" lon="-2.327719"/><trkpt lat="42.940818" lon="-2.327479"/><trkpt lat="42.940753" lon="-2.327423"/><trkpt lat="42.94062" lon="-2.32736"/><trkpt lat="42.940575" lon="-2.327309"/><trkpt lat="42.940526" lon="-2.327244"/><trkpt lat="42.94047" lon="-2.327104"/><trkpt lat="42.940431" lon="-2.327101"/><trkpt lat="42.940387" lon="-2.327083"/><trkpt lat="42.940346" lon="-2.327076"/><trkpt lat="42.940299" lon="-2.327086"/><trkpt lat="42.940059" lon="-2.327167"/><trkpt lat="42.939926" lon="-2.327226"/><trkpt lat="42.939805" lon="-2.327213"/><trkpt lat="42.939643" lon="-2.327159"/><trkpt lat="42.939417" lon="-2.327029"/><trkpt lat="42.939337" lon="-2.327019"/><trkpt lat="42.939189" lon="-2.326948"/><trkpt lat="42.939067" lon="-2.326805"/><trkpt lat="42.938942" lon="-2.326601"/><trkpt lat="42.938674" lon="-2.326377"/><trkpt lat="42.938585" lon="-2.326287"/><trkpt lat="42.938349" lon="-2.326155"/><trkpt lat="42.938249" lon="-2.326113"/><trkpt lat="42.938128" lon="-2.326104"/><trkpt lat="42.938054" lon="-2.326084"/><trkpt lat="42.937973" lon="-2.326018"/><trkpt lat="42.937747" lon="-2.325699"/><trkpt lat="42.937692" lon="-2.325662"/><trkpt lat="42.93765" lon="-2.325602"/><trkpt lat="42.937585" lon="-2.325544"/><trkpt lat="42.937543" lon="-2.325458"/><trkpt lat="42.937504" lon="-2.325346"/><trkpt lat="42.937454" lon="-2.325151"/><trkpt lat="42.937364" lon="-2.324915"/><trkpt lat="42.937359" lon="-2.324802"/><trkpt lat="42.937341" lon="-2.324749"/><trkpt lat="42.937235" lon="-2.324665"/><trkpt lat="42.937123" lon="-2.324544"/><trkpt lat="42.937041" lon="-2.32448"/><trkpt lat="42.936911" lon="-2.324406"/><trkpt lat="42.936864" lon="-2.324365"/><trkpt lat="42.936794" lon="-2.324272"/><trkpt lat="42.936686" lon="-2.324186"/><trkpt lat="42.93657" lon="-2.324113"/><trkpt lat="42.936474" lon="-2.324074"/><trkpt lat="42.936336" lon="-2.323989"/><trkpt lat="42.936158" lon="-2.323919"/><trkpt lat="42.936028" lon="-2.323857"/><trkpt lat="42.935956" lon="-2.323765"/><trkpt lat="42.935905" lon="-2.323718"/><trkpt lat="42.935852" lon="-2.323691"/><trkpt lat="42.935469" lon="-2.323348"/><trkpt lat="42.935356" lon="-2.323282"/><trkpt lat="42.935336" lon="-2.32326"/><trkpt lat="42.935344" lon="-2.323212"/><trkpt lat="42.935374" lon="-2.32318"/><trkpt lat="42.935423" lon="-2.323147"/><trkpt lat="42.93542" lon="-2.32312"/><trkpt lat="42.935402" lon="-2.323091"/><trkpt lat="42.935338" lon="-2.323054"/><trkpt lat="42.935235" lon="-2.323012"/><trkpt lat="42.935032" lon="-2.322942"/><trkpt lat="42.934872" lon="-2.322902"/><trkpt lat="42.934789" lon="-2.322847"/><trkpt lat="42.934721" lon="-2.322813"/><trkpt lat="42.934464" lon="-2.322714"/><trkpt lat="42.934301" lon="-2.322642"/><trkpt lat="42.934156" lon="-2.322609"/><trkpt lat="42.934053" lon="-2.322554"/><trkpt lat="42.933943" lon="-2.322468"/><trkpt lat="42.934052" lon="-2.322285"/><trkpt lat="42.934191" lon="-2.322142"/><trkpt lat="42.934297" lon="-2.322013"/><trkpt lat="42.934476" lon="-2.321691"/><trkpt lat="42.934501" lon="-2.321603"/><trkpt lat="42.93449" lon="-2.321538"/><trkpt lat="42.934448" lon="-2.321401"/><trkpt lat="42.934423" lon="-2.321237"/><trkpt lat="42.934412" lon="-2.321096"/><trkpt lat="42.934438" lon="-2.320931"/><trkpt lat="42.934533" lon="-2.320688"/><trkpt lat="42.934653" lon="-2.320449"/><trkpt lat="42.934765" lon="-2.320312"/><trkpt lat="42.934842" lon="-2.320259"/><trkpt lat="42.935053" lon="-2.320206"/><trkpt lat="42.935195" lon="-2.320141"/><trkpt lat="42.935336" lon="-2.320056"/><trkpt lat="42.935536" lon="-2.319901"/><trkpt lat="42.935629" lon="-2.319773"/><trkpt lat="42.935782" lon="-2.319503"/><trkpt lat="42.935819" lon="-2.319404"/><trkpt lat="42.93582" lon="-2.319353"/><trkpt lat="42.93582" lon="-2.319252"/><trkpt lat="42.935795" lon="-2.319062"/><trkpt lat="42.935764" lon="-2.318658"/><trkpt lat="42.935786" lon="-2.318548"/><trkpt lat="42.935852" lon="-2.318481"/><trkpt lat="42.935895" lon="-2.318417"/><trkpt lat="42.935979" lon="-2.318273"/><trkpt lat="42.936126" lon="-2.317986"/><trkpt lat="42.936153" lon="-2.317895"/><trkpt lat="42.93619" lon="-2.317612"/><trkpt lat="42.936195" lon="-2.317519"/><trkpt lat="42.936188" lon="-2.317464"/><trkpt lat="42.936166" lon="-2.317397"/><trkpt lat="42.936137" lon="-2.317345"/><trkpt lat="42.935928" lon="-2.317126"/><trkpt lat="42.93588" lon="-2.317"/><trkpt lat="42.935839" lon="-2.316877"/><trkpt lat="42.935694" lon="-2.316705"/><trkpt lat="42.935539" lon="-2.316562"/><trkpt lat="42.935126" lon="-2.31622"/><trkpt lat="42.935042" lon="-2.316105"/><trkpt lat="42.935036" lon="-2.316067"/><trkpt lat="42.935169" lon="-2.315691"/><trkpt lat="42.935304" lon="-2.315312"/><trkpt lat="42.935331" lon="-2.31527"/><trkpt lat="42.935378" lon="-2.315252"/><trkpt lat="42.935386" lon="-2.315242"/><trkpt lat="42.935385" lon="-2.315178"/><trkpt lat="42.935394" lon="-2.315147"/><trkpt lat="42.935615" lon="-2.315033"/><trkpt lat="42.935661" lon="-2.314983"/><trkpt lat="42.935668" lon="-2.31496"/><trkpt lat="42.93583" lon="-2.314454"/><trkpt lat="42.935873" lon="-2.31409"/><trkpt lat="42.935924" lon="-2.313821"/><trkpt lat="42.935971" lon="-2.313653"/><trkpt lat="42.935982" lon="-2.313595"/><trkpt lat="42.935984" lon="-2.313504"/><trkpt lat="42.935999" lon="-2.313439"/><trkpt lat="42.936025" lon="-2.313388"/><trkpt lat="42.936083" lon="-2.3133"/><trkpt lat="42.93615" lon="-2.313138"/><trkpt lat="42.936197" lon="-2.313055"/><trkpt lat="42.936233" lon="-2.312957"/><trkpt lat="42.936358" lon="-2.312764"/><trkpt lat="42.936429" lon="-2.312621"/><trkpt lat="42.936498" lon="-2.312521"/><trkpt lat="42.936623" lon="-2.312299"/><trkpt lat="42.936656" lon="-2.31222"/><trkpt lat="42.936672" lon="-2.31212"/><trkpt lat="42.936729" lon="-2.311993"/><trkpt lat="42.936831" lon="-2.311816"/><trkpt lat="42.936996" lon="-2.311574"/><trkpt lat="42.937012" lon="-2.31152"/><trkpt lat="42.937088" lon="-2.311406"/><trkpt lat="42.937173" lon="-2.311246"/><trkpt lat="42.937316" lon="-2.311049"/><trkpt lat="42.937364" lon="-2.311027"/><trkpt lat="42.937444" lon="-2.311006"/><trkpt lat="42.937491" lon="-2.310966"/><trkpt lat="42.937518" lon="-2.310905"/><trkpt lat="42.937554" lon="-2.310847"/><trkpt lat="42.937556" lon="-2.310696"/><trkpt lat="42.937574" lon="-2.31063"/><trkpt lat="42.93757" lon="-2.310018"/><trkpt lat="42.937558" lon="-2.309792"/><trkpt lat="42.93755" lon="-2.309684"/><trkpt lat="42.937561" lon="-2.309521"/><trkpt lat="42.937559" lon="-2.309417"/><trkpt lat="42.937566" lon="-2.309285"/><trkpt lat="42.937557" lon="-2.309191"/><trkpt lat="42.937564" lon="-2.309069"/><trkpt lat="42.937545" lon="-2.308994"/><trkpt lat="42.937538" lon="-2.308602"/><trkpt lat="42.93752" lon="-2.308301"/><trkpt lat="42.937518" lon="-2.30818"/><trkpt lat="42.937501" lon="-2.30808"/><trkpt lat="42.937496" lon="-2.307963"/><trkpt lat="42.937439" lon="-2.307562"/><trkpt lat="42.937419" lon="-2.307368"/><trkpt lat="42.937412" lon="-2.307212"/><trkpt lat="42.9374" lon="-2.307129"/><trkpt lat="42.937297" lon="-2.307001"/><trkpt lat="42.937216" lon="-2.306917"/><trkpt lat="42.93713" lon="-2.306897"/><trkpt lat="42.937049" lon="-2.306902"/><trkpt lat="42.937005" lon="-2.306896"/><trkpt lat="42.936689" lon="-2.306917"/><trkpt lat="42.936543" lon="-2.306874"/><trkpt lat="42.936505" lon="-2.306845"/><trkpt lat="42.936447" lon="-2.306774"/><trkpt lat="42.936349" lon="-2.306681"/><trkpt lat="42.936304" lon="-2.306617"/><trkpt lat="42.936201" lon="-2.30642"/><trkpt lat="42.936172" lon="-2.306326"/><trkpt lat="42.936121" lon="-2.306112"/><trkpt lat="42.936092" lon="-2.305943"/><trkpt lat="42.936037" lon="-2.305768"/><trkpt lat="42.935993" lon="-2.305595"/><trkpt lat="42.93597" lon="-2.305601"/><trkpt lat="42.935943" lon="-2.305637"/><trkpt lat="42.935909" lon="-2.305785"/><trkpt lat="42.935882" lon="-2.305805"/><trkpt lat="42.935824" lon="-2.305721"/><trkpt lat="42.935684" lon="-2.305471"/><trkpt lat="42.935544" lon="-2.305317"/><trkpt lat="42.935347" lon="-2.305045"/><trkpt lat="42.935307" lon="-2.304954"/><trkpt lat="42.935236" lon="-2.304759"/><trkpt lat="42.935227" lon="-2.304748"/><trkpt lat="42.93522" lon="-2.304741"/><trkpt lat="42.935172" lon="-2.304572"/><trkpt lat="42.93516" lon="-2.304571"/><trkpt lat="42.935082" lon="-2.304689"/><trkpt lat="42.935065" lon="-2.304678"/><trkpt lat="42.935028" lon="-2.304551"/><trkpt lat="42.934994" lon="-2.304463"/><trkpt lat="42.934974" lon="-2.304368"/><trkpt lat="42.934954" lon="-2.304295"/><trkpt lat="42.934945" lon="-2.304217"/><trkpt lat="42.934955" lon="-2.30413"/><trkpt lat="42.93501" lon="-2.304017"/><trkpt lat="42.935077" lon="-2.303922"/><trkpt lat="42.935153" lon="-2.303718"/><trkpt lat="42.935183" lon="-2.303562"/><trkpt lat="42.935197" lon="-2.303457"/><trkpt lat="42.935197" lon="-2.303399"/><trkpt lat="42.935181" lon="-2.30335"/><trkpt lat="42.935112" lon="-2.303272"/><trkpt lat="42.935064" lon="-2.303366"/></trkseg></trk></gpx>