<?xml version="1.0" encoding="UTF-8"?><kml xmlns="http://www.opengis.net/kml/2.2"><Document><name>San Adrián · только тоннель</name><description>Планировочная реконструкция по OpenStreetMap, 14.09.2026. Не запись GPS и не проверенный навигационный трек. Высоты не экспортированы. Данные © OpenStreetMap contributors, ODbL. Автопереезды и канатки в пеший трек не включены.</description><Style id="track"><LineStyle><color>ff924c91</color><width>4</width></LineStyle></Style><Placemark><name>Aldaola / Ubier · парковка</name><Point><coordinates>-2.303357,42.935057</coordinates></Point></Placemark><Placemark><name>San Adrián · вход в скальный тоннель</name><Point><coordinates>-2.313353,42.936079</coordinates></Point></Placemark><Placemark><name>San Adrián · старая дорога у выхода</name><Point><coordinates>-2.31569,42.93517</coordinates></Point></Placemark><Placemark><name>San Adrián · только тоннель</name><description>Планировочная реконструкция по OpenStreetMap, 14.09.2026. Не запись GPS и не проверенный навигационный трек. Высоты не экспортированы. Данные © OpenStreetMap contributors, ODbL. Автопереезды и канатки в пеший трек не включены.</description><styleUrl>#track</styleUrl><LineString><tessellate>1</tessellate><altitudeMode>clampToGround</altitudeMode><coordinates>-2.303366,42.935064,0 -2.303272,42.935112,0 -2.30335,42.935181,0 -2.303399,42.935197,0 -2.303457,42.935197,0 -2.303562,42.935183,0 -2.303718,42.935153,0 -2.303922,42.935077,0 -2.304017,42.93501,0 -2.30413,42.934955,0 -2.304217,42.934945,0 -2.304295,42.934954,0 -2.304368,42.934974,0 -2.304463,42.934994,0 -2.304551,42.935028,0 -2.304678,42.935065,0 -2.304689,42.935082,0 -2.304571,42.93516,0 -2.304572,42.935172,0 -2.304741,42.93522,0 -2.304748,42.935227,0 -2.304759,42.935236,0 -2.304954,42.935307,0 -2.305045,42.935347,0 -2.305317,42.935544,0 -2.305471,42.935684,0 -2.305721,42.935824,0 -2.305805,42.935882,0 -2.305785,42.935909,0 -2.305637,42.935943,0 -2.305601,42.93597,0 -2.305595,42.935993,0 -2.305768,42.936037,0 -2.305943,42.936092,0 -2.306112,42.936121,0 -2.306326,42.936172,0 -2.30642,42.936201,0 -2.306617,42.936304,0 -2.306681,42.936349,0 -2.306774,42.936447,0 -2.306845,42.936505,0 -2.306874,42.936543,0 -2.306917,42.936689,0 -2.306896,42.937005,0 -2.306902,42.937049,0 -2.306897,42.93713,0 -2.306917,42.937216,0 -2.307001,42.937297,0 -2.307129,42.9374,0 -2.307212,42.937412,0 -2.307368,42.937419,0 -2.307562,42.937439,0 -2.307963,42.937496,0 -2.30808,42.937501,0 -2.30818,42.937518,0 -2.308301,42.93752,0 -2.308602,42.937538,0 -2.308994,42.937545,0 -2.309069,42.937564,0 -2.309191,42.937557,0 -2.309285,42.937566,0 -2.309417,42.937559,0 -2.309521,42.937561,0 -2.309684,42.93755,0 -2.309792,42.937558,0 -2.310018,42.93757,0 -2.31063,42.937574,0 -2.310696,42.937556,0 -2.310847,42.937554,0 -2.310905,42.937518,0 -2.310966,42.937491,0 -2.311006,42.937444,0 -2.311027,42.937364,0 -2.311049,42.937316,0 -2.311246,42.937173,0 -2.311406,42.937088,0 -2.31152,42.937012,0 -2.311574,42.936996,0 -2.311816,42.936831,0 -2.311993,42.936729,0 -2.31212,42.936672,0 -2.31222,42.936656,0 -2.312299,42.936623,0 -2.312521,42.936498,0 -2.312621,42.936429,0 -2.312764,42.936358,0 -2.312957,42.936233,0 -2.313055,42.936197,0 -2.313138,42.93615,0 -2.3133,42.936083,0 -2.313334,42.936061,0 -2.313388,42.936025,0 -2.313439,42.935999,0 -2.313504,42.935984,0 -2.313595,42.935982,0 -2.313653,42.935971,0 -2.313821,42.935924,0 -2.31409,42.935873,0 -2.314454,42.93583,0 -2.31496,42.935668,0 -2.314983,42.935661,0 -2.315033,42.935615,0 -2.315147,42.935394,0 -2.315178,42.935385,0 -2.315242,42.935386,0 -2.315252,42.935378,0 -2.31527,42.935331,0 -2.315312,42.935304,0 -2.315691,42.935169,0 -2.315312,42.935304,0 -2.31527,42.935331,0 -2.315252,42.935378,0 -2.315242,42.935386,0 -2.315178,42.935385,0 -2.315147,42.935394,0 -2.315033,42.935615,0 -2.314983,42.935661,0 -2.31496,42.935668,0 -2.314454,42.93583,0 -2.31409,42.935873,0 -2.313821,42.935924,0 -2.313653,42.935971,0 -2.313595,42.935982,0 -2.313504,42.935984,0 -2.313439,42.935999,0 -2.313388,42.936025,0 -2.313334,42.936061,0 -2.3133,42.936083,0 -2.313138,42.93615,0 -2.313055,42.936197,0 -2.312957,42.936233,0 -2.312764,42.936358,0 -2.312621,42.936429,0 -2.312521,42.936498,0 -2.312299,42.936623,0 -2.31222,42.936656,0 -2.31212,42.936672,0 -2.311993,42.936729,0 -2.311816,42.936831,0 -2.311574,42.936996,0 -2.31152,42.937012,0 -2.311406,42.937088,0 -2.311246,42.937173,0 -2.311049,42.937316,0 -2.311027,42.937364,0 -2.311006,42.937444,0 -2.310966,42.937491,0 -2.310905,42.937518,0 -2.310847,42.937554,0 -2.310696,42.937556,0 -2.31063,42.937574,0 -2.310018,42.93757,0 -2.309792,42.937558,0 -2.309684,42.93755,0 -2.309521,42.937561,0 -2.309417,42.937559,0 -2.309285,42.937566,0 -2.309191,42.937557,0 -2.309069,42.937564,0 -2.308994,42.937545,0 -2.308602,42.937538,0 -2.308301,42.93752,0 -2.30818,42.937518,0 -2.30808,42.937501,0 -2.307963,42.937496,0 -2.307562,42.937439,0 -2.307368,42.937419,0 -2.307212,42.937412,0 -2.307129,42.9374,0 -2.307001,42.937297,0 -2.306917,42.937216,0 -2.306897,42.93713,0 -2.306902,42.937049,0 -2.306896,42.937005,0 -2.306917,42.936689,0 -2.306874,42.936543,0 -2.306845,42.936505,0 -2.306774,42.936447,0 -2.306681,42.936349,0 -2.306617,42.936304,0 -2.30642,42.936201,0 -2.306326,42.936172,0 -2.306112,42.936121,0 -2.305943,42.936092,0 -2.305768,42.936037,0 -2.305595,42.935993,0 -2.305601,42.93597,0 -2.305637,42.935943,0 -2.305785,42.935909,0 -2.305805,42.935882,0 -2.305721,42.935824,0 -2.305471,42.935684,0 -2.305317,42.935544,0 -2.305045,42.935347,0 -2.304954,42.935307,0 -2.304759,42.935236,0 -2.304748,42.935227,0 -2.304741,42.93522,0 -2.304572,42.935172,0 -2.304571,42.93516,0 -2.304689,42.935082,0 -2.304678,42.935065,0 -2.304551,42.935028,0 -2.304463,42.934994,0 -2.304368,42.934974,0 -2.304295,42.934954,0 -2.304217,42.934945,0 -2.30413,42.934955,0 -2.304017,42.93501,0 -2.303922,42.935077,0 -2.303718,42.935153,0 -2.303562,42.935183,0 -2.303457,42.935197,0 -2.303399,42.935197,0 -2.30335,42.935181,0 -2.303272,42.935112,0 -2.303366,42.935064,0</coordinates></LineString></Placemark></Document></kml>