<?xml version="1.0" encoding="UTF-8"?><kml xmlns="http://www.opengis.net/kml/2.2"><Document><name>Aiako Harria · гранитная вершина Irumugarrieta</name><description>Планировочная реконструкция по OpenStreetMap, 14.09.2026. Не запись GPS и не проверенный навигационный трек. Высоты не экспортированы. Данные © OpenStreetMap contributors, ODbL. Автопереезды и канатки в пеший трек не включены.</description><Style id="track"><LineStyle><color>ff8a6d21</color><width>4</width></LineStyle></Style><Placemark><name>Elurretxe · стоянка на перевале</name><Point><coordinates>-1.786719,43.295262</coordinates></Point></Placemark><Placemark><name>Aiako Harria · склон под вершиной</name><Point><coordinates>-1.7857,43.2898</coordinates></Point></Placemark><Placemark><name>Irumugarrieta · северная вершина</name><Point><coordinates>-1.783492,43.28687</coordinates></Point></Placemark><Placemark><name>Aiako Harria · гранитная вершина Irumugarrieta</name><description>Планировочная реконструкция по OpenStreetMap, 14.09.2026. Не запись GPS и не проверенный навигационный трек. Высоты не экспортированы. Данные © OpenStreetMap contributors, ODbL. Автопереезды и канатки в пеший трек не включены.</description><styleUrl>#track</styleUrl><LineString><tessellate>1</tessellate><altitudeMode>clampToGround</altitudeMode><coordinates>-1.786701,43.295335,0 -1.786607,43.295323,0 -1.786565,43.295224,0 -1.7864,43.295108,0 -1.786186,43.29501,0 -1.785979,43.294904,0 -1.785792,43.294785,0 -1.785681,43.294701,0 -1.785446,43.294598,0 -1.785238,43.294487,0 -1.785099,43.294364,0 -1.785038,43.294268,0 -1.785037,43.294196,0 -1.785017,43.294079,0 -1.784918,43.293779,0 -1.784889,43.293592,0 -1.784884,43.293426,0 -1.784889,43.293312,0 -1.784847,43.293225,0 -1.78479,43.293178,0 -1.784773,43.293164,0 -1.784645,43.293115,0 -1.784443,43.292982,0 -1.784409,43.292941,0 -1.784431,43.292905,0 -1.784686,43.292879,0 -1.785054,43.292824,0 -1.785372,43.292767,0 -1.785571,43.2927,0 -1.785678,43.292637,0 -1.785732,43.292568,0 -1.785764,43.292488,0 -1.785789,43.292396,0 -1.785796,43.292276,0 -1.78578,43.292158,0 -1.7857,43.29198,0 -1.785575,43.291753,0 -1.785527,43.291648,0 -1.785443,43.291511,0 -1.785412,43.29138,0 -1.785405,43.291295,0 -1.785413,43.291229,0 -1.785468,43.29115,0 -1.785481,43.291063,0 -1.785551,43.291022,0 -1.785589,43.290977,0 -1.785624,43.290953,0 -1.785721,43.29092,0 -1.785724,43.290901,0 -1.785711,43.290885,0 -1.785481,43.290774,0 -1.78543,43.290717,0 -1.785328,43.290681,0 -1.785268,43.290635,0 -1.785226,43.29059,0 -1.785181,43.290559,0 -1.784962,43.29036,0 -1.784834,43.290217,0 -1.784817,43.290199,0 -1.784721,43.290119,0 -1.784578,43.289975,0 -1.784431,43.289915,0 -1.784208,43.289849,0 -1.783891,43.28973,0 -1.783784,43.289713,0 -1.783648,43.289676,0 -1.783624,43.289661,0 -1.783621,43.289643,0 -1.783657,43.289616,0 -1.783654,43.289604,0 -1.783371,43.289503,0 -1.783226,43.2894,0 -1.783219,43.289378,0 -1.783223,43.289359,0 -1.783263,43.289334,0 -1.783272,43.289295,0 -1.783282,43.289283,0 -1.783372,43.289259,0 -1.783388,43.289243,0 -1.783317,43.289125,0 -1.783321,43.289077,0 -1.783339,43.289058,0 -1.783366,43.289049,0 -1.783441,43.289048,0 -1.783483,43.289052,0 -1.783653,43.289087,0 -1.783786,43.289086,0 -1.783888,43.289072,0 -1.783963,43.289053,0 -1.783945,43.288995,0 -1.783913,43.288951,0 -1.783924,43.288918,0 -1.783873,43.288869,0 -1.783809,43.288789,0 -1.78382,43.288759,0 -1.783755,43.288729,0 -1.78376,43.288686,0 -1.783781,43.288631,0 -1.783792,43.288572,0 -1.783761,43.288527,0 -1.783669,43.288432,0 -1.783669,43.288326,0 -1.783556,43.288201,0 -1.78346,43.288155,0 -1.783315,43.28803,0 -1.78324,43.287995,0 -1.783213,43.287936,0 -1.783143,43.287873,0 -1.783089,43.287838,0 -1.782996,43.287816,0 -1.782763,43.287731,0 -1.782555,43.287731,0 -1.782494,43.28769,0 -1.782543,43.28767,0 -1.782565,43.287631,0 -1.782511,43.287586,0 -1.782468,43.28756,0 -1.782489,43.28756,0 -1.782546,43.28752,0 -1.78261,43.287426,0 -1.782692,43.287252,0 -1.782709,43.287139,0 -1.782709,43.287081,0 -1.782752,43.286672,0 -1.782824,43.286719,0 -1.782871,43.286766,0 -1.782882,43.286809,0 -1.782937,43.286865,0 -1.782974,43.286951,0 -1.782993,43.286977,0 -1.782993,43.286991,0 -1.783102,43.287051,0 -1.783107,43.286979,0 -1.783125,43.286973,0 -1.783201,43.287025,0 -1.783229,43.287022,0 -1.783268,43.286999,0 -1.783304,43.286997,0 -1.78333,43.287008,0 -1.783371,43.287005,0 -1.783402,43.287013,0 -1.78342,43.287001,0 -1.783441,43.287005,0 -1.783472,43.286993,0 -1.783526,43.286961,0 -1.783484,43.286931,0 -1.783455,43.286882,0 -1.783484,43.286931,0 -1.783526,43.286961,0 -1.783472,43.286993,0 -1.783441,43.287005,0 -1.78342,43.287001,0 -1.783402,43.287013,0 -1.783371,43.287005,0 -1.78333,43.287008,0 -1.783304,43.286997,0 -1.783268,43.286999,0 -1.783229,43.287022,0 -1.783201,43.287025,0 -1.783125,43.286973,0 -1.783107,43.286979,0 -1.783102,43.287051,0 -1.782993,43.286991,0 -1.782993,43.286977,0 -1.782974,43.286951,0 -1.782937,43.286865,0 -1.782882,43.286809,0 -1.782871,43.286766,0 -1.782824,43.286719,0 -1.782752,43.286672,0 -1.782709,43.287081,0 -1.782709,43.287139,0 -1.782692,43.287252,0 -1.78261,43.287426,0 -1.782546,43.28752,0 -1.782489,43.28756,0 -1.782468,43.28756,0 -1.782511,43.287586,0 -1.782565,43.287631,0 -1.782543,43.28767,0 -1.782494,43.28769,0 -1.782555,43.287731,0 -1.782763,43.287731,0 -1.782996,43.287816,0 -1.783089,43.287838,0 -1.783143,43.287873,0 -1.783213,43.287936,0 -1.78324,43.287995,0 -1.783315,43.28803,0 -1.78346,43.288155,0 -1.783556,43.288201,0 -1.783669,43.288326,0 -1.783669,43.288432,0 -1.783761,43.288527,0 -1.783792,43.288572,0 -1.783781,43.288631,0 -1.78376,43.288686,0 -1.783755,43.288729,0 -1.78382,43.288759,0 -1.783809,43.288789,0 -1.783873,43.288869,0 -1.783924,43.288918,0 -1.783913,43.288951,0 -1.783945,43.288995,0 -1.783963,43.289053,0 -1.783888,43.289072,0 -1.783786,43.289086,0 -1.783653,43.289087,0 -1.783483,43.289052,0 -1.783441,43.289048,0 -1.783366,43.289049,0 -1.783339,43.289058,0 -1.783321,43.289077,0 -1.783317,43.289125,0 -1.783388,43.289243,0 -1.783372,43.289259,0 -1.783282,43.289283,0 -1.783272,43.289295,0 -1.783263,43.289334,0 -1.783223,43.289359,0 -1.783219,43.289378,0 -1.783226,43.2894,0 -1.783371,43.289503,0 -1.783654,43.289604,0 -1.783657,43.289616,0 -1.783621,43.289643,0 -1.783624,43.289661,0 -1.783648,43.289676,0 -1.783784,43.289713,0 -1.783891,43.28973,0 -1.784208,43.289849,0 -1.784431,43.289915,0 -1.784578,43.289975,0 -1.784721,43.290119,0 -1.784817,43.290199,0 -1.784834,43.290217,0 -1.784962,43.29036,0 -1.785181,43.290559,0 -1.785226,43.29059,0 -1.785268,43.290635,0 -1.785328,43.290681,0 -1.78543,43.290717,0 -1.785481,43.290774,0 -1.785711,43.290885,0 -1.785724,43.290901,0 -1.785721,43.29092,0 -1.785624,43.290953,0 -1.785589,43.290977,0 -1.785551,43.291022,0 -1.785481,43.291063,0 -1.785468,43.29115,0 -1.785413,43.291229,0 -1.785405,43.291295,0 -1.785412,43.29138,0 -1.785443,43.291511,0 -1.785527,43.291648,0 -1.785575,43.291753,0 -1.7857,43.29198,0 -1.78578,43.292158,0 -1.785796,43.292276,0 -1.785789,43.292396,0 -1.785764,43.292488,0 -1.785732,43.292568,0 -1.785678,43.292637,0 -1.785571,43.2927,0 -1.785372,43.292767,0 -1.785054,43.292824,0 -1.784686,43.292879,0 -1.784431,43.292905,0 -1.784409,43.292941,0 -1.784443,43.292982,0 -1.784645,43.293115,0 -1.784773,43.293164,0 -1.78479,43.293178,0 -1.784847,43.293225,0 -1.784889,43.293312,0 -1.784884,43.293426,0 -1.784889,43.293592,0 -1.784918,43.293779,0 -1.785017,43.294079,0 -1.785037,43.294196,0 -1.785038,43.294268,0 -1.785099,43.294364,0 -1.785238,43.294487,0 -1.785446,43.294598,0 -1.785681,43.294701,0 -1.785792,43.294785,0 -1.785979,43.294904,0 -1.786186,43.29501,0 -1.7864,43.295108,0 -1.786565,43.295224,0 -1.786607,43.295323,0 -1.786701,43.295335,0</coordinates></LineString></Placemark></Document></kml>