<?xml version="1.0" encoding="UTF-8"?><gpx version="1.1" creator="Basque Hikes Atlas" xmlns="http://www.topografix.com/GPX/1/1"><metadata><name>Aiako Harria · гранитная вершина Irumugarrieta</name><desc>Планировочная реконструкция по OpenStreetMap, 14.09.2026. Не запись GPS и не проверенный навигационный трек. Высоты не экспортированы. Данные © OpenStreetMap contributors, ODbL. Автопереезды и канатки в пеший трек не включены.</desc><link href="https://www.openstreetmap.org/copyright"><text>OpenStreetMap contributors · ODbL</text></link></metadata><wpt lat="43.295262" lon="-1.786719"><name>Elurretxe · стоянка на перевале</name></wpt><wpt lat="43.2898" lon="-1.7857"><name>Aiako Harria · склон под вершиной</name></wpt><wpt lat="43.28687" lon="-1.783492"><name>Irumugarrieta · северная вершина</name></wpt><trk><name>Aiako Harria · гранитная вершина Irumugarrieta</name><desc>Планировочная реконструкция по OpenStreetMap, 14.09.2026. Не запись GPS и не проверенный навигационный трек. Высоты не экспортированы. Данные © OpenStreetMap contributors, ODbL. Автопереезды и канатки в пеший трек не включены.</desc><type>hiking</type><trkseg><trkpt lat="43.295335" lon="-1.786701"/><trkpt lat="43.295323" lon="-1.786607"/><trkpt lat="43.295224" lon="-1.786565"/><trkpt lat="43.295108" lon="-1.7864"/><trkpt lat="43.29501" lon="-1.786186"/><trkpt lat="43.294904" lon="-1.785979"/><trkpt lat="43.294785" lon="-1.785792"/><trkpt lat="43.294701" lon="-1.785681"/><trkpt lat="43.294598" lon="-1.785446"/><trkpt lat="43.294487" lon="-1.785238"/><trkpt lat="43.294364" lon="-1.785099"/><trkpt lat="43.294268" lon="-1.785038"/><trkpt lat="43.294196" lon="-1.785037"/><trkpt lat="43.294079" lon="-1.785017"/><trkpt lat="43.293779" lon="-1.784918"/><trkpt lat="43.293592" lon="-1.784889"/><trkpt lat="43.293426" lon="-1.784884"/><trkpt lat="43.293312" lon="-1.784889"/><trkpt lat="43.293225" lon="-1.784847"/><trkpt lat="43.293178" lon="-1.78479"/><trkpt lat="43.293164" lon="-1.784773"/><trkpt lat="43.293115" lon="-1.784645"/><trkpt lat="43.292982" lon="-1.784443"/><trkpt lat="43.292941" lon="-1.784409"/><trkpt lat="43.292905" lon="-1.784431"/><trkpt lat="43.292879" lon="-1.784686"/><trkpt lat="43.292824" lon="-1.785054"/><trkpt lat="43.292767" lon="-1.785372"/><trkpt lat="43.2927" lon="-1.785571"/><trkpt lat="43.292637" lon="-1.785678"/><trkpt lat="43.292568" lon="-1.785732"/><trkpt lat="43.292488" lon="-1.785764"/><trkpt lat="43.292396" lon="-1.785789"/><trkpt lat="43.292276" lon="-1.785796"/><trkpt lat="43.292158" lon="-1.78578"/><trkpt lat="43.29198" lon="-1.7857"/><trkpt lat="43.291753" lon="-1.785575"/><trkpt lat="43.291648" lon="-1.785527"/><trkpt lat="43.291511" lon="-1.785443"/><trkpt lat="43.29138" lon="-1.785412"/><trkpt lat="43.291295" lon="-1.785405"/><trkpt lat="43.291229" lon="-1.785413"/><trkpt lat="43.29115" lon="-1.785468"/><trkpt lat="43.291063" lon="-1.785481"/><trkpt lat="43.291022" lon="-1.785551"/><trkpt lat="43.290977" lon="-1.785589"/><trkpt lat="43.290953" lon="-1.785624"/><trkpt lat="43.29092" lon="-1.785721"/><trkpt lat="43.290901" lon="-1.785724"/><trkpt lat="43.290885" lon="-1.785711"/><trkpt lat="43.290774" lon="-1.785481"/><trkpt lat="43.290717" lon="-1.78543"/><trkpt lat="43.290681" lon="-1.785328"/><trkpt lat="43.290635" lon="-1.785268"/><trkpt lat="43.29059" lon="-1.785226"/><trkpt lat="43.290559" lon="-1.785181"/><trkpt lat="43.29036" lon="-1.784962"/><trkpt lat="43.290217" lon="-1.784834"/><trkpt lat="43.290199" lon="-1.784817"/><trkpt lat="43.290119" lon="-1.784721"/><trkpt lat="43.289975" lon="-1.784578"/><trkpt lat="43.289915" lon="-1.784431"/><trkpt lat="43.289849" lon="-1.784208"/><trkpt lat="43.28973" lon="-1.783891"/><trkpt lat="43.289713" lon="-1.783784"/><trkpt lat="43.289676" lon="-1.783648"/><trkpt lat="43.289661" lon="-1.783624"/><trkpt lat="43.289643" lon="-1.783621"/><trkpt lat="43.289616" lon="-1.783657"/><trkpt lat="43.289604" lon="-1.783654"/><trkpt lat="43.289503" lon="-1.783371"/><trkpt lat="43.2894" lon="-1.783226"/><trkpt lat="43.289378" lon="-1.783219"/><trkpt lat="43.289359" lon="-1.783223"/><trkpt lat="43.289334" lon="-1.783263"/><trkpt lat="43.289295" lon="-1.783272"/><trkpt lat="43.289283" lon="-1.783282"/><trkpt lat="43.289259" lon="-1.783372"/><trkpt lat="43.289243" lon="-1.783388"/><trkpt lat="43.289125" lon="-1.783317"/><trkpt lat="43.289077" lon="-1.783321"/><trkpt lat="43.289058" lon="-1.783339"/><trkpt lat="43.289049" lon="-1.783366"/><trkpt lat="43.289048" lon="-1.783441"/><trkpt lat="43.289052" lon="-1.783483"/><trkpt lat="43.289087" lon="-1.783653"/><trkpt lat="43.289086" lon="-1.783786"/><trkpt lat="43.289072" lon="-1.783888"/><trkpt lat="43.289053" lon="-1.783963"/><trkpt lat="43.288995" lon="-1.783945"/><trkpt lat="43.288951" lon="-1.783913"/><trkpt lat="43.288918" lon="-1.783924"/><trkpt lat="43.288869" lon="-1.783873"/><trkpt lat="43.288789" lon="-1.783809"/><trkpt lat="43.288759" lon="-1.78382"/><trkpt lat="43.288729" lon="-1.783755"/><trkpt lat="43.288686" lon="-1.78376"/><trkpt lat="43.288631" lon="-1.783781"/><trkpt lat="43.288572" lon="-1.783792"/><trkpt lat="43.288527" lon="-1.783761"/><trkpt lat="43.288432" lon="-1.783669"/><trkpt lat="43.288326" lon="-1.783669"/><trkpt lat="43.288201" lon="-1.783556"/><trkpt lat="43.288155" lon="-1.78346"/><trkpt lat="43.28803" lon="-1.783315"/><trkpt lat="43.287995" lon="-1.78324"/><trkpt lat="43.287936" lon="-1.783213"/><trkpt lat="43.287873" lon="-1.783143"/><trkpt lat="43.287838" lon="-1.783089"/><trkpt lat="43.287816" lon="-1.782996"/><trkpt lat="43.287731" lon="-1.782763"/><trkpt lat="43.287731" lon="-1.782555"/><trkpt lat="43.28769" lon="-1.782494"/><trkpt lat="43.28767" lon="-1.782543"/><trkpt lat="43.287631" lon="-1.782565"/><trkpt lat="43.287586" lon="-1.782511"/><trkpt lat="43.28756" lon="-1.782468"/><trkpt lat="43.28756" lon="-1.782489"/><trkpt lat="43.28752" lon="-1.782546"/><trkpt lat="43.287426" lon="-1.78261"/><trkpt lat="43.287252" lon="-1.782692"/><trkpt lat="43.287139" lon="-1.782709"/><trkpt lat="43.287081" lon="-1.782709"/><trkpt lat="43.286672" lon="-1.782752"/><trkpt lat="43.286719" lon="-1.782824"/><trkpt lat="43.286766" lon="-1.782871"/><trkpt lat="43.286809" lon="-1.782882"/><trkpt lat="43.286865" lon="-1.782937"/><trkpt lat="43.286951" lon="-1.782974"/><trkpt lat="43.286977" lon="-1.782993"/><trkpt lat="43.286991" lon="-1.782993"/><trkpt lat="43.287051" lon="-1.783102"/><trkpt lat="43.286979" lon="-1.783107"/><trkpt lat="43.286973" lon="-1.783125"/><trkpt lat="43.287025" lon="-1.783201"/><trkpt lat="43.287022" lon="-1.783229"/><trkpt lat="43.286999" lon="-1.783268"/><trkpt lat="43.286997" lon="-1.783304"/><trkpt lat="43.287008" lon="-1.78333"/><trkpt lat="43.287005" lon="-1.783371"/><trkpt lat="43.287013" lon="-1.783402"/><trkpt lat="43.287001" lon="-1.78342"/><trkpt lat="43.287005" lon="-1.783441"/><trkpt lat="43.286993" lon="-1.783472"/><trkpt lat="43.286961" lon="-1.783526"/><trkpt lat="43.286931" lon="-1.783484"/><trkpt lat="43.286882" lon="-1.783455"/><trkpt lat="43.286931" lon="-1.783484"/><trkpt lat="43.286961" lon="-1.783526"/><trkpt lat="43.286993" lon="-1.783472"/><trkpt lat="43.287005" lon="-1.783441"/><trkpt lat="43.287001" lon="-1.78342"/><trkpt lat="43.287013" lon="-1.783402"/><trkpt lat="43.287005" lon="-1.783371"/><trkpt lat="43.287008" lon="-1.78333"/><trkpt lat="43.286997" lon="-1.783304"/><trkpt lat="43.286999" lon="-1.783268"/><trkpt lat="43.287022" lon="-1.783229"/><trkpt lat="43.287025" lon="-1.783201"/><trkpt lat="43.286973" lon="-1.783125"/><trkpt lat="43.286979" lon="-1.783107"/><trkpt lat="43.287051" lon="-1.783102"/><trkpt lat="43.286991" lon="-1.782993"/><trkpt lat="43.286977" lon="-1.782993"/><trkpt lat="43.286951" lon="-1.782974"/><trkpt lat="43.286865" lon="-1.782937"/><trkpt lat="43.286809" lon="-1.782882"/><trkpt lat="43.286766" lon="-1.782871"/><trkpt lat="43.286719" lon="-1.782824"/><trkpt lat="43.286672" lon="-1.782752"/><trkpt lat="43.287081" lon="-1.782709"/><trkpt lat="43.287139" lon="-1.782709"/><trkpt lat="43.287252" lon="-1.782692"/><trkpt lat="43.287426" lon="-1.78261"/><trkpt lat="43.28752" lon="-1.782546"/><trkpt lat="43.28756" lon="-1.782489"/><trkpt lat="43.28756" lon="-1.782468"/><trkpt lat="43.287586" lon="-1.782511"/><trkpt lat="43.287631" lon="-1.782565"/><trkpt lat="43.28767" lon="-1.782543"/><trkpt lat="43.28769" lon="-1.782494"/><trkpt lat="43.287731" lon="-1.782555"/><trkpt lat="43.287731" lon="-1.782763"/><trkpt lat="43.287816" lon="-1.782996"/><trkpt lat="43.287838" lon="-1.783089"/><trkpt lat="43.287873" lon="-1.783143"/><trkpt lat="43.287936" lon="-1.783213"/><trkpt lat="43.287995" lon="-1.78324"/><trkpt lat="43.28803" lon="-1.783315"/><trkpt lat="43.288155" lon="-1.78346"/><trkpt lat="43.288201" lon="-1.783556"/><trkpt lat="43.288326" lon="-1.783669"/><trkpt lat="43.288432" lon="-1.783669"/><trkpt lat="43.288527" lon="-1.783761"/><trkpt lat="43.288572" lon="-1.783792"/><trkpt lat="43.288631" lon="-1.783781"/><trkpt lat="43.288686" lon="-1.78376"/><trkpt lat="43.288729" lon="-1.783755"/><trkpt lat="43.288759" lon="-1.78382"/><trkpt lat="43.288789" lon="-1.783809"/><trkpt lat="43.288869" lon="-1.783873"/><trkpt lat="43.288918" lon="-1.783924"/><trkpt lat="43.288951" lon="-1.783913"/><trkpt lat="43.288995" lon="-1.783945"/><trkpt lat="43.289053" lon="-1.783963"/><trkpt lat="43.289072" lon="-1.783888"/><trkpt lat="43.289086" lon="-1.783786"/><trkpt lat="43.289087" lon="-1.783653"/><trkpt lat="43.289052" lon="-1.783483"/><trkpt lat="43.289048" lon="-1.783441"/><trkpt lat="43.289049" lon="-1.783366"/><trkpt lat="43.289058" lon="-1.783339"/><trkpt lat="43.289077" lon="-1.783321"/><trkpt lat="43.289125" lon="-1.783317"/><trkpt lat="43.289243" lon="-1.783388"/><trkpt lat="43.289259" lon="-1.783372"/><trkpt lat="43.289283" lon="-1.783282"/><trkpt lat="43.289295" lon="-1.783272"/><trkpt lat="43.289334" lon="-1.783263"/><trkpt lat="43.289359" lon="-1.783223"/><trkpt lat="43.289378" lon="-1.783219"/><trkpt lat="43.2894" lon="-1.783226"/><trkpt lat="43.289503" lon="-1.783371"/><trkpt lat="43.289604" lon="-1.783654"/><trkpt lat="43.289616" lon="-1.783657"/><trkpt lat="43.289643" lon="-1.783621"/><trkpt lat="43.289661" lon="-1.783624"/><trkpt lat="43.289676" lon="-1.783648"/><trkpt lat="43.289713" lon="-1.783784"/><trkpt lat="43.28973" lon="-1.783891"/><trkpt lat="43.289849" lon="-1.784208"/><trkpt lat="43.289915" lon="-1.784431"/><trkpt lat="43.289975" lon="-1.784578"/><trkpt lat="43.290119" lon="-1.784721"/><trkpt lat="43.290199" lon="-1.784817"/><trkpt lat="43.290217" lon="-1.784834"/><trkpt lat="43.29036" lon="-1.784962"/><trkpt lat="43.290559" lon="-1.785181"/><trkpt lat="43.29059" lon="-1.785226"/><trkpt lat="43.290635" lon="-1.785268"/><trkpt lat="43.290681" lon="-1.785328"/><trkpt lat="43.290717" lon="-1.78543"/><trkpt lat="43.290774" lon="-1.785481"/><trkpt lat="43.290885" lon="-1.785711"/><trkpt lat="43.290901" lon="-1.785724"/><trkpt lat="43.29092" lon="-1.785721"/><trkpt lat="43.290953" lon="-1.785624"/><trkpt lat="43.290977" lon="-1.785589"/><trkpt lat="43.291022" lon="-1.785551"/><trkpt lat="43.291063" lon="-1.785481"/><trkpt lat="43.29115" lon="-1.785468"/><trkpt lat="43.291229" lon="-1.785413"/><trkpt lat="43.291295" lon="-1.785405"/><trkpt lat="43.29138" lon="-1.785412"/><trkpt lat="43.291511" lon="-1.785443"/><trkpt lat="43.291648" lon="-1.785527"/><trkpt lat="43.291753" lon="-1.785575"/><trkpt lat="43.29198" lon="-1.7857"/><trkpt lat="43.292158" lon="-1.78578"/><trkpt lat="43.292276" lon="-1.785796"/><trkpt lat="43.292396" lon="-1.785789"/><trkpt lat="43.292488" lon="-1.785764"/><trkpt lat="43.292568" lon="-1.785732"/><trkpt lat="43.292637" lon="-1.785678"/><trkpt lat="43.2927" lon="-1.785571"/><trkpt lat="43.292767" lon="-1.785372"/><trkpt lat="43.292824" lon="-1.785054"/><trkpt lat="43.292879" lon="-1.784686"/><trkpt lat="43.292905" lon="-1.784431"/><trkpt lat="43.292941" lon="-1.784409"/><trkpt lat="43.292982" lon="-1.784443"/><trkpt lat="43.293115" lon="-1.784645"/><trkpt lat="43.293164" lon="-1.784773"/><trkpt lat="43.293178" lon="-1.78479"/><trkpt lat="43.293225" lon="-1.784847"/><trkpt lat="43.293312" lon="-1.784889"/><trkpt lat="43.293426" lon="-1.784884"/><trkpt lat="43.293592" lon="-1.784889"/><trkpt lat="43.293779" lon="-1.784918"/><trkpt lat="43.294079" lon="-1.785017"/><trkpt lat="43.294196" lon="-1.785037"/><trkpt lat="43.294268" lon="-1.785038"/><trkpt lat="43.294364" lon="-1.785099"/><trkpt lat="43.294487" lon="-1.785238"/><trkpt lat="43.294598" lon="-1.785446"/><trkpt lat="43.294701" lon="-1.785681"/><trkpt lat="43.294785" lon="-1.785792"/><trkpt lat="43.294904" lon="-1.785979"/><trkpt lat="43.29501" lon="-1.786186"/><trkpt lat="43.295108" lon="-1.7864"/><trkpt lat="43.295224" lon="-1.786565"/><trkpt lat="43.295323" lon="-1.786607"/><trkpt lat="43.295335" lon="-1.786701"/></trkseg></trk></gpx>