<?xml version="1.0" encoding="UTF-8"?><gpx version="1.1" creator="Basque Hikes Atlas" xmlns="http://www.topografix.com/GPX/1/1"><metadata><name>Urkiolamendi · луга перед скалами Anboto</name><desc>Планировочная реконструкция по OpenStreetMap, 14.09.2026. Не запись GPS и не проверенный навигационный трек. Высоты не экспортированы. Данные © OpenStreetMap contributors, ODbL. Автопереезды и канатки в пеший трек не включены.</desc><link href="https://www.openstreetmap.org/copyright"><text>OpenStreetMap contributors · ODbL</text></link></metadata><wpt lat="43.100989" lon="-2.646567"><name>Urkiola · старт у перевала · парковка, старт</name></wpt><wpt lat="43.09186" lon="-2.6263955"><name>Urkiolamendi / Urkiolagirre · панорамная вершина</name></wpt><wpt lat="43.0897205" lon="-2.6107048"><name>Asuntze · горная седловина</name></wpt><trk><name>Urkiolamendi · луга под скалами Anboto</name><desc>Планировочная реконструкция по OpenStreetMap, 14.09.2026. Не запись GPS и не проверенный навигационный трек. Высоты не экспортированы. Данные © OpenStreetMap contributors, ODbL. Автопереезды и канатки в пеший трек не включены.</desc><type>hiking</type><trkseg><trkpt lat="43.100989" lon="-2.646567"/><trkpt lat="43.100995" lon="-2.646474"/><trkpt lat="43.100921" lon="-2.646212"/><trkpt lat="43.100946" lon="-2.646199"/><trkpt lat="43.100938" lon="-2.646149"/><trkpt lat="43.100918" lon="-2.646061"/><trkpt lat="43.100813" lon="-2.645883"/><trkpt lat="43.100754" lon="-2.645815"/><trkpt lat="43.100345" lon="-2.645074"/><trkpt lat="43.10024" lon="-2.644795"/><trkpt lat="43.100162" lon="-2.644509"/><trkpt lat="43.10013" lon="-2.644385"/><trkpt lat="43.100068" lon="-2.644139"/><trkpt lat="43.099952" lon="-2.643686"/><trkpt lat="43.099846" lon="-2.643263"/><trkpt lat="43.099834" lon="-2.643216"/><trkpt lat="43.099785" lon="-2.643018"/><trkpt lat="43.099759" lon="-2.642928"/><trkpt lat="43.099729" lon="-2.642832"/><trkpt lat="43.099676" lon="-2.642714"/><trkpt lat="43.099596" lon="-2.642608"/><trkpt lat="43.09954" lon="-2.642549"/><trkpt lat="43.099476" lon="-2.642494"/><trkpt lat="43.099426" lon="-2.642462"/><trkpt lat="43.099501" lon="-2.642216"/><trkpt lat="43.099531" lon="-2.642008"/><trkpt lat="43.099516" lon="-2.64172"/><trkpt lat="43.099461" lon="-2.64147"/><trkpt lat="43.099279" lon="-2.640831"/><trkpt lat="43.098788" lon="-2.639296"/><trkpt lat="43.098061" lon="-2.636982"/><trkpt lat="43.098002" lon="-2.636664"/><trkpt lat="43.097955" lon="-2.636457"/><trkpt lat="43.097775" lon="-2.635911"/><trkpt lat="43.097649" lon="-2.635246"/><trkpt lat="43.097374" lon="-2.634314"/><trkpt lat="43.097135" lon="-2.633613"/><trkpt lat="43.09702" lon="-2.633325"/><trkpt lat="43.096677" lon="-2.63261"/><trkpt lat="43.096567" lon="-2.632436"/><trkpt lat="43.096413" lon="-2.632257"/><trkpt lat="43.096302" lon="-2.632152"/><trkpt lat="43.09584" lon="-2.631774"/><trkpt lat="43.095136" lon="-2.630976"/><trkpt lat="43.095089" lon="-2.630845"/><trkpt lat="43.094811" lon="-2.630482"/><trkpt lat="43.094615" lon="-2.630291"/><trkpt lat="43.094533" lon="-2.630088"/><trkpt lat="43.094253" lon="-2.629649"/><trkpt lat="43.094164" lon="-2.62945"/><trkpt lat="43.093908" lon="-2.62924"/><trkpt lat="43.093429" lon="-2.628995"/><trkpt lat="43.093343" lon="-2.62892"/><trkpt lat="43.093165" lon="-2.628722"/><trkpt lat="43.092832" lon="-2.628264"/><trkpt lat="43.092516" lon="-2.627764"/><trkpt lat="43.092355" lon="-2.627437"/><trkpt lat="43.092254" lon="-2.627274"/><trkpt lat="43.091843" lon="-2.626789"/><trkpt lat="43.091782" lon="-2.626647"/><trkpt lat="43.091731" lon="-2.626443"/><trkpt lat="43.091733" lon="-2.626385"/><trkpt lat="43.091773" lon="-2.625581"/><trkpt lat="43.091782" lon="-2.624643"/><trkpt lat="43.091964" lon="-2.623762"/><trkpt lat="43.092014" lon="-2.623377"/><trkpt lat="43.092086" lon="-2.623155"/><trkpt lat="43.092198" lon="-2.622653"/><trkpt lat="43.092253" lon="-2.622062"/><trkpt lat="43.092236" lon="-2.621843"/><trkpt lat="43.092309" lon="-2.62117"/><trkpt lat="43.092323" lon="-2.620913"/><trkpt lat="43.0925" lon="-2.619828"/><trkpt lat="43.092594" lon="-2.619022"/><trkpt lat="43.092698" lon="-2.618343"/><trkpt lat="43.092681" lon="-2.618282"/><trkpt lat="43.09248" lon="-2.617873"/><trkpt lat="43.092374" lon="-2.617794"/><trkpt lat="43.092268" lon="-2.617552"/><trkpt lat="43.092222" lon="-2.617467"/><trkpt lat="43.092204" lon="-2.617414"/><trkpt lat="43.092161" lon="-2.617247"/><trkpt lat="43.092166" lon="-2.617164"/><trkpt lat="43.092245" lon="-2.616942"/><trkpt lat="43.092287" lon="-2.616752"/><trkpt lat="43.092499" lon="-2.616359"/><trkpt lat="43.09255" lon="-2.616177"/><trkpt lat="43.092559" lon="-2.616113"/><trkpt lat="43.092515" lon="-2.616009"/><trkpt lat="43.092549" lon="-2.615965"/><trkpt lat="43.092587" lon="-2.615898"/><trkpt lat="43.092639" lon="-2.615776"/><trkpt lat="43.092682" lon="-2.61562"/><trkpt lat="43.092774" lon="-2.615376"/><trkpt lat="43.092851" lon="-2.615281"/><trkpt lat="43.092863" lon="-2.615104"/><trkpt lat="43.09288" lon="-2.614989"/><trkpt lat="43.092866" lon="-2.614839"/><trkpt lat="43.092842" lon="-2.614706"/><trkpt lat="43.092831" lon="-2.614538"/><trkpt lat="43.092856" lon="-2.614233"/><trkpt lat="43.09284" lon="-2.614199"/><trkpt lat="43.09266" lon="-2.613925"/><trkpt lat="43.092487" lon="-2.613734"/><trkpt lat="43.092263" lon="-2.613545"/><trkpt lat="43.092175" lon="-2.613432"/><trkpt lat="43.091689" lon="-2.612912"/><trkpt lat="43.091318" lon="-2.612387"/><trkpt lat="43.091062" lon="-2.612057"/><trkpt lat="43.090901" lon="-2.61189"/><trkpt lat="43.090689" lon="-2.611703"/><trkpt lat="43.090593" lon="-2.61157"/><trkpt lat="43.090467" lon="-2.611364"/><trkpt lat="43.09021" lon="-2.611101"/><trkpt lat="43.090119" lon="-2.610937"/><trkpt lat="43.089976" lon="-2.610759"/><trkpt lat="43.089858" lon="-2.610586"/><trkpt lat="43.089819" lon="-2.610543"/><trkpt lat="43.089858" lon="-2.610586"/><trkpt lat="43.089976" lon="-2.610759"/><trkpt lat="43.090119" lon="-2.610937"/><trkpt lat="43.09021" lon="-2.611101"/><trkpt lat="43.090467" lon="-2.611364"/><trkpt lat="43.090593" lon="-2.61157"/><trkpt lat="43.090689" lon="-2.611703"/><trkpt lat="43.090901" lon="-2.61189"/><trkpt lat="43.091062" lon="-2.612057"/><trkpt lat="43.091318" lon="-2.612387"/><trkpt lat="43.091689" lon="-2.612912"/><trkpt lat="43.092175" lon="-2.613432"/><trkpt lat="43.092263" lon="-2.613545"/><trkpt lat="43.092487" lon="-2.613734"/><trkpt lat="43.09266" lon="-2.613925"/><trkpt lat="43.09284" lon="-2.614199"/><trkpt lat="43.092856" lon="-2.614233"/><trkpt lat="43.092831" lon="-2.614538"/><trkpt lat="43.092842" lon="-2.614706"/><trkpt lat="43.092866" lon="-2.614839"/><trkpt lat="43.09288" lon="-2.614989"/><trkpt lat="43.092863" lon="-2.615104"/><trkpt lat="43.092851" lon="-2.615281"/><trkpt lat="43.092774" lon="-2.615376"/><trkpt lat="43.092682" lon="-2.61562"/><trkpt lat="43.092639" lon="-2.615776"/><trkpt lat="43.092587" lon="-2.615898"/><trkpt lat="43.092549" lon="-2.615965"/><trkpt lat="43.092515" lon="-2.616009"/><trkpt lat="43.092252" lon="-2.61634"/><trkpt lat="43.092152" lon="-2.616455"/><trkpt lat="43.092095" lon="-2.616507"/><trkpt lat="43.092085" lon="-2.616512"/><trkpt lat="43.092028" lon="-2.616537"/><trkpt lat="43.091929" lon="-2.6166"/><trkpt lat="43.091839" lon="-2.616672"/><trkpt lat="43.091797" lon="-2.616737"/><trkpt lat="43.091735" lon="-2.616909"/><trkpt lat="43.091697" lon="-2.617168"/><trkpt lat="43.09162" lon="-2.617491"/><trkpt lat="43.091554" lon="-2.617673"/><trkpt lat="43.091433" lon="-2.617944"/><trkpt lat="43.091279" lon="-2.618327"/><trkpt lat="43.09115" lon="-2.618608"/><trkpt lat="43.091087" lon="-2.618807"/><trkpt lat="43.091035" lon="-2.619125"/><trkpt lat="43.091012" lon="-2.619186"/><trkpt lat="43.090972" lon="-2.619243"/><trkpt lat="43.090804" lon="-2.619427"/><trkpt lat="43.090779" lon="-2.619489"/><trkpt lat="43.090756" lon="-2.619566"/><trkpt lat="43.090738" lon="-2.61967"/><trkpt lat="43.090736" lon="-2.619873"/><trkpt lat="43.090725" lon="-2.619952"/><trkpt lat="43.0907" lon="-2.620032"/><trkpt lat="43.090653" lon="-2.620136"/><trkpt lat="43.090531" lon="-2.620286"/><trkpt lat="43.090504" lon="-2.620388"/><trkpt lat="43.09049" lon="-2.620534"/><trkpt lat="43.090504" lon="-2.620683"/><trkpt lat="43.090796" lon="-2.621871"/><trkpt lat="43.090887" lon="-2.622543"/><trkpt lat="43.090872" lon="-2.622668"/><trkpt lat="43.090816" lon="-2.622825"/><trkpt lat="43.090728" lon="-2.622926"/><trkpt lat="43.09053" lon="-2.623099"/><trkpt lat="43.090216" lon="-2.623314"/><trkpt lat="43.090132" lon="-2.623401"/><trkpt lat="43.090067" lon="-2.623499"/><trkpt lat="43.089991" lon="-2.623706"/><trkpt lat="43.089897" lon="-2.624038"/><trkpt lat="43.089852" lon="-2.624329"/><trkpt lat="43.089826" lon="-2.624414"/><trkpt lat="43.089787" lon="-2.624497"/><trkpt lat="43.089702" lon="-2.624617"/><trkpt lat="43.089373" lon="-2.624993"/><trkpt lat="43.089281" lon="-2.625088"/><trkpt lat="43.089172" lon="-2.625179"/><trkpt lat="43.08911" lon="-2.625208"/><trkpt lat="43.088869" lon="-2.62528"/><trkpt lat="43.088489" lon="-2.625411"/><trkpt lat="43.088432" lon="-2.625462"/><trkpt lat="43.088385" lon="-2.625564"/><trkpt lat="43.088365" lon="-2.625654"/><trkpt lat="43.088365" lon="-2.625793"/><trkpt lat="43.088379" lon="-2.625891"/><trkpt lat="43.088615" lon="-2.626623"/><trkpt lat="43.088715" lon="-2.626903"/><trkpt lat="43.088753" lon="-2.627052"/><trkpt lat="43.088784" lon="-2.627285"/><trkpt lat="43.088775" lon="-2.627361"/><trkpt lat="43.088732" lon="-2.62749"/><trkpt lat="43.088527" lon="-2.628011"/><trkpt lat="43.088474" lon="-2.628171"/><trkpt lat="43.088456" lon="-2.62827"/><trkpt lat="43.088449" lon="-2.628452"/><trkpt lat="43.088471" lon="-2.62885"/><trkpt lat="43.088545" lon="-2.629304"/><trkpt lat="43.088646" lon="-2.629697"/><trkpt lat="43.088748" lon="-2.629997"/><trkpt lat="43.088819" lon="-2.630163"/><trkpt lat="43.088939" lon="-2.630406"/><trkpt lat="43.089145" lon="-2.630726"/><trkpt lat="43.089881" lon="-2.631816"/><trkpt lat="43.090272" lon="-2.632473"/><trkpt lat="43.090596" lon="-2.633062"/><trkpt lat="43.090674" lon="-2.63318"/><trkpt lat="43.090791" lon="-2.633294"/><trkpt lat="43.091327" lon="-2.633712"/><trkpt lat="43.091445" lon="-2.633779"/><trkpt lat="43.091501" lon="-2.633824"/><trkpt lat="43.091648" lon="-2.634004"/><trkpt lat="43.091863" lon="-2.634301"/><trkpt lat="43.092003" lon="-2.634471"/><trkpt lat="43.092331" lon="-2.634751"/><trkpt lat="43.092518" lon="-2.634946"/><trkpt lat="43.092728" lon="-2.635174"/><trkpt lat="43.092828" lon="-2.635271"/><trkpt lat="43.092967" lon="-2.635382"/><trkpt lat="43.093109" lon="-2.635475"/><trkpt lat="43.093388" lon="-2.635628"/><trkpt lat="43.093615" lon="-2.635695"/><trkpt lat="43.093843" lon="-2.635727"/><trkpt lat="43.094168" lon="-2.635801"/><trkpt lat="43.094389" lon="-2.635831"/><trkpt lat="43.095178" lon="-2.635867"/><trkpt lat="43.095637" lon="-2.635879"/><trkpt lat="43.095868" lon="-2.635864"/><trkpt lat="43.096038" lon="-2.635843"/><trkpt lat="43.096176" lon="-2.635812"/><trkpt lat="43.096334" lon="-2.635746"/><trkpt lat="43.096428" lon="-2.635676"/><trkpt lat="43.096546" lon="-2.63551"/><trkpt lat="43.096604" lon="-2.635413"/><trkpt lat="43.096644" lon="-2.635377"/><trkpt lat="43.096691" lon="-2.635371"/><trkpt lat="43.096727" lon="-2.63538"/><trkpt lat="43.096767" lon="-2.635404"/><trkpt lat="43.096815" lon="-2.635446"/><trkpt lat="43.096903" lon="-2.635573"/><trkpt lat="43.09701" lon="-2.635768"/><trkpt lat="43.097123" lon="-2.636025"/><trkpt lat="43.097229" lon="-2.636378"/><trkpt lat="43.09727" lon="-2.636582"/><trkpt lat="43.097319" lon="-2.636969"/><trkpt lat="43.097403" lon="-2.637521"/><trkpt lat="43.09762" lon="-2.639211"/><trkpt lat="43.097742" lon="-2.640085"/><trkpt lat="43.0978" lon="-2.64028"/><trkpt lat="43.0979" lon="-2.640541"/><trkpt lat="43.098015" lon="-2.640781"/><trkpt lat="43.098232" lon="-2.641184"/><trkpt lat="43.098363" lon="-2.641387"/><trkpt lat="43.098605" lon="-2.641691"/><trkpt lat="43.098837" lon="-2.641936"/><trkpt lat="43.098863" lon="-2.641964"/><trkpt lat="43.098988" lon="-2.642096"/><trkpt lat="43.099371" lon="-2.642428"/><trkpt lat="43.099426" lon="-2.642462"/><trkpt lat="43.099476" lon="-2.642494"/><trkpt lat="43.09954" lon="-2.642549"/><trkpt lat="43.099596" lon="-2.642608"/><trkpt lat="43.099676" lon="-2.642714"/><trkpt lat="43.099729" lon="-2.642832"/><trkpt lat="43.099759" lon="-2.642928"/><trkpt lat="43.099785" lon="-2.643018"/><trkpt lat="43.099834" lon="-2.643216"/><trkpt lat="43.099846" lon="-2.643263"/><trkpt lat="43.099952" lon="-2.643686"/><trkpt lat="43.100068" lon="-2.644139"/><trkpt lat="43.10013" lon="-2.644385"/><trkpt lat="43.100162" lon="-2.644509"/><trkpt lat="43.10024" lon="-2.644795"/><trkpt lat="43.100345" lon="-2.645074"/><trkpt lat="43.100754" lon="-2.645815"/><trkpt lat="43.100813" lon="-2.645883"/><trkpt lat="43.100918" lon="-2.646061"/><trkpt lat="43.100938" lon="-2.646149"/><trkpt lat="43.100946" lon="-2.646199"/><trkpt lat="43.100921" lon="-2.646212"/><trkpt lat="43.100995" lon="-2.646474"/><trkpt lat="43.100989" lon="-2.646567"/></trkseg></trk></gpx>