<?xml version="1.0" encoding="UTF-8"?><gpx version="1.1" creator="Basque Hikes Atlas" xmlns="http://www.topografix.com/GPX/1/1"><metadata><name>Urbia · альпийские луга под хребтом Aizkorri</name><desc>Планировочная реконструкция по OpenStreetMap, 14.09.2026. Не запись GPS и не проверенный навигационный трек. Высоты не экспортированы. Данные © OpenStreetMap contributors, ODbL. Автопереезды и канатки в пеший трек не включены.</desc><link href="https://www.openstreetmap.org/copyright"><text>OpenStreetMap contributors · ODbL</text></link></metadata><wpt lat="42.979057" lon="-2.399069"><name>Arantzazu · святилище, старт</name></wpt><wpt lat="42.9632927" lon="-2.3578893"><name>Andra Mari de Urbia · горная часовня</name></wpt><wpt lat="42.9617002" lon="-2.3547156"><name>Луга Urbia · панорамное плато</name></wpt><trk><name>Arantzazu — Urbia · луга под Aizkorri</name><desc>Планировочная реконструкция по OpenStreetMap, 14.09.2026. Не запись GPS и не проверенный навигационный трек. Высоты не экспортированы. Данные © OpenStreetMap contributors, ODbL. Автопереезды и канатки в пеший трек не включены.</desc><type>hiking</type><trkseg><trkpt lat="42.979057" lon="-2.399069"/><trkpt lat="42.979037" lon="-2.398875"/><trkpt lat="42.979085" lon="-2.398861"/><trkpt lat="42.979083" lon="-2.398845"/><trkpt lat="42.979174" lon="-2.398821"/><trkpt lat="42.979177" lon="-2.398839"/><trkpt lat="42.979228" lon="-2.398822"/><trkpt lat="42.979218" lon="-2.398762"/><trkpt lat="42.979242" lon="-2.398755"/><trkpt lat="42.979186" lon="-2.398429"/><trkpt lat="42.979333" lon="-2.398386"/><trkpt lat="42.979349" lon="-2.398372"/><trkpt lat="42.979322" lon="-2.398172"/><trkpt lat="42.979307" lon="-2.397986"/><trkpt lat="42.979306" lon="-2.397731"/><trkpt lat="42.979275" lon="-2.397611"/><trkpt lat="42.97911" lon="-2.397419"/><trkpt lat="42.979051" lon="-2.39736"/><trkpt lat="42.97893" lon="-2.397299"/><trkpt lat="42.978816" lon="-2.397256"/><trkpt lat="42.978594" lon="-2.397226"/><trkpt lat="42.978434" lon="-2.397185"/><trkpt lat="42.978372" lon="-2.397172"/><trkpt lat="42.978312" lon="-2.397131"/><trkpt lat="42.978258" lon="-2.397058"/><trkpt lat="42.978191" lon="-2.396916"/><trkpt lat="42.978157" lon="-2.396763"/><trkpt lat="42.978156" lon="-2.396661"/><trkpt lat="42.978173" lon="-2.396488"/><trkpt lat="42.978174" lon="-2.396384"/><trkpt lat="42.978152" lon="-2.396324"/><trkpt lat="42.977974" lon="-2.395963"/><trkpt lat="42.978025" lon="-2.395924"/><trkpt lat="42.978083" lon="-2.395937"/><trkpt lat="42.97821" lon="-2.396043"/><trkpt lat="42.978332" lon="-2.396121"/><trkpt lat="42.978405" lon="-2.396171"/><trkpt lat="42.978393" lon="-2.396091"/><trkpt lat="42.978314" lon="-2.395894"/><trkpt lat="42.978298" lon="-2.395685"/><trkpt lat="42.978292" lon="-2.395483"/><trkpt lat="42.978312" lon="-2.395309"/><trkpt lat="42.978349" lon="-2.395151"/><trkpt lat="42.978444" lon="-2.394773"/><trkpt lat="42.978483" lon="-2.394652"/><trkpt lat="42.978498" lon="-2.394626"/><trkpt lat="42.97855" lon="-2.394531"/><trkpt lat="42.978461" lon="-2.394366"/><trkpt lat="42.978428" lon="-2.394118"/><trkpt lat="42.978406" lon="-2.393792"/><trkpt lat="42.978372" lon="-2.393561"/><trkpt lat="42.978388" lon="-2.393359"/><trkpt lat="42.978431" lon="-2.393259"/><trkpt lat="42.978546" lon="-2.393108"/><trkpt lat="42.978715" lon="-2.392857"/><trkpt lat="42.978787" lon="-2.392663"/><trkpt lat="42.978839" lon="-2.392471"/><trkpt lat="42.978884" lon="-2.392238"/><trkpt lat="42.978891" lon="-2.392059"/><trkpt lat="42.978862" lon="-2.391968"/><trkpt lat="42.978691" lon="-2.391607"/><trkpt lat="42.978571" lon="-2.391374"/><trkpt lat="42.978353" lon="-2.391047"/><trkpt lat="42.977963" lon="-2.390503"/><trkpt lat="42.977706" lon="-2.390052"/><trkpt lat="42.977625" lon="-2.389844"/><trkpt lat="42.977593" lon="-2.389644"/><trkpt lat="42.977592" lon="-2.389301"/><trkpt lat="42.977626" lon="-2.389073"/><trkpt lat="42.977674" lon="-2.388901"/><trkpt lat="42.977671" lon="-2.388748"/><trkpt lat="42.97764" lon="-2.388512"/><trkpt lat="42.977608" lon="-2.388164"/><trkpt lat="42.977556" lon="-2.387934"/><trkpt lat="42.977476" lon="-2.38776"/><trkpt lat="42.977138" lon="-2.387537"/><trkpt lat="42.976936" lon="-2.387435"/><trkpt lat="42.976577" lon="-2.387228"/><trkpt lat="42.976399" lon="-2.38715"/><trkpt lat="42.97623" lon="-2.387028"/><trkpt lat="42.976075" lon="-2.387006"/><trkpt lat="42.975993" lon="-2.386944"/><trkpt lat="42.975957" lon="-2.386746"/><trkpt lat="42.975955" lon="-2.386451"/><trkpt lat="42.975912" lon="-2.38629"/><trkpt lat="42.975746" lon="-2.386046"/><trkpt lat="42.975461" lon="-2.385603"/><trkpt lat="42.975298" lon="-2.385269"/><trkpt lat="42.975204" lon="-2.385093"/><trkpt lat="42.975131" lon="-2.384856"/><trkpt lat="42.975022" lon="-2.384641"/><trkpt lat="42.974921" lon="-2.384532"/><trkpt lat="42.97482" lon="-2.384447"/><trkpt lat="42.974738" lon="-2.384355"/><trkpt lat="42.974667" lon="-2.384192"/><trkpt lat="42.974584" lon="-2.383939"/><trkpt lat="42.974466" lon="-2.383771"/><trkpt lat="42.974377" lon="-2.383613"/><trkpt lat="42.974267" lon="-2.383406"/><trkpt lat="42.974125" lon="-2.383108"/><trkpt lat="42.974051" lon="-2.382637"/><trkpt lat="42.973986" lon="-2.382403"/><trkpt lat="42.973881" lon="-2.382206"/><trkpt lat="42.973828" lon="-2.382143"/><trkpt lat="42.973755" lon="-2.382059"/><trkpt lat="42.973602" lon="-2.382002"/><trkpt lat="42.973517" lon="-2.382031"/><trkpt lat="42.973421" lon="-2.3821"/><trkpt lat="42.973297" lon="-2.382236"/><trkpt lat="42.973058" lon="-2.382451"/><trkpt lat="42.972983" lon="-2.382491"/><trkpt lat="42.972855" lon="-2.382505"/><trkpt lat="42.97275" lon="-2.382483"/><trkpt lat="42.972618" lon="-2.382428"/><trkpt lat="42.972508" lon="-2.382373"/><trkpt lat="42.972409" lon="-2.382251"/><trkpt lat="42.97238" lon="-2.382101"/><trkpt lat="42.972368" lon="-2.381921"/><trkpt lat="42.972409" lon="-2.381571"/><trkpt lat="42.972405" lon="-2.381492"/><trkpt lat="42.972379" lon="-2.381357"/><trkpt lat="42.972222" lon="-2.381011"/><trkpt lat="42.972163" lon="-2.380836"/><trkpt lat="42.972097" lon="-2.380604"/><trkpt lat="42.972065" lon="-2.380424"/><trkpt lat="42.972084" lon="-2.380094"/><trkpt lat="42.972063" lon="-2.380002"/><trkpt lat="42.972006" lon="-2.379972"/><trkpt lat="42.971821" lon="-2.379924"/><trkpt lat="42.971732" lon="-2.379858"/><trkpt lat="42.971672" lon="-2.379792"/><trkpt lat="42.971589" lon="-2.379606"/><trkpt lat="42.971529" lon="-2.379501"/><trkpt lat="42.971213" lon="-2.379076"/><trkpt lat="42.97096" lon="-2.378683"/><trkpt lat="42.970874" lon="-2.378481"/><trkpt lat="42.970822" lon="-2.378251"/><trkpt lat="42.970802" lon="-2.377975"/><trkpt lat="42.970707" lon="-2.377428"/><trkpt lat="42.970645" lon="-2.377201"/><trkpt lat="42.970595" lon="-2.376935"/><trkpt lat="42.970608" lon="-2.376777"/><trkpt lat="42.970643" lon="-2.37657"/><trkpt lat="42.970681" lon="-2.376394"/><trkpt lat="42.970702" lon="-2.376222"/><trkpt lat="42.970705" lon="-2.375996"/><trkpt lat="42.97069" lon="-2.375824"/><trkpt lat="42.970687" lon="-2.375646"/><trkpt lat="42.970656" lon="-2.375526"/><trkpt lat="42.970597" lon="-2.375476"/><trkpt lat="42.970533" lon="-2.37544"/><trkpt lat="42.970395" lon="-2.375372"/><trkpt lat="42.970218" lon="-2.375346"/><trkpt lat="42.970142" lon="-2.375355"/><trkpt lat="42.970043" lon="-2.375337"/><trkpt lat="42.969577" lon="-2.375147"/><trkpt lat="42.969376" lon="-2.375073"/><trkpt lat="42.969303" lon="-2.375002"/><trkpt lat="42.969254" lon="-2.374895"/><trkpt lat="42.969089" lon="-2.374536"/><trkpt lat="42.968965" lon="-2.374188"/><trkpt lat="42.968908" lon="-2.374085"/><trkpt lat="42.968773" lon="-2.373929"/><trkpt lat="42.968688" lon="-2.373735"/><trkpt lat="42.968609" lon="-2.373546"/><trkpt lat="42.9685" lon="-2.373339"/><trkpt lat="42.968411" lon="-2.373194"/><trkpt lat="42.968303" lon="-2.372872"/><trkpt lat="42.968249" lon="-2.372756"/><trkpt lat="42.968154" lon="-2.372582"/><trkpt lat="42.968094" lon="-2.37243"/><trkpt lat="42.968062" lon="-2.372287"/><trkpt lat="42.968023" lon="-2.372173"/><trkpt lat="42.968" lon="-2.371986"/><trkpt lat="42.96794" lon="-2.37176"/><trkpt lat="42.967931" lon="-2.371625"/><trkpt lat="42.96794" lon="-2.37144"/><trkpt lat="42.967923" lon="-2.37135"/><trkpt lat="42.967874" lon="-2.371181"/><trkpt lat="42.967524" lon="-2.370336"/><trkpt lat="42.967328" lon="-2.369933"/><trkpt lat="42.96676" lon="-2.369214"/><trkpt lat="42.966603" lon="-2.368945"/><trkpt lat="42.966519" lon="-2.368835"/><trkpt lat="42.96644" lon="-2.368688"/><trkpt lat="42.966385" lon="-2.368544"/><trkpt lat="42.966329" lon="-2.368443"/><trkpt lat="42.966302" lon="-2.368356"/><trkpt lat="42.966249" lon="-2.368284"/><trkpt lat="42.966243" lon="-2.368255"/><trkpt lat="42.966259" lon="-2.368239"/><trkpt lat="42.966254" lon="-2.368174"/><trkpt lat="42.966276" lon="-2.368135"/><trkpt lat="42.966273" lon="-2.368104"/><trkpt lat="42.96619" lon="-2.367903"/><trkpt lat="42.966196" lon="-2.367848"/><trkpt lat="42.966187" lon="-2.367781"/><trkpt lat="42.96616" lon="-2.367724"/><trkpt lat="42.966155" lon="-2.367669"/><trkpt lat="42.96617" lon="-2.367638"/><trkpt lat="42.966173" lon="-2.367588"/><trkpt lat="42.966149" lon="-2.367501"/><trkpt lat="42.966152" lon="-2.367429"/><trkpt lat="42.966155" lon="-2.367381"/><trkpt lat="42.966103" lon="-2.367056"/><trkpt lat="42.966047" lon="-2.366829"/><trkpt lat="42.965811" lon="-2.366241"/><trkpt lat="42.965692" lon="-2.365913"/><trkpt lat="42.965599" lon="-2.365551"/><trkpt lat="42.965481" lon="-2.365266"/><trkpt lat="42.965365" lon="-2.365017"/><trkpt lat="42.965251" lon="-2.364816"/><trkpt lat="42.965172" lon="-2.364761"/><trkpt lat="42.965088" lon="-2.364658"/><trkpt lat="42.96502" lon="-2.364587"/><trkpt lat="42.964808" lon="-2.364425"/><trkpt lat="42.964673" lon="-2.364351"/><trkpt lat="42.964548" lon="-2.364293"/><trkpt lat="42.964482" lon="-2.364244"/><trkpt lat="42.964263" lon="-2.364256"/><trkpt lat="42.964152" lon="-2.364236"/><trkpt lat="42.964073" lon="-2.364151"/><trkpt lat="42.963901" lon="-2.364009"/><trkpt lat="42.963765" lon="-2.363693"/><trkpt lat="42.963754" lon="-2.363268"/><trkpt lat="42.963679" lon="-2.363005"/><trkpt lat="42.963448" lon="-2.362348"/><trkpt lat="42.963412" lon="-2.361982"/><trkpt lat="42.963494" lon="-2.361299"/><trkpt lat="42.963452" lon="-2.3609"/><trkpt lat="42.963463" lon="-2.360166"/><trkpt lat="42.963469" lon="-2.359718"/><trkpt lat="42.963326" lon="-2.35916"/><trkpt lat="42.963298" lon="-2.358535"/><trkpt lat="42.963404" lon="-2.358094"/><trkpt lat="42.963418" lon="-2.357908"/><trkpt lat="42.963433" lon="-2.357718"/><trkpt lat="42.963396" lon="-2.357393"/><trkpt lat="42.963318" lon="-2.356863"/><trkpt lat="42.963193" lon="-2.356788"/><trkpt lat="42.963035" lon="-2.356418"/><trkpt lat="42.962837" lon="-2.356133"/><trkpt lat="42.962284" lon="-2.355502"/><trkpt lat="42.962087" lon="-2.355869"/><trkpt lat="42.962049" lon="-2.355836"/><trkpt lat="42.961995" lon="-2.355813"/><trkpt lat="42.961957" lon="-2.355752"/><trkpt lat="42.961958" lon="-2.355657"/><trkpt lat="42.961987" lon="-2.355506"/><trkpt lat="42.961846" lon="-2.355146"/><trkpt lat="42.961724" lon="-2.35499"/><trkpt lat="42.961709" lon="-2.354991"/><trkpt lat="42.961724" lon="-2.35499"/><trkpt lat="42.961846" lon="-2.355146"/><trkpt lat="42.961987" lon="-2.355506"/><trkpt lat="42.961958" lon="-2.355657"/><trkpt lat="42.961957" lon="-2.355752"/><trkpt lat="42.961995" lon="-2.355813"/><trkpt lat="42.962049" lon="-2.355836"/><trkpt lat="42.962087" lon="-2.355869"/><trkpt lat="42.962284" lon="-2.355502"/><trkpt lat="42.962837" lon="-2.356133"/><trkpt lat="42.963035" lon="-2.356418"/><trkpt lat="42.963193" lon="-2.356788"/><trkpt lat="42.963318" lon="-2.356863"/><trkpt lat="42.963396" lon="-2.357393"/><trkpt lat="42.963433" lon="-2.357718"/><trkpt lat="42.963418" lon="-2.357908"/><trkpt lat="42.963404" lon="-2.358094"/><trkpt lat="42.963298" lon="-2.358535"/><trkpt lat="42.963326" lon="-2.35916"/><trkpt lat="42.963469" lon="-2.359718"/><trkpt lat="42.963463" lon="-2.360166"/><trkpt lat="42.963452" lon="-2.3609"/><trkpt lat="42.963494" lon="-2.361299"/><trkpt lat="42.963412" lon="-2.361982"/><trkpt lat="42.963448" lon="-2.362348"/><trkpt lat="42.963679" lon="-2.363005"/><trkpt lat="42.963754" lon="-2.363268"/><trkpt lat="42.963765" lon="-2.363693"/><trkpt lat="42.963901" lon="-2.364009"/><trkpt lat="42.964073" lon="-2.364151"/><trkpt lat="42.964152" lon="-2.364236"/><trkpt lat="42.964263" lon="-2.364256"/><trkpt lat="42.964482" lon="-2.364244"/><trkpt lat="42.964548" lon="-2.364293"/><trkpt lat="42.964673" lon="-2.364351"/><trkpt lat="42.964808" lon="-2.364425"/><trkpt lat="42.96502" lon="-2.364587"/><trkpt lat="42.965088" lon="-2.364658"/><trkpt lat="42.965172" lon="-2.364761"/><trkpt lat="42.965251" lon="-2.364816"/><trkpt lat="42.965365" lon="-2.365017"/><trkpt lat="42.965481" lon="-2.365266"/><trkpt lat="42.965599" lon="-2.365551"/><trkpt lat="42.965692" lon="-2.365913"/><trkpt lat="42.965811" lon="-2.366241"/><trkpt lat="42.966047" lon="-2.366829"/><trkpt lat="42.966103" lon="-2.367056"/><trkpt lat="42.966155" lon="-2.367381"/><trkpt lat="42.966152" lon="-2.367429"/><trkpt lat="42.966149" lon="-2.367501"/><trkpt lat="42.966173" lon="-2.367588"/><trkpt lat="42.96617" lon="-2.367638"/><trkpt lat="42.966155" lon="-2.367669"/><trkpt lat="42.96616" lon="-2.367724"/><trkpt lat="42.966187" lon="-2.367781"/><trkpt lat="42.966196" lon="-2.367848"/><trkpt lat="42.96619" lon="-2.367903"/><trkpt lat="42.966273" lon="-2.368104"/><trkpt lat="42.966276" lon="-2.368135"/><trkpt lat="42.966254" lon="-2.368174"/><trkpt lat="42.966259" lon="-2.368239"/><trkpt lat="42.966243" lon="-2.368255"/><trkpt lat="42.966249" lon="-2.368284"/><trkpt lat="42.966302" lon="-2.368356"/><trkpt lat="42.966329" lon="-2.368443"/><trkpt lat="42.966385" lon="-2.368544"/><trkpt lat="42.96644" lon="-2.368688"/><trkpt lat="42.966519" lon="-2.368835"/><trkpt lat="42.966603" lon="-2.368945"/><trkpt lat="42.96676" lon="-2.369214"/><trkpt lat="42.967328" lon="-2.369933"/><trkpt lat="42.967524" lon="-2.370336"/><trkpt lat="42.967874" lon="-2.371181"/><trkpt lat="42.967923" lon="-2.37135"/><trkpt lat="42.96794" lon="-2.37144"/><trkpt lat="42.967931" lon="-2.371625"/><trkpt lat="42.96794" lon="-2.37176"/><trkpt lat="42.968" lon="-2.371986"/><trkpt lat="42.968023" lon="-2.372173"/><trkpt lat="42.968062" lon="-2.372287"/><trkpt lat="42.968094" lon="-2.37243"/><trkpt lat="42.968154" lon="-2.372582"/><trkpt lat="42.968249" lon="-2.372756"/><trkpt lat="42.968303" lon="-2.372872"/><trkpt lat="42.968411" lon="-2.373194"/><trkpt lat="42.9685" lon="-2.373339"/><trkpt lat="42.968609" lon="-2.373546"/><trkpt lat="42.968688" lon="-2.373735"/><trkpt lat="42.968773" lon="-2.373929"/><trkpt lat="42.968908" lon="-2.374085"/><trkpt lat="42.968965" lon="-2.374188"/><trkpt lat="42.969089" lon="-2.374536"/><trkpt lat="42.969254" lon="-2.374895"/><trkpt lat="42.969303" lon="-2.375002"/><trkpt lat="42.969376" lon="-2.375073"/><trkpt lat="42.969577" lon="-2.375147"/><trkpt lat="42.970043" lon="-2.375337"/><trkpt lat="42.970142" lon="-2.375355"/><trkpt lat="42.970218" lon="-2.375346"/><trkpt lat="42.970395" lon="-2.375372"/><trkpt lat="42.970533" lon="-2.37544"/><trkpt lat="42.970597" lon="-2.375476"/><trkpt lat="42.970656" lon="-2.375526"/><trkpt lat="42.970687" lon="-2.375646"/><trkpt lat="42.97069" lon="-2.375824"/><trkpt lat="42.970705" lon="-2.375996"/><trkpt lat="42.970702" lon="-2.376222"/><trkpt lat="42.970681" lon="-2.376394"/><trkpt lat="42.970643" lon="-2.37657"/><trkpt lat="42.970608" lon="-2.376777"/><trkpt lat="42.970595" lon="-2.376935"/><trkpt lat="42.970645" lon="-2.377201"/><trkpt lat="42.970707" lon="-2.377428"/><trkpt lat="42.970802" lon="-2.377975"/><trkpt lat="42.970822" lon="-2.378251"/><trkpt lat="42.970874" lon="-2.378481"/><trkpt lat="42.97096" lon="-2.378683"/><trkpt lat="42.971213" lon="-2.379076"/><trkpt lat="42.971529" lon="-2.379501"/><trkpt lat="42.971589" lon="-2.379606"/><trkpt lat="42.971672" lon="-2.379792"/><trkpt lat="42.971732" lon="-2.379858"/><trkpt lat="42.971821" lon="-2.379924"/><trkpt lat="42.972006" lon="-2.379972"/><trkpt lat="42.972063" lon="-2.380002"/><trkpt lat="42.972084" lon="-2.380094"/><trkpt lat="42.972065" lon="-2.380424"/><trkpt lat="42.972097" lon="-2.380604"/><trkpt lat="42.972163" lon="-2.380836"/><trkpt lat="42.972222" lon="-2.381011"/><trkpt lat="42.972379" lon="-2.381357"/><trkpt lat="42.972405" lon="-2.381492"/><trkpt lat="42.972409" lon="-2.381571"/><trkpt lat="42.972368" lon="-2.381921"/><trkpt lat="42.97238" lon="-2.382101"/><trkpt lat="42.972409" lon="-2.382251"/><trkpt lat="42.972508" lon="-2.382373"/><trkpt lat="42.972618" lon="-2.382428"/><trkpt lat="42.97275" lon="-2.382483"/><trkpt lat="42.972855" lon="-2.382505"/><trkpt lat="42.972983" lon="-2.382491"/><trkpt lat="42.973058" lon="-2.382451"/><trkpt lat="42.973297" lon="-2.382236"/><trkpt lat="42.973421" lon="-2.3821"/><trkpt lat="42.973517" lon="-2.382031"/><trkpt lat="42.973602" lon="-2.382002"/><trkpt lat="42.973755" lon="-2.382059"/><trkpt lat="42.973828" lon="-2.382143"/><trkpt lat="42.973881" lon="-2.382206"/><trkpt lat="42.973986" lon="-2.382403"/><trkpt lat="42.974051" lon="-2.382637"/><trkpt lat="42.974125" lon="-2.383108"/><trkpt lat="42.974267" lon="-2.383406"/><trkpt lat="42.974377" lon="-2.383613"/><trkpt lat="42.974466" lon="-2.383771"/><trkpt lat="42.974584" lon="-2.383939"/><trkpt lat="42.974667" lon="-2.384192"/><trkpt lat="42.974738" lon="-2.384355"/><trkpt lat="42.97482" lon="-2.384447"/><trkpt lat="42.974921" lon="-2.384532"/><trkpt lat="42.975022" lon="-2.384641"/><trkpt lat="42.975131" lon="-2.384856"/><trkpt lat="42.975204" lon="-2.385093"/><trkpt lat="42.975298" lon="-2.385269"/><trkpt lat="42.975461" lon="-2.385603"/><trkpt lat="42.975746" lon="-2.386046"/><trkpt lat="42.975912" lon="-2.38629"/><trkpt lat="42.975955" lon="-2.386451"/><trkpt lat="42.975957" lon="-2.386746"/><trkpt lat="42.975993" lon="-2.386944"/><trkpt lat="42.976075" lon="-2.387006"/><trkpt lat="42.97623" lon="-2.387028"/><trkpt lat="42.976399" lon="-2.38715"/><trkpt lat="42.976577" lon="-2.387228"/><trkpt lat="42.976936" lon="-2.387435"/><trkpt lat="42.977138" lon="-2.387537"/><trkpt lat="42.977476" lon="-2.38776"/><trkpt lat="42.977556" lon="-2.387934"/><trkpt lat="42.977608" lon="-2.388164"/><trkpt lat="42.97764" lon="-2.388512"/><trkpt lat="42.977671" lon="-2.388748"/><trkpt lat="42.977674" lon="-2.388901"/><trkpt lat="42.977626" lon="-2.389073"/><trkpt lat="42.977592" lon="-2.389301"/><trkpt lat="42.977593" lon="-2.389644"/><trkpt lat="42.977625" lon="-2.389844"/><trkpt lat="42.977706" lon="-2.390052"/><trkpt lat="42.977963" lon="-2.390503"/><trkpt lat="42.978353" lon="-2.391047"/><trkpt lat="42.978571" lon="-2.391374"/><trkpt lat="42.978691" lon="-2.391607"/><trkpt lat="42.978862" lon="-2.391968"/><trkpt lat="42.978891" lon="-2.392059"/><trkpt lat="42.978884" lon="-2.392238"/><trkpt lat="42.978839" lon="-2.392471"/><trkpt lat="42.978787" lon="-2.392663"/><trkpt lat="42.978715" lon="-2.392857"/><trkpt lat="42.978546" lon="-2.393108"/><trkpt lat="42.978431" lon="-2.393259"/><trkpt lat="42.978388" lon="-2.393359"/><trkpt lat="42.978372" lon="-2.393561"/><trkpt lat="42.978406" lon="-2.393792"/><trkpt lat="42.978428" lon="-2.394118"/><trkpt lat="42.978461" lon="-2.394366"/><trkpt lat="42.97855" lon="-2.394531"/><trkpt lat="42.978498" lon="-2.394626"/><trkpt lat="42.978483" lon="-2.394652"/><trkpt lat="42.978444" lon="-2.394773"/><trkpt lat="42.978349" lon="-2.395151"/><trkpt lat="42.978312" lon="-2.395309"/><trkpt lat="42.978292" lon="-2.395483"/><trkpt lat="42.978298" lon="-2.395685"/><trkpt lat="42.978314" lon="-2.395894"/><trkpt lat="42.978393" lon="-2.396091"/><trkpt lat="42.978405" lon="-2.396171"/><trkpt lat="42.978332" lon="-2.396121"/><trkpt lat="42.97821" lon="-2.396043"/><trkpt lat="42.978083" lon="-2.395937"/><trkpt lat="42.978025" lon="-2.395924"/><trkpt lat="42.977974" lon="-2.395963"/><trkpt lat="42.978152" lon="-2.396324"/><trkpt lat="42.978174" lon="-2.396384"/><trkpt lat="42.978173" lon="-2.396488"/><trkpt lat="42.978156" lon="-2.396661"/><trkpt lat="42.978157" lon="-2.396763"/><trkpt lat="42.978191" lon="-2.396916"/><trkpt lat="42.978258" lon="-2.397058"/><trkpt lat="42.978312" lon="-2.397131"/><trkpt lat="42.978372" lon="-2.397172"/><trkpt lat="42.978434" lon="-2.397185"/><trkpt lat="42.978594" lon="-2.397226"/><trkpt lat="42.978816" lon="-2.397256"/><trkpt lat="42.97893" lon="-2.397299"/><trkpt lat="42.979051" lon="-2.39736"/><trkpt lat="42.97911" lon="-2.397419"/><trkpt lat="42.979275" lon="-2.397611"/><trkpt lat="42.979306" lon="-2.397731"/><trkpt lat="42.979307" lon="-2.397986"/><trkpt lat="42.979322" lon="-2.398172"/><trkpt lat="42.979349" lon="-2.398372"/><trkpt lat="42.979333" lon="-2.398386"/><trkpt lat="42.979186" lon="-2.398429"/><trkpt lat="42.979242" lon="-2.398755"/><trkpt lat="42.979218" lon="-2.398762"/><trkpt lat="42.979228" lon="-2.398822"/><trkpt lat="42.979177" lon="-2.398839"/><trkpt lat="42.979174" lon="-2.398821"/><trkpt lat="42.979083" lon="-2.398845"/><trkpt lat="42.979085" lon="-2.398861"/><trkpt lat="42.979037" lon="-2.398875"/><trkpt lat="42.979057" lon="-2.399069"/></trkseg></trk></gpx>